{"type":"FeatureCollection","bbox":[42.66666666666666,74.28397460372219,213.33333333333331,181.71602539627781],"features":[{"type":"Feature","properties":{"Level":"ADM2","shapeGroup":"SGP","shapeID":"SGP-ADM2-91842731B16705465","shapeName":"Ang Mo Kio","shapeType":"ADM2"},"geometry":{"type":"MultiPolygon","coordinates":[[[[131.9450885400126,153.53211481116548],[131.62530116184004,155.45162440779166],[130.90887116980684,155.86305687821627],[129.92084887913342,155.64632445800464],[126.48768221276292,155.4161726061057],[121.07307575618673,154.18171993160325],[118.04921320603506,154.67460163903274],[117.52476032100445,152.38874868294567],[117.42423106192682,152.32959234649357],[117.3680314331358,151.93111641909445],[118.02215943775361,151.99460529590993],[118.27185151743413,151.4936757750158],[117.67860843186116,149.71012928171092],[119.26387312093169,149.48147452738058],[119.94462108323346,149.1308916888555],[120.48626791525867,149.5150564871544],[121.15438130336895,149.12098268832668],[120.79481771868312,147.62655890137347],[121.10926633639,147.08415800689556],[121.093505512409,145.69828861629483],[121.40119651408352,145.16855208589433],[122.68700702769333,145.23809473567562],[128.23319030122678,143.7936605084317],[131.50353029789687,140.9374727552606],[132.94004433187575,145.67553606792018],[132.03152014600343,148.77423551463437],[131.9450885400126,153.53211481116548]]]]}},{"type":"Feature","properties":{"Level":"ADM2","shapeGroup":"SGP","shapeID":"SGP-ADM2-91842731B15087516","shapeName":"Bedok","shapeType":"ADM2"},"geometry":{"type":"MultiPolygon","coordinates":[[[[158.10766349886848,123.26103862935432],[158.6294555929794,123.02321964777266],[161.34084370665454,124.28810138585374],[166.4780619967132,125.26252314619094],[169.26799712125063,126.40027134771535],[168.12237744477045,128.8581730884597],[165.92108271147168,130.71070982768344],[164.08299535610158,133.4456674205349],[160.43079119705578,134.20856768508543],[155.5925276398004,138.48710459493606],[153.56777713193472,137.47273344268552],[152.38286783318,136.25460659502235],[151.35706318442843,137.0285576413421],[149.44562713545602,135.15417875619812],[147.50274214874344,134.98979620664235],[146.0320717052522,135.5757689261134],[145.40833834805392,134.6702340146142],[148.69579154362444,131.3777972746074],[148.50901665487373,128.12613300678083],[149.13292915355598,126.01178455109199],[150.29207325347053,123.26069504065059],[153.21942473029114,123.94140691933546],[153.66127225550002,122.00315654026728],[158.10766349886848,123.26103862935432]]]]}},{"type":"Feature","properties":{"Level":"ADM2","shapeGroup":"SGP","shapeID":"SGP-ADM2-91842731B69392651","shapeName":"Bishan","shapeType":"ADM2"},"geometry":{"type":"MultiPolygon","coordinates":[[[[121.40119651408352,145.16855208589433],[121.04469079235555,144.17705645001888],[120.97836299257072,143.47693403248627],[120.25348781689497,143.7609710934013],[120.00198983389734,143.15340554919754],[118.71085281071105,142.95015218092547],[118.41664303809709,142.21931791946193],[118.12479232389032,140.4664501202928],[119.71988445155205,139.8090360806151],[120.84863496423887,140.47122529641504],[122.18893650645929,139.84092151577744],[122.54336810359757,139.47893055511736],[122.73421875434303,139.01747930970757],[124.39998838456287,137.6984639871062],[124.17782287121973,136.2777385773964],[124.30847974320568,136.15552123883185],[126.02523335460482,137.24737476791262],[132.7676658984094,136.65348212007243],[131.50353029789687,140.9374727552606],[128.23319030122678,143.7936605084317],[122.68700702769333,145.23809473567562],[121.40119651408352,145.16855208589433]]]]}},{"type":"Feature","properties":{"Level":"ADM2","shapeGroup":"SGP","shapeID":"SGP-ADM2-91842731B95017104","shapeName":"Boon Lay","shapeType":"ADM2"},"geometry":{"type":"MultiPolygon","coordinates":[[[[75.06367939616314,123.96837537124377],[76.83860288503051,122.71650944845543],[76.87388775148587,121.94931919651368],[78.77348153630177,122.02888054006809],[78.98908775161146,123.99522026274397],[79.49785657691757,124.04106192711714],[79.49795168408171,124.05413553561404],[79.49247510378814,126.28428666054928],[82.91100297311056,126.36094493087394],[82.95418114554998,129.6443431282523],[83.47173648410715,132.49760898694095],[78.39070217970952,131.12274682107474],[74.7872631860033,131.12167134585053],[74.56289888121312,126.6848860796072],[72.32323623139474,126.4859453461522],[69.33835131826797,125.05825793779859],[69.49951671117731,124.5527661165027],[70.32071134807784,120.97968290243512],[73.81127982508846,121.63225716590576],[73.73989396054364,123.10088197390995],[74.2749009492281,124.08181528768888],[74.03007056556807,123.03541953103567],[74.4699489862726,121.47379847006762],[75.81301607446014,121.13177254233871],[75.80228610154106,122.48962063640819],[74.3433177387681,124.11188921283392],[75.06367939616314,123.96837537124377]]]]}},{"type":"Feature","properties":{"Level":"ADM2","shapeGroup":"SGP","shapeID":"SGP-ADM2-91842731B11718063","shapeName":"Bukit Batok","shapeType":"ADM2"},"geometry":{"type":"MultiPolygon","coordinates":[[[[100.91682989281942,138.6397041623527],[99.88265005023406,141.7716439120448],[99.91210702178397,144.1258773337675],[98.40337733647232,146.63401609008974],[97.68315825823437,149.48449730918276],[95.05507085993318,148.2849208636376],[93.17204000695807,145.72847572067639],[90.04545339624111,142.40263588923366],[89.03749250788354,141.16033350571493],[89.23557217418922,139.7491883462183],[89.57930014789063,138.515154201378],[89.55050962112172,138.27166467390126],[89.49851066226081,138.11863727070104],[89.4379142902439,137.974558362157],[89.20259526295767,137.57403501602752],[91.85544653625365,136.84015454437136],[92.04630690795791,136.73902373707503],[93.50023532417913,135.89831390076046],[98.87362298606409,132.90879783087289],[99.23914564763894,132.77984186847053],[99.22624495101091,133.95812287712118],[98.71077705714484,135.22190461233433],[99.05657029157803,136.19579320589253],[99.76749854319138,136.43833128866842],[98.37000659201537,137.82472963978142],[100.91682989281942,138.6397041623527]]]]}},{"type":"Feature","properties":{"Level":"ADM2","shapeGroup":"SGP","shapeID":"SGP-ADM2-91842731B75613840","shapeName":"Bukit Merah","shapeType":"ADM2"},"geometry":{"type":"MultiPolygon","coordinates":[[[[119.69155942802529,106.61822120721705],[119.63377416249342,106.24530179546086],[119.75427580110734,106.58649518252206],[119.8839281372328,106.52090869732693],[119.90892353102247,107.20221173505206],[121.23522481880781,106.05644577950709],[122.37822265169099,106.23884870052396],[124.25015861154289,105.30956492838104],[126.41544891477636,106.39001688298724],[124.15517087028796,108.50845943090934],[122.15123948265324,108.42987435984595],[120.0239731235947,107.21482079344969],[119.9218596078783,108.2376065999861],[122.73828845697525,109.76938170753648],[125.34501489031003,109.8420258592035],[127.64144582362381,107.69218223320904],[127.92099244354189,108.00526207987522],[127.05425306027493,109.10656414068414],[127.555554004256,109.56516746556191],[129.52181573997436,107.40542005788159],[129.6295777166483,110.42348129403922],[127.54705140825294,111.59119786722334],[126.3012851447168,111.60012709412678],[126.0244442590985,112.1540268136138],[125.27102263447101,114.5022649426259],[123.89203027970038,115.66165002512128],[123.77153331357653,116.79388497713846],[123.21466382062138,118.59827334814914],[122.6453324841449,118.52302105003962],[122.64088389700811,118.52228933965017],[122.57764245376357,118.5122930440356],[120.01759252954531,118.44289632111779],[117.0422475845928,119.21268690349115],[116.82545634576952,118.29871558488168],[114.55558130059673,118.61960691757012],[112.41583267642218,116.50429272427363],[111.83768623477965,115.35880365648451],[112.49757272881385,113.8438003769146],[112.17253982898019,111.63748219238956],[111.11177237753444,110.04809272400375],[113.20979594525642,107.95972104677475],[113.94413224508853,109.22722440744269],[114.99426296039273,108.91296627842635],[115.47279033873323,109.42440506712958],[116.6749736331809,108.74263199390413],[115.99669324902626,108.44332555082758],[115.48247080241124,108.86509834558395],[115.0259683914161,108.44814663310142],[115.39125694671749,108.05857181917774],[116.71524030378254,108.70627251816342],[118.31303229240466,108.29211183148186],[117.77925223991917,107.83920951520619],[119.61490229173816,108.23358682247203],[119.59764155018617,106.66573073488016],[119.69155942802529,106.61822120721705]]]]}},{"type":"Feature","properties":{"Level":"ADM2","shapeGroup":"SGP","shapeID":"SGP-ADM2-91842731B44469853","shapeName":"Bukit Panjang","shapeType":"ADM2"},"geometry":{"type":"MultiPolygon","coordinates":[[[[100.91682989281942,138.6397041623527],[103.54971169157606,136.10657942762063],[106.84803922810134,137.0733244008443],[107.25561647128727,137.46366850691203],[106.50264822687953,138.48354494115657],[107.59618213677862,138.67552074358525],[107.64139795684024,138.24628273693637],[108.44055477480785,138.72927102153363],[105.43271548203109,141.47557726965536],[104.40916947269848,143.2883693217781],[102.89520716095582,149.54054300382623],[102.35544311820878,153.24157903086223],[98.99756631161426,153.41037808573532],[95.52196930112162,152.7381671767247],[97.68315825823437,149.48449730918276],[98.40337733647232,146.63401609008974],[99.91210702178397,144.1258773337675],[99.88265005023406,141.7716439120448],[100.91682989281942,138.6397041623527]]]]}},{"type":"Feature","properties":{"Level":"ADM2","shapeGroup":"SGP","shapeID":"SGP-ADM2-91842731B90456756","shapeName":"Bukit Timah","shapeType":"ADM2"},"geometry":{"type":"MultiPolygon","coordinates":[[[[98.87362298606409,132.90879783087289],[102.77737136947367,130.64766910529193],[101.17074709460637,129.04175947016907],[101.20549456916432,127.92573208304884],[103.9315840023393,125.89492653106961],[106.20889176927487,125.2207381058117],[106.0122118557045,126.60909222547606],[106.6812564700322,126.88759468529531],[108.27208126608002,124.94934034752498],[108.96232609386607,126.03552660511856],[109.42777197008276,124.94185157963874],[111.05508344855114,124.12926306026323],[111.3067431630988,124.71303872535422],[112.19926161516707,123.86018255178776],[113.13853863629708,126.57061786565353],[115.48926605989502,128.42353511798095],[116.11562525008208,129.53934898141134],[116.36772294450019,131.42010586122728],[117.97677884614298,133.95906388691319],[117.42429043672261,134.11792714859953],[116.42402430111017,134.84600480496178],[115.75233310450481,135.0892116988655],[114.89405109122808,136.0667277202147],[113.07752692832877,135.9271522312909],[112.70939123443299,136.10244245011964],[110.5633976598484,138.32530786414506],[110.13176443968112,138.59205902317913],[109.86834633809849,138.69517024924664],[109.2795477024169,138.8201122648048],[108.44055477480785,138.72927102153363],[107.64139795684024,138.24628273693637],[107.59618213677862,138.67552074358525],[106.50264822687953,138.48354494115657],[107.25561647128727,137.46366850691203],[106.84803922810134,137.0733244008443],[103.54971169157606,136.10657942762063],[100.91682989281942,138.6397041623527],[98.37000659201537,137.82472963978142],[99.76749854319138,136.43833128866842],[99.05657029157803,136.19579320589253],[98.71077705714484,135.22190461233433],[99.22624495101091,133.95812287712118],[99.23914564763894,132.77984186847053],[98.87362298606409,132.90879783087289]]]]}},{"type":"Feature","properties":{"Level":"ADM2","shapeGroup":"SGP","shapeID":"SGP-ADM2-91842731B39071774","shapeName":"Central Water Catchment","shapeType":"ADM2"},"geometry":{"type":"MultiPolygon","coordinates":[[[[118.04921320603506,154.67460163903274],[116.53121398317292,155.4983892890508],[114.48827318026602,159.1391058424475],[113.43520821811556,161.75543454955368],[112.37922245806016,162.41064207720734],[110.70983920113105,162.09236672809422],[106.07391163462765,160.77381636144966],[105.45753962111225,160.5343664787016],[101.37647420676804,160.21184152208227],[102.06041068375316,157.14001363883514],[102.89520716095582,149.54054300382623],[104.40916947269848,143.2883693217781],[105.43271548203109,141.47557726965536],[108.44055477480785,138.72927102153363],[109.2795477024169,138.8201122648048],[109.86834633809849,138.69517024924664],[110.13176443968112,138.59205902317913],[110.5633976598484,138.32530786414506],[112.70939123443299,136.10244245011964],[113.07752692832877,135.9271522312909],[114.89405109122808,136.0667277202147],[115.75233310450481,135.0892116988655],[116.42402430111017,134.84600480496178],[117.42429043672261,134.11792714859953],[117.97677884614298,133.95906388691319],[118.71839201358137,135.35316872291614],[121.6492807576582,135.7594037764593],[122.78568734631891,135.60882280830052],[123.05341964521537,135.59821039332655],[123.2628783458416,135.62575503585126],[123.53858705123726,135.72107770303614],[124.12036234048294,136.04505628054193],[124.30847974320568,136.15552123883185],[124.17782287121973,136.2777385773964],[124.39998838456287,137.6984639871062],[122.73421875434303,139.01747930970757],[122.54336810359757,139.47893055511736],[122.18893650645929,139.84092151577744],[120.84863496423887,140.47122529641504],[119.71988445155205,139.8090360806151],[118.12479232389032,140.4664501202928],[118.41664303809709,142.21931791946193],[118.71085281071105,142.95015218092547],[120.00198983389734,143.15340554919754],[120.25348781689497,143.7609710934013],[120.97836299257072,143.47693403248627],[121.04469079235555,144.17705645001888],[121.40119651408352,145.16855208589433],[121.093505512409,145.69828861629483],[121.10926633639,147.08415800689556],[120.79481771868312,147.62655890137347],[121.15438130336895,149.12098268832668],[120.48626791525867,149.5150564871544],[119.94462108323346,149.1308916888555],[119.26387312093169,149.48147452738058],[117.67860843186116,149.71012928171092],[118.27185151743413,151.4936757750158],[118.02215943775361,151.99460529590993],[117.3680314331358,151.93111641909445],[117.42423106192682,152.32959234649357],[117.52476032100445,152.38874868294567],[118.04921320603506,154.67460163903274]]]]}},{"type":"Feature","properties":{"Level":"ADM2","shapeGroup":"SGP","shapeID":"SGP-ADM2-91842731B90623709","shapeName":"Changi","shapeType":"ADM2"},"geometry":{"type":"MultiPolygon","coordinates":[[[[176.4075027456381,127.2004803677691],[176.89784720046114,126.04052884312324],[176.44016735063542,125.55331424428654],[179.0440100602242,126.32936433414292],[182.46814133016278,124.98178422231734],[183.72776194675066,125.2361974837238],[185.92899209760003,126.68472864781182],[187.52292189585717,126.86050416671787],[193.5169031433369,141.44317636826722],[193.19133500681434,141.67081011190518],[194.0290584209276,142.66944659319452],[186.94122323258205,146.09957900595305],[185.70560953594492,145.58771947252012],[184.13584532597977,145.8975133115728],[184.54275202699125,146.9542022135557],[185.2635447139212,147.35356654597976],[184.30940782961412,147.6593146106226],[181.82171522494622,152.7628337839752],[180.38544987190863,153.63737566577623],[175.8491791720598,154.45504717449387],[173.4004280852655,153.76424649777948],[172.5447191868777,152.33194716624163],[174.54187607039188,149.25491187423793],[173.2521444105128,147.47920605344694],[174.82020837682344,146.88237229909532],[175.0362836281926,146.30564949817338],[173.5831056008276,144.95592005711998],[173.00924698836775,143.5646298743453],[171.61680285821473,142.6019076652622],[170.9121650547716,140.43706917050832],[169.4983255188643,139.9430167132758],[171.84487663438273,135.8752332268702],[176.73487135533432,133.50191647503783],[174.91054335575893,129.15546526300645],[176.76055510569125,128.02104760339517],[176.4075027456381,127.2004803677691]]]]}},{"type":"Feature","properties":{"Level":"ADM2","shapeGroup":"SGP","shapeID":"SGP-ADM2-91842731B22047646","shapeName":"Changi Bay","shapeType":"ADM2"},"geometry":{"type":"MultiPolygon","coordinates":[[[[187.52292189585717,126.86050416671787],[190.1864469170203,126.93073103679401],[190.14668702795814,128.44980992823477],[192.37061912087117,128.5088563775748],[192.41001034696953,126.98958288209035],[193.69446483995574,127.02334919797481],[193.6429464937224,130.00196446295743],[189.69521714132065,129.90471536809355],[189.47206047163155,130.37988740857588],[193.5169031433369,141.44317636826722],[187.52292189585717,126.86050416671787]]],[[[194.0290584209276,142.66944659319452],[193.78958507980886,142.0980425361092],[196.75432771083982,140.46710748628692],[197.22769538867036,139.47624813182108],[196.92183406573574,138.67013295685967],[197.40839669545778,138.54885459263724],[197.06255022823447,140.33304550221882],[194.47623305077607,142.37286090138963],[194.0290584209276,142.66944659319452]]]]}},{"type":"Feature","properties":{"Level":"ADM2","shapeGroup":"SGP","shapeID":"SGP-ADM2-91842731B37820439","shapeName":"Choa Chu Kang","shapeType":"ADM2"},"geometry":{"type":"MultiPolygon","coordinates":[[[[97.68315825823437,149.48449730918276],[95.52196930112162,152.7381671767247],[94.88228029701696,152.78542590847513],[94.58870123452509,158.0323288445795],[92.29948379759607,158.61898182852167],[92.1328120995555,158.4350947750795],[90.25513181169875,153.59456102881717],[90.72601136125175,151.94118738937286],[89.21428485152634,150.64437179387198],[87.57706515833839,149.22479673256004],[89.47832305194791,147.4876827480895],[92.09239049319649,146.68597063447044],[93.17204000695807,145.72847572067639],[95.05507085993318,148.2849208636376],[97.68315825823437,149.48449730918276]]]]}},{"type":"Feature","properties":{"Level":"ADM2","shapeGroup":"SGP","shapeID":"SGP-ADM2-91842731B65220759","shapeName":"Clementi","shapeType":"ADM2"},"geometry":{"type":"MultiPolygon","coordinates":[[[[93.50023532417913,135.89831390076046],[93.70204901077017,130.8800793413222],[94.4357672513687,129.26306109692808],[94.37627546073533,129.05995196501405],[92.86676805765138,126.16309860714766],[92.91410201343894,124.69849788677044],[94.68015856314166,123.99148051127676],[96.28183040430982,120.72232422209346],[96.73797771814223,121.04694919876424],[96.77143271953054,121.02144357680828],[98.06675930901166,121.77399264222639],[99.6246768031985,118.54451602838408],[100.4628679184725,119.12963910536624],[101.57911621359094,125.59645504463],[101.20549456916432,127.92573208304884],[101.17074709460637,129.04175947016907],[102.77737136947367,130.64766910529193],[98.87362298606409,132.90879783087289],[93.50023532417913,135.89831390076046]]]]}},{"type":"Feature","properties":{"Level":"ADM2","shapeGroup":"SGP","shapeID":"SGP-ADM2-91842731B10931458","shapeName":"Downtown Core","shapeType":"ADM2"},"geometry":{"type":"MultiPolygon","coordinates":[[[[129.6295777166483,110.42348129403922],[129.95716034362295,110.23148193415734],[131.54734260817276,112.73619789331062],[131.73055823908922,113.00264018568306],[132.05657925526987,113.52956231980517],[132.60774643535305,114.37364434505204],[133.07639598108517,115.4506244745875],[133.1819809743535,117.24958803366705],[134.12910844330162,117.24485091361065],[134.2808571895966,117.34529997362274],[134.2853723935989,117.35306491211205],[134.37620440473626,117.51699027503876],[134.2606766181003,118.62761628798333],[134.2293636627411,118.84611876070277],[134.2255489244634,118.90140554238727],[134.20881818166245,118.99916403904673],[134.1878892429353,119.17962393337514],[133.24491741019116,119.40224811816725],[132.409255420481,121.2205413200049],[130.56649393072962,122.3764486455284],[131.14668814786475,121.52153202950623],[129.89193297050298,120.01853616833007],[128.4632400506254,117.78912599956016],[129.3648532871986,116.45083366617088],[128.07997401063068,116.14489480235308],[128.9547227774259,115.56495625652917],[128.78898357531125,114.86391335160482],[128.22116398112635,114.05497803700057],[127.22598734639435,114.69628887848502],[127.13731872265828,112.63385036363297],[126.0244442590985,112.1540268136138],[126.3012851447168,111.60012709412678],[127.54705140825294,111.59119786722334],[129.6295777166483,110.42348129403922]]]]}},{"type":"Feature","properties":{"Level":"ADM2","shapeGroup":"SGP","shapeID":"SGP-ADM2-91842731B16549460","shapeName":"Geylang","shapeType":"ADM2"},"geometry":{"type":"MultiPolygon","coordinates":[[[[145.40833834805392,134.6702340146142],[142.8249366720618,133.1711602437082],[135.7055530128527,131.13997065144318],[138.2434207663391,128.39996676003113],[137.81371718876463,127.08715874584108],[138.2738018573023,124.40728998535651],[141.0147045743979,122.92106152824886],[143.08783330240158,123.51831969062917],[143.12591461312553,124.33640589778851],[147.29240300274046,124.67342568153437],[149.13292915355598,126.01178455109199],[148.50901665487373,128.12613300678083],[148.69579154362444,131.3777972746074],[145.40833834805392,134.6702340146142]]]]}},{"type":"Feature","properties":{"Level":"ADM2","shapeGroup":"SGP","shapeID":"SGP-ADM2-91842731B68340411","shapeName":"Hougang","shapeType":"ADM2"},"geometry":{"type":"MultiPolygon","coordinates":[[[[146.0320717052522,135.5757689261134],[146.46389932862232,136.6772730013626],[146.1816538301169,138.08066405739976],[145.413657725711,137.84627142029785],[144.46071737386305,138.54961543892293],[145.2488432134237,140.40531600762318],[145.70013257808998,140.21076856170635],[146.22765306840245,141.18226270937268],[147.45886404260102,141.51936970959497],[150.31338606885933,148.1351472158572],[148.55060641830715,149.72568902183332],[145.7356444685015,149.38167447462726],[143.5398899360054,149.70713414206605],[139.7142388228411,152.5886897530283],[137.24972114680918,152.1960387604828],[138.59322359819896,150.4692545984814],[138.42781488034527,146.11025196182842],[137.3148958121267,143.3928276516646],[137.57708393726816,142.155642589889],[139.00537719708166,140.35922985314954],[138.44662445415887,139.84744231268425],[139.4128820463479,139.35229880930123],[141.47731500141435,135.7539299345993],[142.8249366720618,133.1711602437082],[145.40833834805392,134.6702340146142],[146.0320717052522,135.5757689261134]]]]}},{"type":"Feature","properties":{"Level":"ADM2","shapeGroup":"SGP","shapeID":"SGP-ADM2-91842731B57983807","shapeName":"Jurong East","shapeType":"ADM2"},"geometry":{"type":"MultiPolygon","coordinates":[[[[79.49795168408171,124.05413553561404],[79.84589703184591,124.27505139529748],[80.0506965795892,123.85911775431393],[80.03109345039732,120.36625535941482],[80.21403711622747,120.36366744846279],[80.22271098252712,121.1612037033808],[83.2348979258027,121.1278597289598],[84.06001593628343,121.18377444416333],[83.23674191461853,121.23331314699534],[83.41999226741497,121.71785265817448],[81.45398275382695,123.38599817796991],[80.48911645608906,123.58927312066501],[80.3369193760971,124.2849009959558],[81.62710809885334,124.27694973101504],[85.78656264347391,121.39478968279013],[86.51031988606283,121.87581120160105],[90.47228027048057,120.87898019064929],[91.38305883949761,121.76637484030815],[91.87807369500318,121.61076609514105],[91.63821992640369,120.6103442366849],[93.38203068180462,120.06120921144435],[96.28183040430982,120.72232422209346],[94.68015856314166,123.99148051127676],[92.91410201343894,124.69849788677044],[92.86676805765138,126.16309860714766],[94.37627546073533,129.05995196501405],[94.4357672513687,129.26306109692808],[93.70204901077017,130.8800793413222],[93.50023532417913,135.89831390076046],[92.04630690795791,136.73902373707503],[91.85544653625365,136.84015454437136],[89.20259526295767,137.57403501602752],[88.75717391380087,137.90910112340927],[85.97654686629252,140.2651602111081],[85.97315144701332,140.07906228694043],[85.975890898644,139.51894663691084],[85.95626088695502,138.844300905468],[85.98292649035415,136.99455124313374],[83.751662340346,137.1901227484988],[83.59165678341814,136.43545866794958],[84.87860809605746,134.37606590716157],[84.7854554822943,131.44613111825626],[85.22348015460871,130.155013481507],[82.95418114554998,129.6443431282523],[82.91100297311056,126.36094493087394],[79.49247510378814,126.28428666054928],[79.49795168408171,124.05413553561404]]]]}},{"type":"Feature","properties":{"Level":"ADM2","shapeGroup":"SGP","shapeID":"SGP-ADM2-91842731B44472798","shapeName":"Jurong West","shapeType":"ADM2"},"geometry":{"type":"MultiPolygon","coordinates":[[[[82.95418114554998,129.6443431282523],[85.22348015460871,130.155013481507],[84.7854554822943,131.44613111825626],[84.87860809605746,134.37606590716157],[83.59165678341814,136.43545866794958],[83.751662340346,137.1901227484988],[85.98292649035415,136.99455124313374],[85.95626088695502,138.844300905468],[85.975890898644,139.51894663691084],[85.97315144701332,140.07906228694043],[85.97654686629252,140.2651602111081],[85.47859236693965,140.5132674216946],[85.05373310458052,140.69912964368615],[84.88650986608256,140.75789644062692],[84.52634212096936,140.8522021634989],[84.27089074633993,140.90797549731357],[82.55151053065644,141.00840592215684],[82.19847987883242,141.0841936255862],[81.30086187287255,141.4485769351671],[81.14297545753728,141.52853188913267],[78.23206336913611,144.06499926940134],[72.7224290858704,137.65251190674127],[69.91108928041045,135.4535479375068],[68.76022333756865,135.21153847617722],[68.1178100919027,134.7737485472811],[67.48867049299521,132.95604107494836],[67.22298557403127,132.35751026420692],[67.1559279345679,132.28498912663565],[68.75514397513983,131.9854402793215],[68.71644004588318,131.12572961940336],[74.7872631860033,131.12167134585053],[78.39070217970952,131.12274682107474],[83.47173648410715,132.49760898694095],[82.95418114554998,129.6443431282523]]]]}},{"type":"Feature","properties":{"Level":"ADM2","shapeGroup":"SGP","shapeID":"SGP-ADM2-91842731B92965426","shapeName":"Kallang","shapeType":"ADM2"},"geometry":{"type":"MultiPolygon","coordinates":[[[[134.1878892429353,119.17962393337514],[134.4955451970222,119.23643843721612],[134.7221083174625,119.2782776088181],[135.16828207685768,119.36067201408368],[136.19661695166283,119.55057392803437],[136.72145177635937,119.6189289794115],[138.8623275288215,119.71360545338045],[141.5720309436193,119.79905183326424],[141.63900146733076,121.72300088355028],[141.0147045743979,122.92106152824886],[138.2738018573023,124.40728998535651],[137.81371718876463,127.08715874584108],[138.2434207663391,128.39996676003113],[135.7055530128527,131.13997065144318],[133.5920221905641,132.01745516274508],[133.44513393346045,132.06684108845397],[133.437690651841,131.75751878354606],[133.38578240807735,131.42574161609951],[133.02825238900564,130.71597103394816],[131.10493872787913,128.7604890531568],[127.78052376340543,126.77751670178174],[127.06879992374098,125.0325032098273],[128.0294488361051,124.17810950918484],[128.63901058511772,123.64113862962942],[130.6202179282982,126.11654756916427],[130.66026942409027,126.0197033681266],[130.9909759448253,125.47423286214713],[130.65817906655752,125.05431752302651],[133.41865932034733,121.85762401876262],[132.409255420481,121.2205413200049],[133.24491741019116,119.40224811816725],[134.1878892429353,119.17962393337514]]]]}},{"type":"Feature","properties":{"Level":"ADM2","shapeGroup":"SGP","shapeID":"SGP-ADM2-91842731B84667478","shapeName":"Lim Chu Kang","shapeType":"ADM2"},"geometry":{"type":"MultiPolygon","coordinates":[[[[89.93394440132043,164.56015644616224],[91.3651239806289,166.10629784730804],[91.3893575392124,167.3903478925627],[91.30037457697468,167.9262690844959],[91.1366989976682,168.4957850908716],[91.09944872550128,168.59058648404638],[90.86267940671034,168.93453631850377],[90.74032182513238,169.1952975897338],[90.62749934699245,169.49445377392144],[90.51944356773758,169.85759979911202],[90.44953834135542,170.2222639045758],[89.63537605321703,170.2329159443963],[89.34984372926131,169.9071926374844],[89.20597401815884,169.90422276823776],[89.18456330854323,169.91207283979338],[89.15998563902508,169.93926628489046],[89.12396522418942,170.01172118943992],[89.11358241452848,170.07029874949978],[89.10990314998213,170.37570364212092],[89.0395762768295,170.37894903771075],[88.95099107805945,170.96661099368907],[89.42454891104838,171.80654170097336],[87.36807078053769,173.02879853631495],[87.60944302000414,173.2456823920009],[87.07707242714496,172.9984024657994],[87.55460241249051,173.3642119950658],[86.05138793966866,174.74591019373923],[82.94589248146595,174.7541234538848],[80.47022474078167,174.11581821144094],[78.36175640493525,172.9019709132195],[74.64382851243596,169.06337026089986],[73.55393483136058,168.59176210326814],[74.26821379263328,167.83160604258282],[74.96706415731386,165.2612012053175],[76.06348732099582,164.88156132543233],[75.54552224422787,163.27145914186784],[76.57778052581644,163.065516889762],[76.36817459711773,162.61213342687088],[78.00365680371932,160.98876784946754],[80.57755657467747,161.22590427446212],[81.5367097018916,161.79196401645666],[82.58881486226798,160.59358950545956],[85.88771215027789,160.63113105690547],[89.93394440132043,164.56015644616224]]]]}},{"type":"Feature","properties":{"Level":"ADM2","shapeGroup":"SGP","shapeID":"SGP-ADM2-91842731B62952515","shapeName":"Mandai","shapeType":"ADM2"},"geometry":{"type":"MultiPolygon","coordinates":[[[[113.43520821811556,161.75543454955368],[115.08392642463221,162.13124134938866],[116.7863017305571,161.4804281046802],[119.55497426282167,161.42138536931563],[120.88801615435334,166.67187273388066],[120.5470381208882,169.18775509277276],[119.58690532369216,169.22855787011716],[117.72675984141108,171.17296461134802],[115.53045889381264,172.3417154301287],[115.115538724731,170.98004276249662],[109.6129049171341,164.66054497623932],[107.32859198671513,165.78810166621773],[105.21357887848879,166.07028099812806],[102.98277838120138,165.5211690209005],[101.22965298540117,164.28621859570552],[101.37647420676804,160.21184152208227],[105.45753962111225,160.5343664787016],[106.07391163462765,160.77381636144966],[110.70983920113105,162.09236672809422],[112.37922245806016,162.41064207720734],[113.43520821811556,161.75543454955368]]]]}},{"type":"Feature","properties":{"Level":"ADM2","shapeGroup":"SGP","shapeID":"SGP-ADM2-91842731B18600643","shapeName":"Marina East","shapeType":"ADM2"},"geometry":{"type":"MultiPolygon","coordinates":[[[[134.2853723935989,117.35306491211205],[137.04026394521253,114.67664910515418],[137.47674911046133,114.99851025731648],[138.31661895634613,114.41902722115691],[138.76683009807067,114.41367306413251],[138.25273773850364,114.50028271730012],[140.0687128194222,115.89079048382561],[138.08704635138042,118.21266803450115],[138.8623275288215,119.71360545338045],[136.72145177635937,119.6189289794115],[136.19661695166283,119.55057392803437],[135.16828207685768,119.36067201408368],[134.7221083174625,119.2782776088181],[134.4955451970222,119.23643843721612],[134.1878892429353,119.17962393337514],[134.20881818166245,118.99916403904673],[134.2255489244634,118.90140554238727],[134.2293636627411,118.84611876070277],[134.2606766181003,118.62761628798333],[134.37620440473626,117.51699027503876],[134.2853723935989,117.35306491211205]]]]}},{"type":"Feature","properties":{"Level":"ADM2","shapeGroup":"SGP","shapeID":"SGP-ADM2-91842731B25785375","shapeName":"Marina South","shapeType":"ADM2"},"geometry":{"type":"MultiPolygon","coordinates":[[[[132.05657925526987,113.52956231980517],[134.88648666535295,111.6881353860195],[136.74804888131706,113.12569739005387],[136.6607433965427,114.39660403366801],[137.04026394521253,114.67664910515418],[134.2853723935989,117.35306491211205],[134.2808571895966,117.34529997362274],[134.12910844330162,117.24485091361065],[133.1819809743535,117.24958803366705],[133.07639598108517,115.4506244745875],[132.60774643535305,114.37364434505204],[132.05657925526987,113.52956231980517]]]]}},{"type":"Feature","properties":{"Level":"ADM2","shapeGroup":"SGP","shapeID":"SGP-ADM2-91842731B19705608","shapeName":"Marine Parade","shapeType":"ADM2"},"geometry":{"type":"MultiPolygon","coordinates":[[[[149.13292915355598,126.01178455109199],[147.29240300274046,124.67342568153437],[143.12591461312553,124.33640589778851],[143.08783330240158,123.51831969062917],[141.0147045743979,122.92106152824886],[141.63900146733076,121.72300088355028],[141.5720309436193,119.79905183326424],[138.8623275288215,119.71360545338045],[138.08704635138042,118.21266803450115],[140.06881314111163,115.9341960660717],[144.4013280052349,119.01134498164302],[153.66127225550002,122.00315654026728],[153.21942473029114,123.94140691933546],[150.29207325347053,123.26069504065059],[149.13292915355598,126.01178455109199]]]]}},{"type":"Feature","properties":{"Level":"ADM2","shapeGroup":"SGP","shapeID":"SGP-ADM2-91842731B65785162","shapeName":"Museum","shapeType":"ADM2"},"geometry":{"type":"MultiPolygon","coordinates":[[[[129.89193297050298,120.01853616833007],[128.69163827753687,121.29662953156323],[127.45806630554344,121.78031322565272],[127.04923064041571,121.15441667358311],[126.59465699366893,121.30194737013608],[126.01945336921253,120.96974932070773],[126.69713197546255,120.14127438033782],[126.29636555551764,119.22118072200924],[128.4632400506254,117.78912599956016],[129.89193297050298,120.01853616833007]]]]}},{"type":"Feature","properties":{"Level":"ADM2","shapeGroup":"SGP","shapeID":"SGP-ADM2-91842731B70623819","shapeName":"Newton","shapeType":"ADM2"},"geometry":{"type":"MultiPolygon","coordinates":[[[[127.06879992374098,125.0325032098273],[125.37288246758213,125.8044347300575],[123.89099656038888,127.44279528858003],[121.2652073258719,125.54254450598505],[120.84626926038591,124.50687050628125],[121.2090787923862,123.93368824594916],[122.46057256248866,123.81795947313853],[123.47316919380523,124.76239728024774],[124.08003174509055,123.70433270671369],[123.30430071562529,123.42698452486565],[123.5990262051107,122.90754945847554],[124.41220396299049,122.97545268160927],[125.3348715744775,121.85515563940059],[125.47652071757167,122.44827596267898],[125.98056657975313,122.28620467972848],[125.98392647689019,122.28283202629588],[126.59465699366893,121.30194737013608],[127.04923064041571,121.15441667358311],[127.45806630554344,121.78031322565272],[127.62042353225249,122.97785208692125],[128.50594400546024,122.6325458910513],[128.0294488361051,124.17810950918484],[127.06879992374098,125.0325032098273]]]]}},{"type":"Feature","properties":{"Level":"ADM2","shapeGroup":"SGP","shapeID":"SGP-ADM2-91842731B72347899","shapeName":"North-Eastern Islands","shapeType":"ADM2"},"geometry":{"type":"MultiPolygon","coordinates":[[[[201.25466131950665,168.10929999692456],[201.0798495720432,168.6243909288694],[198.6769338177419,169.07574126784232],[197.59880006979938,170.68499478531115],[196.40897871935894,171.03074872800428],[190.7904219784077,169.8140346898427],[185.93568416689124,165.85382901215192],[185.3461125988751,164.62893507664327],[185.41137046253354,163.28877390901258],[186.45645247291623,160.50194861246058],[187.20997243235155,159.86215015412205],[190.05908184401306,159.73193507206454],[191.66732744343483,160.908171188003],[192.80320329144126,160.71287987157916],[192.15144433479495,159.55044300488737],[192.61187615317158,158.34462486608987],[192.21626832992254,157.78989350971918],[187.62552055137138,157.11420042025043],[188.43165771786354,154.6781334503208],[189.76205399333494,152.69152514421413],[210.60572804415546,134.7597306741859],[211.3514324315672,134.6061070067393],[211.86723757025658,135.6380948079196],[208.8360801807656,140.6949113843869],[208.5153342072225,143.61873129093667],[210.25721679885046,150.0106644629598],[213.1397418368684,155.34258975520888],[213.33333333333331,158.07047669402587],[212.74620223997732,158.89665006324887],[211.73796059052114,159.21984196105544],[212.22365935222692,160.26830581611873],[210.6019095734966,163.398211726179],[206.82660773644355,166.26333558519613],[201.25466131950665,168.10929999692456]]],[[[156.68084445902528,163.63546424343417],[157.60297335581774,162.75372116975325],[158.66753744642787,162.77171274708004],[158.93468928008875,162.21611184198494],[164.03980162864832,160.1969796948686],[164.61942400020615,158.64362347719623],[166.1894077768045,158.41022634147942],[167.4300867073986,156.4878949047724],[174.41652431431217,158.15337072280306],[177.54129352776673,158.13375524408534],[177.91574796022292,157.64546126345817],[178.1493382342787,158.1299382553477],[182.67017549438737,157.6689059018556],[183.24082062258103,158.0368352048931],[181.84107582695938,162.1996329572953],[179.98643349345744,163.52219382916414],[174.63327355332711,162.9152126877964],[171.66843079500154,163.64384127171482],[166.58308910750867,162.939352782207],[166.33655054349222,163.42902959788623],[164.251616547125,163.8809726605246],[162.94322224697325,165.12099934910123],[158.68314876893015,166.61953656791997],[156.0978124730262,165.04549557234566],[156.68084445902528,163.63546424343417]]],[[[163.39081881072497,159.36218416328842],[162.3259771861532,159.55719835663524],[165.8965799558508,156.1813937650365],[165.70623570673362,157.72192290580293],[164.28922914838907,158.1784375759982],[163.39081881072497,159.36218416328842]]]]}},{"type":"Feature","properties":{"Level":"ADM2","shapeGroup":"SGP","shapeID":"SGP-ADM2-91842731B32481655","shapeName":"Novena","shapeType":"ADM2"},"geometry":{"type":"MultiPolygon","coordinates":[[[[116.11562525008208,129.53934898141134],[118.50710775510228,129.20888057942977],[119.08444846740419,129.04937048620695],[123.89099656038888,127.44279528858003],[125.37288246758213,125.8044347300575],[127.06879992374098,125.0325032098273],[127.78052376340543,126.77751670178174],[131.10493872787913,128.7604890531568],[133.02825238900564,130.71597103394816],[133.38578240807735,131.42574161609951],[133.437690651841,131.75751878354606],[133.44513393346045,132.06684108845397],[133.43145465916191,132.06959511552276],[131.40117877153003,131.59980226022964],[125.74360262162742,131.50327133148144],[124.55979570643903,133.58942024965526],[124.12036234048294,136.04505628054193],[123.53858705123726,135.72107770303614],[123.2628783458416,135.62575503585126],[123.05341964521537,135.59821039332655],[122.78568734631891,135.60882280830052],[121.6492807576582,135.7594037764593],[118.71839201358137,135.35316872291614],[117.97677884614298,133.95906388691319],[116.36772294450019,131.42010586122728],[116.11562525008208,129.53934898141134]]]]}},{"type":"Feature","properties":{"Level":"ADM2","shapeGroup":"SGP","shapeID":"SGP-ADM2-91842731B65999064","shapeName":"Orchard","shapeType":"ADM2"},"geometry":{"type":"MultiPolygon","coordinates":[[[[126.59465699366893,121.30194737013608],[125.98392647689019,122.28283202629588],[125.98056657975313,122.28620467972848],[125.47652071757167,122.44827596267898],[125.3348715744775,121.85515563940059],[124.41220396299049,122.97545268160927],[123.5990262051107,122.90754945847554],[123.30430071562529,123.42698452486565],[124.08003174509055,123.70433270671369],[123.47316919380523,124.76239728024774],[122.46057256248866,123.81795947313853],[121.2090787923862,123.93368824594916],[119.40756645746391,123.0860482141911],[119.67246816942334,122.24520514118598],[121.75581682335824,122.92423075918595],[124.74413828969448,120.75326421116654],[126.01945336921253,120.96974932070773],[126.59465699366893,121.30194737013608]]]]}},{"type":"Feature","properties":{"Level":"ADM2","shapeGroup":"SGP","shapeID":"SGP-ADM2-91842731B94133817","shapeName":"Outram","shapeType":"ADM2"},"geometry":{"type":"MultiPolygon","coordinates":[[[[126.0244442590985,112.1540268136138],[127.13731872265828,112.63385036363297],[127.22598734639435,114.69628887848502],[128.22116398112635,114.05497803700057],[128.78898357531125,114.86391335160482],[128.9547227774259,115.56495625652917],[128.07997401063068,116.14489480235308],[125.56994692607434,117.47378220339415],[123.77153331357653,116.79388497713846],[123.89203027970038,115.66165002512128],[125.27102263447101,114.5022649426259],[126.0244442590985,112.1540268136138]]]]}},{"type":"Feature","properties":{"Level":"ADM2","shapeGroup":"SGP","shapeID":"SGP-ADM2-91842731B8754104","shapeName":"Pasir Ris","shapeType":"ADM2"},"geometry":{"type":"MultiPolygon","coordinates":[[[[172.5447191868777,152.33194716624163],[170.58660350997778,150.74173223172147],[170.63650053396756,149.98657557709905],[170.18302680351303,149.81796908289397],[169.5731777757823,150.35315498282918],[165.68398786502226,150.28519612307818],[164.17615500041097,150.6593612600356],[162.23592151027384,151.97286533373452],[161.83595903407485,152.535013429449],[162.03200004218886,154.06602626826634],[161.14052133644276,155.01556235520044],[159.65005395934972,154.20060227101789],[160.4422577933445,155.63159810573853],[159.06108593275832,157.02682916377205],[157.43394921905184,156.88666094197998],[153.79865950557664,154.66658494621754],[151.82725763426777,151.69791616455734],[152.94942565220313,150.43794356420548],[154.2381713913835,149.40556784688317],[158.03872974232985,148.10917313713438],[162.8943851814445,145.17648196638794],[167.27408576322014,143.72852473665898],[168.69147664711835,142.13121582068163],[169.4983255188643,139.9430167132758],[170.9121650547716,140.43706917050832],[171.61680285821473,142.6019076652622],[173.00924698836775,143.5646298743453],[173.5831056008276,144.95592005711998],[175.0362836281926,146.30564949817338],[174.82020837682344,146.88237229909532],[173.2521444105128,147.47920605344694],[174.54187607039188,149.25491187423793],[172.5447191868777,152.33194716624163]]]]}},{"type":"Feature","properties":{"Level":"ADM2","shapeGroup":"SGP","shapeID":"SGP-ADM2-91842731B26204757","shapeName":"Paya Lebar","shapeType":"ADM2"},"geometry":{"type":"MultiPolygon","coordinates":[[[[155.5925276398004,138.48710459493606],[157.66336449428456,142.3206749043164],[157.5133759435433,146.72129588074998],[158.03872974232985,148.10917313713438],[154.2381713913835,149.40556784688317],[152.94942565220313,150.43794356420548],[150.31338606885933,148.1351472158572],[147.45886404260102,141.51936970959497],[146.22765306840245,141.18226270937268],[145.70013257808998,140.21076856170635],[145.2488432134237,140.40531600762318],[144.46071737386305,138.54961543892293],[145.413657725711,137.84627142029785],[146.1816538301169,138.08066405739976],[146.46389932862232,136.6772730013626],[146.0320717052522,135.5757689261134],[147.50274214874344,134.98979620664235],[149.44562713545602,135.15417875619812],[151.35706318442843,137.0285576413421],[152.38286783318,136.25460659502235],[153.56777713193472,137.47273344268552],[155.5925276398004,138.48710459493606]]]]}},{"type":"Feature","properties":{"Level":"ADM2","shapeGroup":"SGP","shapeID":"SGP-ADM2-91842731B43721367","shapeName":"Pioneer","shapeType":"ADM2"},"geometry":{"type":"MultiPolygon","coordinates":[[[[74.7872631860033,131.12167134585053],[68.71644004588318,131.12572961940336],[68.75514397513983,131.9854402793215],[67.1559279345679,132.28498912663565],[66.73048594534417,132.0566318425029],[64.605572765779,131.20189696959216],[60.413258138718994,126.44250141028847],[61.23874920542638,125.65809042392407],[60.844961068454296,125.23845185890217],[60.98531134743015,124.85881694737643],[58.268890696444494,121.8979641708816],[58.9656951752761,121.07249250719258],[59.663789145556315,121.66522985718791],[60.750723667284596,120.41606400925511],[60.672586300131584,119.83764803763091],[61.060272820585176,120.16556938944468],[61.39240109296474,119.50247346903038],[63.54970113775841,118.42699878840017],[64.20293584208756,117.29374031274695],[66.94631069591999,119.6871225051877],[65.2336875112194,121.4537764470729],[64.98411497026413,123.53502261858775],[66.37135031506534,123.70958768032274],[66.47827867910254,122.2289108245967],[68.39714206064082,120.10212113097728],[69.61971872835821,120.5924958185173],[69.49951671117731,124.5527661165027],[69.33835131826797,125.05825793779859],[72.32323623139474,126.4859453461522],[74.56289888121312,126.6848860796072],[74.7872631860033,131.12167134585053]]]]}},{"type":"Feature","properties":{"Level":"ADM2","shapeGroup":"SGP","shapeID":"SGP-ADM2-91842731B10704061","shapeName":"PuunggolL","shapeType":"ADM2"},"geometry":{"type":"MultiPolygon","coordinates":[[[[157.43394921905184,156.88666094197998],[157.6801794853005,158.04738865050314],[152.52583751831708,162.77454973522265],[151.7497561337478,162.425955059438],[151.20872447882445,164.1440615345208],[148.12010777750712,163.80635519687024],[145.86316091690108,161.9889307622653],[145.84580138714918,161.9502546482767],[144.56910496350042,159.8037106287582],[142.3772272101049,158.12905072560633],[142.0943488774045,157.1039864843766],[147.21474555467745,156.0277590240362],[149.37304931727184,154.50121854382564],[151.82725763426777,151.69791616455734],[153.79865950557664,154.66658494621754],[157.43394921905184,156.88666094197998]]]]}},{"type":"Feature","properties":{"Level":"ADM2","shapeGroup":"SGP","shapeID":"SGP-ADM2-91842731B39998411","shapeName":"Queenstown","shapeType":"ADM2"},"geometry":{"type":"MultiPolygon","coordinates":[[[[117.0422475845928,119.21268690349115],[117.26208677902716,120.1542276856654],[115.10142453567626,120.17709752406891],[114.36220918186346,121.4078992515169],[113.09046067621671,121.46861949939266],[112.19926161516707,123.86018255178776],[111.3067431630988,124.71303872535422],[111.05508344855114,124.12926306026323],[109.42777197008276,124.94185157963874],[108.96232609386607,126.03552660511856],[108.27208126608002,124.94934034752498],[106.6812564700322,126.88759468529531],[106.0122118557045,126.60909222547606],[106.20889176927487,125.2207381058117],[103.9315840023393,125.89492653106961],[101.20549456916432,127.92573208304884],[101.57911621359094,125.59645504463],[100.4628679184725,119.12963910536624],[99.6246768031985,118.54451602838408],[98.06675930901166,121.77399264222639],[96.77143271953054,121.02144357680828],[98.32433011319752,119.33790622808858],[97.50174640299454,117.97213507816318],[101.58923494887354,115.5123445953203],[100.47237562522992,113.62412964268675],[96.00323737248331,116.29312612405874],[94.77151270993065,116.08699383803281],[93.79221669657773,114.39781733082826],[101.01810332611817,110.06217529083384],[103.21080684731476,113.75181524493176],[106.66315835887409,111.67175564531894],[103.81104298054478,106.85769611737993],[106.26722076675335,105.38201563371791],[109.26676741689904,110.40469038399623],[110.79472058026472,109.49299570544463],[111.11177237753444,110.04809272400375],[112.17253982898019,111.63748219238956],[112.49757272881385,113.8438003769146],[111.83768623477965,115.35880365648451],[112.41583267642218,116.50429272427363],[114.55558130059673,118.61960691757012],[116.82545634576952,118.29871558488168],[117.0422475845928,119.21268690349115]]]]}},{"type":"Feature","properties":{"Level":"ADM2","shapeGroup":"SGP","shapeID":"SGP-ADM2-91842731B46223595","shapeName":"River Valley","shapeType":"ADM2"},"geometry":{"type":"MultiPolygon","coordinates":[[[[126.01945336921253,120.96974932070773],[124.74413828969448,120.75326421116654],[121.75581682335824,122.92423075918595],[119.67246816942334,122.24520514118598],[119.85952441536956,121.44013462210124],[121.98448967544381,121.0134870189964],[122.12187914691233,119.74469112461057],[123.03423327050999,119.98579001007094],[123.45425760536426,118.63502387157284],[124.23922965899324,118.71855348852613],[125.10397747977878,118.10201279353059],[126.29636555551764,119.22118072200924],[126.69713197546255,120.14127438033782],[126.01945336921253,120.96974932070773]]]]}},{"type":"Feature","properties":{"Level":"ADM2","shapeGroup":"SGP","shapeID":"SGP-ADM2-91842731B7509188","shapeName":"Rochor","shapeType":"ADM2"},"geometry":{"type":"MultiPolygon","coordinates":[[[[132.409255420481,121.2205413200049],[133.41865932034733,121.85762401876262],[130.65817906655752,125.05431752302651],[130.9909759448253,125.47423286214713],[130.66026942409027,126.0197033681266],[130.6202179282982,126.11654756916427],[128.63901058511772,123.64113862962942],[128.0294488361051,124.17810950918484],[128.50594400546024,122.6325458910513],[127.62042353225249,122.97785208692125],[127.45806630554344,121.78031322565272],[128.69163827753687,121.29662953156323],[129.89193297050298,120.01853616833007],[131.14668814786475,121.52153202950623],[130.56649393072962,122.3764486455284],[132.409255420481,121.2205413200049]]]]}},{"type":"Feature","properties":{"Level":"ADM2","shapeGroup":"SGP","shapeID":"SGP-ADM2-91842731B82615982","shapeName":"Seletar","shapeType":"ADM2"},"geometry":{"type":"MultiPolygon","coordinates":[[[[145.84580138714918,161.9502546482767],[145.65164217619014,163.97042666988617],[142.75636658685696,165.67578504465052],[142.00181782409035,165.02430298317904],[142.55974258621214,165.79225258450532],[139.2989990141974,167.87378789865855],[137.43924801894894,167.70327893015263],[135.1750395823951,165.54873972932208],[133.34103669853747,163.25218874068733],[132.92626351255834,160.1384149561728],[130.8645952595948,158.40085603896247],[131.06926095878012,157.11248545920293],[142.0943488774045,157.1039864843766],[142.3772272101049,158.12905072560633],[144.56910496350042,159.8037106287582],[145.84580138714918,161.9502546482767]],[[136.25090475665257,165.51262163216822],[135.2165791443007,165.42126055089528],[135.9228292114103,166.04276717841714],[136.25090475665257,165.51262163216822]]]]}},{"type":"Feature","properties":{"Level":"ADM2","shapeGroup":"SGP","shapeID":"SGP-ADM2-91842731B81849311","shapeName":"Sembawang","shapeType":"ADM2"},"geometry":{"type":"MultiPolygon","coordinates":[[[[120.5470381208882,169.18775509277276],[121.66670811015206,170.11136863041722],[122.11392400903422,171.40365544297933],[124.37019973017293,172.8151375177808],[123.08629475074838,174.85619673517786],[128.30299619514403,178.08930546330816],[124.54116523514935,179.60776618352043],[123.86648073944744,179.36858369918104],[123.02801067206185,177.88907004789993],[122.69106588256581,178.0827231901547],[123.52238197064163,179.56981335121188],[121.13221847354639,180.94181123762138],[119.40062154604642,178.26328025898272],[119.98431516378025,179.92984549561885],[119.0617460992732,178.867624023794],[119.47309557734653,180.43801227838793],[117.96757656102173,179.6580247092839],[119.23273992670781,180.95983897958655],[117.51011961169078,181.71602539627781],[112.46690520457791,181.10035871812872],[108.48937991229693,178.627531633305],[110.53416589272699,176.31938634114005],[111.56812854412749,176.72635974618052],[113.00924378445849,173.6873277279155],[115.53045889381264,172.3417154301287],[117.72675984141108,171.17296461134802],[119.58690532369216,169.22855787011716],[120.5470381208882,169.18775509277276]]]]}},{"type":"Feature","properties":{"Level":"ADM2","shapeGroup":"SGP","shapeID":"SGP-ADM2-91842731B50862644","shapeName":"Sengkang","shapeType":"ADM2"},"geometry":{"type":"MultiPolygon","coordinates":[[[[131.9450885400126,153.53211481116548],[137.24972114680918,152.1960387604828],[139.7142388228411,152.5886897530283],[143.5398899360054,149.70713414206605],[145.7356444685015,149.38167447462726],[148.55060641830715,149.72568902183332],[150.31338606885933,148.1351472158572],[152.94942565220313,150.43794356420548],[151.82725763426777,151.69791616455734],[149.37304931727184,154.50121854382564],[147.21474555467745,156.0277590240362],[142.0943488774045,157.1039864843766],[131.06926095878012,157.11248545920293],[130.92573210625875,156.39971047764416],[129.92084887913342,155.64632445800464],[130.90887116980684,155.86305687821627],[131.62530116184004,155.45162440779166],[131.9450885400126,153.53211481116548]]]]}},{"type":"Feature","properties":{"Level":"ADM2","shapeGroup":"SGP","shapeID":"SGP-ADM2-91842731B85682916","shapeName":"Serangoon","shapeType":"ADM2"},"geometry":{"type":"MultiPolygon","coordinates":[[[[131.50353029789687,140.9374727552606],[132.7676658984094,136.65348212007243],[134.4288910334175,136.98014632514622],[136.0486358361176,136.40527716564654],[138.62607510742004,136.97430171980395],[141.47731500141435,135.7539299345993],[139.4128820463479,139.35229880930123],[138.44662445415887,139.84744231268425],[139.00537719708166,140.35922985314954],[137.57708393726816,142.155642589889],[137.3148958121267,143.3928276516646],[138.42781488034527,146.11025196182842],[138.59322359819896,150.4692545984814],[137.24972114680918,152.1960387604828],[131.9450885400126,153.53211481116548],[132.03152014600343,148.77423551463437],[132.94004433187575,145.67553606792018],[131.50353029789687,140.9374727552606]]]]}},{"type":"Feature","properties":{"Level":"ADM2","shapeGroup":"SGP","shapeID":"SGP-ADM2-91842731B49662430","shapeName":"Simpang","shapeType":"ADM2"},"geometry":{"type":"MultiPolygon","coordinates":[[[[137.00575577473012,170.81222400347988],[133.1499454073988,175.24894146390713],[131.7759668529913,174.85634267645372],[132.58077343405793,171.8835397011119],[134.603092367203,169.41114957344718],[135.97705651235057,169.3341448456251],[136.94450389581493,170.09975501157945],[137.00575577473012,170.81222400347988]]],[[[124.37019973017293,172.8151375177808],[127.0056889487732,170.7373496472119],[127.95314577455295,168.96450935849805],[130.07344198021514,166.9214610823401],[130.71396505756488,166.5082671612278],[133.3665393926313,165.39051371416812],[131.82699613919817,166.06104574929552],[134.20000074651497,167.93962880116604],[134.50580388621924,168.75276259228187],[133.88825001612358,168.74297614495663],[133.80538907047168,169.56922092552355],[132.1708903021121,171.67734972886996],[130.85716681859316,175.24662982037043],[132.0176841404202,176.0294882527341],[128.30299619514403,178.08930546330816],[123.08629475074838,174.85619673517786],[124.37019973017293,172.8151375177808]]]]}},{"type":"Feature","properties":{"Level":"ADM2","shapeGroup":"SGP","shapeID":"SGP-ADM2-91842731B30699469","shapeName":"Singapore River","shapeType":"ADM2"},"geometry":{"type":"MultiPolygon","coordinates":[[[[123.77153331357653,116.79388497713846],[125.56994692607434,117.47378220339415],[128.07997401063068,116.14489480235308],[129.3648532871986,116.45083366617088],[128.4632400506254,117.78912599956016],[126.29636555551764,119.22118072200924],[125.10397747977878,118.10201279353059],[124.23922965899324,118.71855348852613],[123.45425760536426,118.63502387157284],[123.03423327050999,119.98579001007094],[122.12187914691233,119.74469112461057],[122.52854716879018,118.7042535492111],[122.58046576204248,118.60255748830946],[122.60575773769187,118.5672837020363],[122.64088389700811,118.52228933965017],[122.6453324841449,118.52302105003962],[123.21466382062138,118.59827334814914],[123.77153331357653,116.79388497713846]]]]}},{"type":"Feature","properties":{"Level":"ADM2","shapeGroup":"SGP","shapeID":"SGP-ADM2-91842731B37609929","shapeName":"Southern Islands","shapeType":"ADM2"},"geometry":{"type":"MultiPolygon","coordinates":[[[[123.81413138447513,91.4236925480924],[123.21374954946616,90.68721363076304],[123.5353775367815,90.28151061914392],[124.3489414307019,90.88540917596121],[123.81413138447513,91.4236925480924]]],[[[122.83108074186094,91.94998335906956],[122.89816665420068,91.13990502771284],[123.30679794166294,91.67232812763487],[122.83108074186094,91.94998335906956]]],[[[132.86726332998347,94.51109654258958],[131.8950248722021,94.74720881568177],[132.74960639980534,94.31044228784552],[132.47810449000738,94.19823581423216],[132.63916517378212,94.05812091563702],[132.66352484877208,93.90657472478385],[132.82177900672608,93.7137535522354],[132.69981263489439,93.88131420704582],[132.76275568376514,93.91579979839392],[132.7628419784775,93.81428392589082],[132.99664717442684,93.79906070068876],[133.46965599230768,93.50076436042231],[133.52319514358246,93.57815418945168],[133.38180546633026,93.36441618571173],[133.30546325764837,93.29519136322172],[133.1142608151216,93.3606071145203],[133.31351657978473,93.28138212396487],[133.39079000177165,93.35518547961728],[133.59061006166743,93.66577959246806],[133.58040873901942,93.77132596631064],[132.86726332998347,94.51109654258958]]],[[[128.618510535028,96.84497985210656],[127.48736872548372,97.28753519929394],[128.87234575331007,96.36556685128348],[127.94003343489887,95.29759088330577],[129.07378614069103,96.23171860696931],[129.16067294930775,95.7617441543508],[129.8328671688413,95.78992934232303],[129.8629631347543,95.21025585207484],[129.15869667639694,95.03449407015495],[129.9332343235119,94.46378453921055],[129.49960359264426,93.3340947191563],[127.49929808307422,94.22379252114827],[126.6613772053467,93.76194395925737],[129.63350266831335,90.64393400127904],[129.3458004805672,92.82140005869195],[129.63583536248134,92.65975096381743],[129.95988036572135,93.93235277656967],[131.54736381736052,92.14082728800999],[132.40434138412314,92.90669824896837],[131.14777159220353,95.08592923369622],[130.54201128960412,94.9663456605453],[130.21557634019615,95.64280085644057],[130.5212301884249,96.2254159421874],[131.68102972870966,96.32614671700856],[132.0344058507931,97.21716120430233],[129.54968962731553,97.06853291853983],[128.91312747373922,96.4183590177606],[128.618510535028,96.84497985210656]]],[[[125.75352158516604,96.04751761334239],[125.29554536840958,97.32331404278979],[124.11024131685468,98.22877978781032],[123.88276778615578,97.56254342915403],[124.53180271485222,96.19139007443265],[125.4261692002844,95.66308816577128],[125.75352158516604,96.04751761334239]]],[[[130.99037704524153,100.30284723515221],[130.56023995891871,101.50341827308891],[129.81679831760337,102.02561649740977],[127.21230445507452,99.52052504248597],[127.67183090594503,99.27079452174048],[129.16071510422654,100.25420367481935],[130.51592173867743,99.66794187869067],[130.99037704524153,100.30284723515221]]],[[[119.59764155018617,106.66573073488016],[118.88591406435135,106.35001926440728],[117.71879582437077,107.15395909348128],[116.60317081904526,106.73156937192752],[113.76035132797163,106.95728527067256],[115.09757516010771,105.30518458841162],[115.05403265786504,105.85086205213639],[117.64788737916842,103.61336620887948],[118.42075089747912,103.18255601838375],[118.82742049790804,103.51312493061171],[119.79040812859267,102.76703818689258],[119.70304887499297,102.13712948162093],[122.915643987273,99.31515210179046],[125.42243669905596,100.20385224524289],[128.45451298873212,104.03963847479052],[127.82508183393331,104.74542166972493],[126.34337903529793,104.38591009314169],[126.05922473859813,104.92507425433729],[123.83690508033389,104.75284000365379],[120.64034314990417,105.34799465180107],[119.88308946167439,105.85465489060773],[119.8839281372328,106.52090869732693],[119.75427580110734,106.58649518252206],[119.63377416249342,106.24530179546086],[119.69155942802529,106.61822120721705],[119.59764155018617,106.66573073488016]]]]}},{"type":"Feature","properties":{"Level":"ADM2","shapeGroup":"SGP","shapeID":"SGP-ADM2-91842731B80067240","shapeName":"Straits View","shapeType":"ADM2"},"geometry":{"type":"MultiPolygon","coordinates":[[[[129.6295777166483,110.42348129403922],[129.63007425550484,110.01390120777448],[131.15014262075243,109.14058126573822],[132.29357595583323,109.67640637423571],[132.91522392095945,108.80889741534068],[133.2234951729406,109.0349512848593],[132.6028521247009,109.9005709049508],[134.88648666535295,111.6881353860195],[132.05657925526987,113.52956231980517],[131.73055823908922,113.00264018568306],[131.54734260817276,112.73619789331062],[129.95716034362295,110.23148193415734],[129.6295777166483,110.42348129403922]]]]}},{"type":"Feature","properties":{"Level":"ADM2","shapeGroup":"SGP","shapeID":"SGP-ADM2-91842731B83761023","shapeName":"Sungei Kadut","shapeType":"ADM2"},"geometry":{"type":"MultiPolygon","coordinates":[[[[102.35544311820878,153.24157903086223],[101.37647420676804,160.21184152208227],[101.22965298540117,164.28621859570552],[100.35400267386743,167.97944258203512],[100.22228189284687,171.00925871528273],[98.79989863365496,172.049219527924],[97.94473114031348,172.3701134284083],[96.51337312055874,172.03137226992268],[91.57133057626585,173.0612821243943],[91.22056974192962,170.371475518408],[89.71481892042722,170.44032629135222],[89.55054892508494,171.20114764030095],[89.27667432826013,170.88994857338906],[89.10990314998213,170.37570364212092],[89.11358241452848,170.07029874949978],[89.12396522418942,170.01172118943992],[89.15998563902508,169.93926628489046],[89.63537605321703,170.2329159443963],[90.44953834135542,170.2222639045758],[90.51944356773758,169.85759979911202],[90.62749934699245,169.49445377392144],[90.74032182513238,169.1952975897338],[90.86267940671034,168.93453631850377],[91.09944872550128,168.59058648404638],[91.1366989976682,168.4957850908716],[91.30037457697468,167.9262690844959],[91.3893575392124,167.3903478925627],[91.3651239806289,166.10629784730804],[89.93394440132043,164.56015644616224],[90.90927244436016,161.6250770888354],[90.72138761077262,160.28383800955828],[90.72619229951984,159.9856322959688],[90.75494087409602,159.8521469056787],[90.8374721563035,159.59917942972862],[91.34346422501913,158.98223773735808],[92.29948379759607,158.61898182852167],[94.58870123452509,158.0323288445795],[94.88228029701696,152.78542590847513],[95.52196930112162,152.7381671767247],[98.99756631161426,153.41037808573532],[102.35544311820878,153.24157903086223]]]]}},{"type":"Feature","properties":{"Level":"ADM2","shapeGroup":"SGP","shapeID":"SGP-ADM2-91842731B36527330","shapeName":"Tampines","shapeType":"ADM2"},"geometry":{"type":"MultiPolygon","coordinates":[[[[169.26799712125063,126.40027134771535],[176.4075027456381,127.2004803677691],[176.76055510569125,128.02104760339517],[174.91054335575893,129.15546526300645],[176.73487135533432,133.50191647503783],[171.84487663438273,135.8752332268702],[169.4983255188643,139.9430167132758],[168.69147664711835,142.13121582068163],[167.27408576322014,143.72852473665898],[162.8943851814445,145.17648196638794],[158.03872974232985,148.10917313713438],[157.5133759435433,146.72129588074998],[157.66336449428456,142.3206749043164],[155.5925276398004,138.48710459493606],[160.43079119705578,134.20856768508543],[164.08299535610158,133.4456674205349],[165.92108271147168,130.71070982768344],[168.12237744477045,128.8581730884597],[169.26799712125063,126.40027134771535]]]]}},{"type":"Feature","properties":{"Level":"ADM2","shapeGroup":"SGP","shapeID":"SGP-ADM2-91842731B68539058","shapeName":"Tanglin","shapeType":"ADM2"},"geometry":{"type":"MultiPolygon","coordinates":[[[[122.64088389700811,118.52228933965017],[122.60575773769187,118.5672837020363],[122.58046576204248,118.60255748830946],[122.52854716879018,118.7042535492111],[122.12187914691233,119.74469112461057],[121.98448967544381,121.0134870189964],[119.85952441536956,121.44013462210124],[119.67246816942334,122.24520514118598],[119.40756645746391,123.0860482141911],[121.2090787923862,123.93368824594916],[120.84626926038591,124.50687050628125],[121.2652073258719,125.54254450598505],[123.89099656038888,127.44279528858003],[119.08444846740419,129.04937048620695],[118.50710775510228,129.20888057942977],[116.11562525008208,129.53934898141134],[115.48926605989502,128.42353511798095],[113.13853863629708,126.57061786565353],[112.19926161516707,123.86018255178776],[113.09046067621671,121.46861949939266],[114.36220918186346,121.4078992515169],[115.10142453567626,120.17709752406891],[117.26208677902716,120.1542276856654],[117.0422475845928,119.21268690349115],[120.01759252954531,118.44289632111779],[122.57764245376357,118.5122930440356],[122.64088389700811,118.52228933965017]]]]}},{"type":"Feature","properties":{"Level":"ADM2","shapeGroup":"SGP","shapeID":"SGP-ADM2-91842731B47131171","shapeName":"Tengah","shapeType":"ADM2"},"geometry":{"type":"MultiPolygon","coordinates":[[[[93.17204000695807,145.72847572067639],[92.09239049319649,146.68597063447044],[89.47832305194791,147.4876827480895],[87.57706515833839,149.22479673256004],[84.15792945055287,146.36151783822496],[79.66055290164711,144.9789778750001],[78.23206336913611,144.06499926940134],[81.14297545753728,141.52853188913267],[81.30086187287255,141.4485769351671],[82.19847987883242,141.0841936255862],[82.55151053065644,141.00840592215684],[84.27089074633993,140.90797549731357],[84.52634212096936,140.8522021634989],[84.88650986608256,140.75789644062692],[85.05373310458052,140.69912964368615],[85.47859236693965,140.5132674216946],[85.97654686629252,140.2651602111081],[86.06669214313729,140.21685809845985],[87.10195306817415,139.60101925285863],[88.75717391380087,137.90910112340927],[89.20259526295767,137.57403501602752],[89.4379142902439,137.974558362157],[89.49851066226081,138.11863727070104],[89.55050962112172,138.27166467390126],[89.57930014789063,138.515154201378],[89.23557217418922,139.7491883462183],[89.03749250788354,141.16033350571493],[90.04545339624111,142.40263588923366],[93.17204000695807,145.72847572067639]]]]}},{"type":"Feature","properties":{"Level":"ADM2","shapeGroup":"SGP","shapeID":"SGP-ADM2-91842731B95029368","shapeName":"Toa Payoh","shapeType":"ADM2"},"geometry":{"type":"MultiPolygon","coordinates":[[[[124.30847974320568,136.15552123883185],[124.12036234048294,136.04505628054193],[124.55979570643903,133.58942024965526],[125.74360262162742,131.50327133148144],[131.40117877153003,131.59980226022964],[133.43145465916191,132.06959511552276],[133.44513393346045,132.06684108845397],[133.5920221905641,132.01745516274508],[135.7055530128527,131.13997065144318],[142.8249366720618,133.1711602437082],[141.47731500141435,135.7539299345993],[138.62607510742004,136.97430171980395],[136.0486358361176,136.40527716564654],[134.4288910334175,136.98014632514622],[132.7676658984094,136.65348212007243],[126.02523335460482,137.24737476791262],[124.30847974320568,136.15552123883185]]]]}},{"type":"Feature","properties":{"Level":"ADM2","shapeGroup":"SGP","shapeID":"SGP-ADM2-91842731B80812605","shapeName":"Tuas","shapeType":"ADM2"},"geometry":{"type":"MultiPolygon","coordinates":[[[[64.605572765779,131.20189696959216],[60.66413428558774,133.56485536683854],[60.30509792177285,133.86192621437397],[58.84083545926143,135.37881692921846],[58.94314464304448,136.6785752223496],[57.262127579767544,137.3792480097542],[54.374686706844095,140.08852929740937],[54.169024995880775,139.15484930948102],[53.76033892754399,139.58492034878483],[52.88449001477057,138.97123218389146],[52.4305104024862,139.27199535646935],[52.904581004072,137.6895342335934],[53.566967438678425,137.37482252148934],[46.95380209245359,120.14366026501153],[47.71115501844415,115.73208799744499],[46.89422398989811,114.47135808634098],[44.685954896084894,113.1601711083361],[42.69491683370245,107.79401696585019],[42.66981432287664,107.23169620548681],[44.09824576327354,107.2316834546846],[44.09822927715093,105.61577363481364],[44.89266709799344,105.61576633416196],[44.892657116050934,104.65583788444847],[43.77960060140883,104.65584832799262],[43.7795755876564,102.33618577310541],[45.04873573183751,102.3354150167364],[45.04816043620767,101.37738365599851],[42.66666666666666,101.37490619547798],[42.66989652755378,94.07603538506018],[43.425427124551476,92.85050335925627],[55.67425979811522,89.6949403348459],[61.367679052958195,91.99475161650675],[60.78142120687613,93.5653237372106],[46.7846086874959,93.56547490837688],[46.784641390568105,96.25306730211382],[58.2779850807474,96.25294741291027],[58.27801897992563,99.42047383762535],[46.78467822107475,99.42058742488837],[46.7847052378847,101.85221936650923],[54.01490309072071,101.8521500850964],[56.33860578124947,102.89092534988504],[56.33862679109635,105.01965467900617],[46.784738793233366,105.01974028980949],[46.78476329576179,107.45137275122883],[55.98538697093934,107.45129416251889],[55.98541569694422,110.61922550611462],[54.705534233719035,110.61935712981438],[54.95420437011866,113.89948700269979],[57.51692851765699,114.07674112020364],[58.38845066926991,115.81401237268328],[57.09475998801118,118.39291603943485],[56.580575383201975,121.51913220739063],[52.86478684710977,125.53570685629509],[53.96641952138433,127.03286908183654],[56.06241272075034,125.35829251841288],[58.260238164138535,127.45992583127152],[58.99841818232468,126.53545497241996],[57.041992880692575,124.49923076784663],[58.25488363906124,123.17612646985341],[60.48866638356075,125.36739046166187],[60.844961068454296,125.23845185890217],[61.23874920542638,125.65809042392407],[60.413258138718994,126.44250141028847],[64.605572765779,131.20189696959216]]]]}},{"type":"Feature","properties":{"Level":"ADM2","shapeGroup":"SGP","shapeID":"SGP-ADM2-91842731B84058945","shapeName":"Western Islands","shapeType":"ADM2"},"geometry":{"type":"MultiPolygon","coordinates":[[[[87.74086838723683,77.5466894476527],[86.4651274849253,77.19008880202692],[86.02802729965136,76.37038726059356],[87.02273532747235,76.08069833231102],[88.03553390108624,74.28397460372219],[90.03725361337506,74.33471919619627],[90.0929825812981,75.96928682898262],[89.66107544406884,76.09280230626254],[90.32754854016027,76.03211055709767],[90.68506803140278,76.85496517509382],[89.3385392260889,77.35714060366494],[88.96537557654014,76.71865264045961],[89.01454368891955,77.27867490460129],[88.3691606674746,77.00215572586035],[87.74086838723683,77.5466894476527]]],[[[89.03976957919798,81.96008217141333],[89.41156136686847,82.76954394025522],[88.58848524964215,82.0368461938547],[89.03976957919798,81.96008217141333]]],[[[85.71384892453835,83.18278738847287],[84.4259937235573,82.77809104236152],[83.92178698102796,81.24054322317149],[82.1265990761379,81.32053615599226],[82.76990313631138,78.87389591426563],[84.63752721350632,79.9863340369529],[86.06085351907528,80.03004187732752],[86.17141788989893,81.02023096752853],[85.45203172978717,81.29410145418942],[86.03173892534578,81.32663837037121],[86.2393335337285,80.91904522517969],[86.03847149774688,81.77686322706805],[86.38573135001438,80.95970665498703],[87.17635413235165,81.1996863128814],[86.74449899606944,82.6979659331839],[85.85267589387762,82.52710655697182],[86.48081450182319,82.88043433996798],[85.71384892453835,83.18278738847287]]],[[[96.55785536027,84.94476294489176],[95.59678806836762,84.61447535627099],[96.8416479850246,84.61465911966992],[96.55785536027,84.94476294489176]]],[[[108.9266869601458,89.65216094777482],[108.50046767923733,89.65409953297673],[108.52738630588036,88.71935503316672],[109.10126604174286,87.51714173720828],[111.88049927301846,86.15722798186039],[110.19173135028413,88.71644318168173],[108.9266869601458,89.65216094777482]]],[[[84.3155812442352,90.56619890212171],[80.92077971374742,89.88577549805828],[78.53326932461704,87.59013257208557],[81.98560008036038,86.82180995995901],[84.22063058536914,87.07403678783628],[85.43572448362943,86.79544943448812],[86.9355304242157,87.07352645588462],[86.5180926057179,87.02215528797976],[86.56581461751448,87.65375182616293],[87.92214009854584,87.1723544991713],[87.33194406676618,88.02758790617166],[85.70472984126485,88.7206138381414],[86.34764531721856,89.3320296284337],[86.85391891123359,88.7151521069793],[86.43186035249843,89.78835211789246],[85.9586911119997,90.05657291061756],[84.97359886450037,89.44902576567364],[84.24790601952522,90.2040574061834],[84.83368735047448,90.3865407203363],[84.3155812442352,90.56619890212171]]],[[[97.25318824009688,90.51687502400611],[96.85364784672898,92.07921990937868],[96.67994378342601,87.01613121911483],[97.11720467660602,86.2811578835035],[97.5653662356753,86.96373219208225],[97.8220736610956,86.60391706167505],[98.17901386391102,86.93137082738386],[97.79748388132552,87.38762151372923],[98.406388819393,87.2832585503081],[98.57271032745369,86.46578253662746],[97.45303117550304,84.14851493676827],[99.5447385311085,82.03819730117375],[101.13176343282083,81.93180994427142],[102.66250246464546,83.1925293320463],[102.9738245763427,84.67534692728154],[104.79565286488986,85.9891991399021],[104.46677594779223,89.58892602835255],[102.64905361941575,89.55831407882752],[100.78609024531657,88.60175589463195],[99.35059895163748,88.80207673518531],[98.38219223996032,88.0850081172068],[98.38553666152393,88.7268752100717],[97.46078368334365,88.66228631713133],[98.30777489396736,88.81870914883388],[98.27026547747013,89.43335655009405],[97.5382702999681,89.40623331743748],[97.78181961032797,90.47273853218006],[97.25318824009688,90.51687502400611]]],[[[94.68704173625439,95.06250110041493],[93.4350680348185,95.72438867299432],[94.25513515962825,95.151534615652],[94.4996505968517,94.3716718542656],[94.1545235207154,94.19583768691939],[94.37962712410516,94.19030716981821],[95.08376873396048,94.42107782650261],[94.73720583853982,94.33232857167417],[94.70580157184459,94.58197567937275],[94.86495178611568,94.86584388843342],[95.10517830728854,94.6346625880515],[94.68704173625439,95.06250110041493]]],[[[92.85599573069564,95.92436077443449],[92.54928746924573,94.7641512838479],[93.01165270263073,94.57880510808417],[92.61489459907268,94.50246729635434],[93.84709389532408,94.22692671852501],[93.4790845592168,94.47465667428038],[93.77113369459971,95.04419391919562],[92.74025616815995,95.32203335894818],[92.85599573069564,95.92436077443449]]],[[[93.95320144185854,98.5564112786978],[92.39247858933494,99.11470643924899],[90.05244688451975,97.98615875577838],[91.1126050154596,97.00410776320705],[94.4572889464172,96.48108431646502],[97.38498087531269,95.0858439810943],[100.38898061722455,94.7625699220505],[101.05539940703652,95.62321469380429],[99.81608210638115,96.54363073971652],[97.18819504188657,96.9577165367039],[96.32199954141984,98.88923497875228],[95.28851627941886,98.04853608751648],[93.95320144185854,98.5564112786978]]],[[[97.88099988585537,100.22234888846818],[97.11006457609537,99.65333573740327],[97.49518111135632,97.40052778083432],[101.05566526942181,96.29430167133945],[101.93461408759043,94.73173781776171],[103.95912475866974,94.42793063015301],[102.3203894995915,97.19337724961083],[99.07770511231114,99.92177099652177],[97.88099988585537,100.22234888846818]]],[[[80.03109345039732,120.36625535941482],[80.21209117870414,118.32828603512539],[79.02626755961782,118.72358565016204],[77.44546862019537,118.07770975267309],[74.50789950410672,114.71765823143726],[74.81709463113927,113.33419319214947],[73.67542316162411,112.80808820104176],[73.223939772227,113.18724395976619],[71.79763860053127,111.65943216244455],[70.44188149982179,112.99694443089065],[72.84339802017267,115.12893889233453],[74.820233602663,118.17525172302268],[70.44714821368389,117.61029463161879],[62.1571746130537,112.10171814826093],[61.43509086526614,113.11076530704088],[59.65408798975249,111.7166039646101],[59.65351693495073,109.98434305188009],[62.9395369146076,101.8331044124925],[64.98592292022053,98.25370134512458],[66.43927416276306,98.12419961767708],[67.60869270847937,96.07655086839439],[66.17254615864907,94.26347619998941],[65.28794454111225,95.96144725045241],[66.21039421482874,93.97773235365808],[66.96933715898496,94.11296311197891],[72.62152681360055,100.0816125795479],[71.0381454033224,106.346071851603],[68.99213047352085,108.23105176247326],[70.70498886735628,110.11983597480693],[72.62889562048488,108.34871173052194],[73.9422414304028,103.70103042308132],[78.18878214638461,105.21072787553152],[81.00075071787626,106.79950119358445],[77.72216437888804,109.12691419659846],[78.18660342471608,110.10288029409509],[79.11198017115605,109.60673830949106],[79.62505466890298,110.42948635495938],[79.84105317993492,109.5320921977722],[83.97799057760237,106.78014442370393],[87.0359321045065,108.31938779530816],[87.7345988173574,109.80798018573506],[87.07611801400026,110.66698736579488],[85.5545040978518,111.01405559480732],[84.35331447853171,110.42349827516937],[85.27579453277825,111.27509562257839],[87.20291229002721,110.8267459923689],[87.64174131109365,110.4109120040646],[90.19563668381863,111.74797116237615],[88.7039970245884,113.53094715602961],[87.3219633085706,113.74950061707933],[86.34571018841386,114.56058572672933],[84.69278051930281,117.61795272206254],[83.44934896568157,118.23622293331366],[82.69687416765085,117.75648437621003],[83.02203471835351,118.2795725121058],[82.44380490846206,118.46636545644894],[82.18130267083592,117.99891716502482],[80.45473050771061,118.33627057341054],[80.21403711622747,120.36366744846279],[80.03109345039732,120.36625535941482]]]]}},{"type":"Feature","properties":{"Level":"ADM2","shapeGroup":"SGP","shapeID":"SGP-ADM2-91842731B8759017","shapeName":"Western Water Catchment","shapeType":"ADM2"},"geometry":{"type":"MultiPolygon","coordinates":[[[[92.29948379759607,158.61898182852167],[91.34346422501913,158.98223773735808],[90.8374721563035,159.59917942972862],[90.75494087409602,159.8521469056787],[90.72619229951984,159.9856322959688],[90.72138761077262,160.28383800955828],[90.90927244436016,161.6250770888354],[89.93394440132043,164.56015644616224],[85.88771215027789,160.63113105690547],[82.58881486226798,160.59358950545956],[81.5367097018916,161.79196401645666],[80.57755657467747,161.22590427446212],[78.00365680371932,160.98876784946754],[76.36817459711773,162.61213342687088],[76.57778052581644,163.065516889762],[75.54552224422787,163.27145914186784],[76.06348732099582,164.88156132543233],[74.96706415731386,165.2612012053175],[74.26821379263328,167.83160604258282],[73.55393483136058,168.59176210326814],[71.18369757259241,167.96264960535433],[71.01327278447617,167.2826579033428],[70.12013577003829,167.70767407798263],[69.44520828900207,166.9888687217467],[68.26435660257391,166.9810483053385],[67.85638791551655,165.90780352048696],[66.93521278844007,165.58547876034106],[66.65606148820918,164.46666519091252],[67.12100074835512,163.49027614083505],[66.21497972131348,163.48516310672474],[66.4835399632874,162.9673314118252],[65.9530624725053,162.3154943611724],[66.37052345202461,161.5580114488989],[65.62030071473839,161.37831771705874],[64.72459916477192,159.77259459893077],[63.694598264468304,159.8345831743924],[63.401907147507906,158.91176766870112],[62.75654247304498,158.63678880578135],[63.2497610491975,157.37212463593818],[62.60273082750016,156.23079013615435],[62.84502115981515,154.0318939462423],[61.816871222298424,152.0764956831038],[61.95800181001169,151.46549545875286],[60.976388263849955,151.10089456366353],[59.29897683962015,147.1316127576572],[58.83520668543468,147.73344730711315],[58.10754613851702,146.9985694477121],[56.13288643077352,142.78828666516839],[54.91886269204167,141.80256575923357],[54.374686706844095,140.08852929740937],[57.262127579767544,137.3792480097542],[58.94314464304448,136.6785752223496],[58.84083545926143,135.37881692921846],[60.30509792177285,133.86192621437397],[60.66413428558774,133.56485536683854],[64.605572765779,131.20189696959216],[66.73048594534417,132.0566318425029],[67.1559279345679,132.28498912663565],[67.22298557403127,132.35751026420692],[67.48867049299521,132.95604107494836],[68.1178100919027,134.7737485472811],[68.76022333756865,135.21153847617722],[69.91108928041045,135.4535479375068],[72.7224290858704,137.65251190674127],[78.23206336913611,144.06499926940134],[79.66055290164711,144.9789778750001],[84.15792945055287,146.36151783822496],[87.57706515833839,149.22479673256004],[89.21428485152634,150.64437179387198],[90.72601136125175,151.94118738937286],[90.25513181169875,153.59456102881717],[92.1328120995555,158.4350947750795],[92.29948379759607,158.61898182852167]]],[[[70.8154205516329,168.54122541466862],[70.86016633854557,169.08334172307082],[70.45551918546015,168.78543058066177],[70.8154205516329,168.54122541466862]]]]}},{"type":"Feature","properties":{"Level":"ADM2","shapeGroup":"SGP","shapeID":"SGP-ADM2-91842731B34010756","shapeName":"Woodlands","shapeType":"ADM2"},"geometry":{"type":"MultiPolygon","coordinates":[[[[115.53045889381264,172.3417154301287],[113.00924378445849,173.6873277279155],[111.56812854412749,176.72635974618052],[110.53416589272699,176.31938634114005],[108.48937991229693,178.627531633305],[103.16225744082067,174.89719204586547],[101.05075949358836,173.83624310284588],[100.44741786733753,175.2468903199511],[100.6402436539765,173.9025451462251],[99.74322705973323,172.30892764917508],[98.79989863365496,172.049219527924],[100.22228189284687,171.00925871528273],[100.35400267386743,167.97944258203512],[101.22965298540117,164.28621859570552],[102.98277838120138,165.5211690209005],[105.21357887848879,166.07028099812806],[107.32859198671513,165.78810166621773],[109.6129049171341,164.66054497623932],[115.115538724731,170.98004276249662],[115.53045889381264,172.3417154301287]]]]}},{"type":"Feature","properties":{"Level":"ADM2","shapeGroup":"SGP","shapeID":"SGP-ADM2-91842731B71564682","shapeName":"Yishun","shapeType":"ADM2"},"geometry":{"type":"MultiPolygon","coordinates":[[[[129.92084887913342,155.64632445800464],[130.92573210625875,156.39971047764416],[131.06926095878012,157.11248545920293],[130.8645952595948,158.40085603896247],[132.92626351255834,160.1384149561728],[133.34103669853747,163.25218874068733],[135.1750395823951,165.54873972932208],[133.9548430357569,165.10497638514298],[133.3665393926313,165.39051371416812],[130.71396505756488,166.5082671612278],[130.07344198021514,166.9214610823401],[127.95314577455295,168.96450935849805],[127.0056889487732,170.7373496472119],[124.37019973017293,172.8151375177808],[122.11392400903422,171.40365544297933],[121.66670811015206,170.11136863041722],[120.5470381208882,169.18775509277276],[120.88801615435334,166.67187273388066],[119.55497426282167,161.42138536931563],[116.7863017305571,161.4804281046802],[115.08392642463221,162.13124134938866],[113.43520821811556,161.75543454955368],[114.48827318026602,159.1391058424475],[116.53121398317292,155.4983892890508],[118.04921320603506,154.67460163903274],[121.07307575618673,154.18171993160325],[126.48768221276292,155.4161726061057],[129.92084887913342,155.64632445800464]]]]}}]}
