{"type":"FeatureCollection","bbox":[41.448465057328846,62.33521654874044,210.803167156203,199.3797417599771],"crs":{"type":"name","properties":{"name":"EPSG:cartesian"}},"properties":{"note":"Created using cartogram-cpp / go-cart.io with custom projection, not in EPSG:4326"},"features":[{"type":"Feature","properties":{"Level":"ADM1","shapeGroup":"BEL","shapeID":"BEL-ADM1-95415949B89589665","shapeISO":"BE-BRU","shapeName":"Brussels-Capital","shapeType":"ADM1"},"geometry":{"type":"MultiPolygon","coordinates":[[[[108.17917810107329,131.38240912274614],[108.53217213769892,131.2234229353567],[108.60351590546881,131.18554371802693],[109.95839627757029,130.25080665196208],[110.46016642269075,129.93181452439916],[110.46981311856712,129.92531047681558],[110.9113484183165,129.64931367285052],[111.12819642035535,129.50023358531175],[111.69635354891463,129.15415320738992],[112.19556195823995,128.8220573897344],[112.30841834418602,128.74870083175543],[112.56028831349815,128.606886167617],[112.97942052758737,128.36248034692912],[113.63269336160403,127.9980593062686],[114.31927493530165,127.56564074483543],[114.72562032403201,127.31639258021075],[114.94983718164217,127.17856232527257],[115.09580433482543,127.09714844811745],[115.66767722939483,126.81358472152625],[115.9450064135293,126.65870878593894],[116.48780178377649,126.39498481015337],[117.16892590040263,126.02440328485856],[117.36865147311245,125.9306076589914],[117.4931860002993,125.86953242256571],[118.20145226078169,125.48304537971632],[119.09825009706833,124.98108419979347],[119.63479419255165,124.77043617393856],[120.08242780002354,124.5900445204817],[120.30372376292209,124.511416919008],[120.64700569778884,124.393614564482],[120.71875178135342,124.36503008569704],[120.86420761550431,124.28018525302124],[121.45099508377828,123.97854682140438],[121.74203979197426,123.81152087723109],[122.12358084962612,123.65178121039645],[122.38835578550956,123.55942434321565],[123.46367155593735,123.1661485401783],[123.80751251165799,122.98432370831384],[124.65782588002092,122.52049852483901],[125.03601364064389,122.31148909649737],[125.60301442120357,122.03963337426043],[125.94156446617627,121.85691359207273],[125.9791592979121,121.83912962540333],[126.13259189882925,121.79750144525195],[126.22594428663939,121.75743284753553],[126.45460412101727,121.67901255698735],[127.22019250539117,121.38319853584014],[127.40425455921714,121.32194940193385],[128.41570424687433,120.98183182237582],[128.91904267698646,120.81678432179402],[129.51052162441164,120.54480846994882],[129.82715855192316,120.39923484638386],[129.94467711078883,120.3415094000764],[130.13071205027023,120.24761638975713],[130.6488016458079,120.02935596688853],[131.5905809206671,119.64168890669991],[131.60464544880168,119.63500445902721],[131.70285581405827,119.58361410180677],[132.4063533313734,120.05570370305301],[132.5613488637709,120.16564312761011],[132.76874842217575,120.28597351005212],[133.3471893341419,120.67055761733766],[133.762039781025,120.95951968782299],[134.78292481949222,121.40826293276598],[134.95923437845323,121.48390211137128],[135.6515247943169,121.82758476692649],[136.20923757055493,122.08237656369722],[136.4622695906686,122.21660493983947],[136.49576699792775,122.23265943860237],[136.80359731458293,122.38100299191747],[136.84335817939842,122.40299961789216],[136.88011996487091,122.4129857910218],[136.9759348915621,122.44931944541989],[137.43285198733835,122.64621240300387],[138.94777475488183,123.38970729290124],[139.79244431166228,123.7677005778089],[139.92680688478583,123.84300571124751],[140.73424710046118,124.06001634028557],[141.3052566064199,124.20191133550074],[142.0576437429875,124.3924605857579],[142.49952712305316,124.52498997711346],[142.66758846255215,124.60212359552975],[142.81751940121757,124.65805160876418],[143.1637417218125,124.72669808589603],[144.26710601805755,124.86113864132538],[144.4205908336719,124.88656682667715],[144.39071085511992,125.30346697438529],[144.38542722705944,125.3901179191098],[144.369193018295,125.81383479328488],[144.36804448115754,125.83233407686589],[144.27609483703492,127.16016579828326],[144.25686045723484,127.41154978217884],[144.23190125751543,127.74064802212236],[144.19899399157293,128.22241822506592],[144.19837196949393,128.23100536064888],[144.17844331962957,129.03592500450318],[144.1830184484039,130.15381967425918],[144.1686180043069,130.97097378969593],[144.15151587951826,131.44874023143558],[144.05341832395894,132.4901146699304],[144.04346828388177,132.60243490559503],[143.99891052709108,133.0190419860148],[143.94839751606224,133.79760236732977],[143.9116056064271,135.01677221710767],[143.82656853676576,135.92934701783756],[143.82585564022486,135.9435692188811],[143.79586229401144,137.40723159812546],[143.75095823979444,138.00056413164884],[143.7334044959328,138.15623316994296],[143.59041554305415,139.5677990492569],[143.58326614187413,139.82668135213015],[143.55341104644648,140.3768706529129],[143.4954381516798,141.64650542361633],[143.46688839499424,142.25925565175913],[143.4345931953732,142.7227276164402],[143.4201981723166,143.0205320185662],[143.38976845849268,143.2149744514527],[143.3573118007877,143.56964630461837],[143.34598216430396,143.68721840200106],[143.15642038265656,144.71466141958945],[143.12196122029655,144.86997464399195],[142.9796697290189,145.67952222638309],[142.71298462012902,146.9083544274189],[142.71213446721885,146.91278152757016],[142.67217790394471,147.15134152279404],[142.41633778205366,148.28355107947658],[142.20078153981171,148.92751988469587],[142.0102425589338,149.58108285203429],[141.61745906737772,150.70409514375135],[141.57135207850592,150.83230274370655],[141.21671257104794,152.02161208555918],[140.94996757221452,152.7243916497562],[140.7059942195301,153.49813587427138],[140.37382694043575,154.3456890147116],[140.32630153483345,154.46670972574933],[140.28148235874264,154.5603849624634],[140.17851185010724,154.8151873830384],[139.94864982862873,155.3228618686294],[139.57818041577946,156.16249795188907],[139.12112114575461,156.92818679378533],[138.99976397479728,157.1190190636082],[138.79824735573288,157.47211459307695],[138.7537716703389,157.54147192807946],[138.5322489855581,157.9303998210139],[138.4649372700522,158.06057617944703],[138.3966531775221,158.16279598188004],[138.00513819362172,158.69009625511728],[137.52551456233138,159.40190563714782],[137.48546062039165,159.44844598816792],[137.4334661841019,159.52566478708644],[137.28660295327046,159.72080995800695],[137.11258606301462,159.9488423161755],[136.84739026271228,160.2890542849958],[136.00552978344334,161.6326398991933],[135.94815525004492,161.69793127827708],[135.89140420857072,161.7658324974414],[135.30759050255878,162.38412219505037],[135.16604679881056,162.55107066426996],[134.88908062320232,162.9402775166243],[134.75558578854358,163.10489460960588],[134.54867953832849,163.38968783394427],[134.45343625708216,163.51568073143682],[133.80575409529217,163.71624699007418],[132.81664682115485,163.9037186041288],[131.99705538289646,164.03534058422338],[131.67018653474395,164.08201156217942],[130.3997566259175,164.2837574564069],[129.47114240392037,164.37143594257435],[129.2479462338984,164.38287588776183],[128.21975280007527,164.43526966628366],[127.62920293833889,164.4607822680985],[126.93751432457407,164.3739034506575],[125.5355698489285,164.14550182468108],[125.08293636731119,164.07580404143349],[124.3771823252973,163.97929634593288],[123.06646801898722,163.7436251424753],[122.92952907741173,163.7051449403887],[121.8094998378378,163.4463465211246],[121.80746498755765,163.4458714202984],[120.95719619178732,163.17859116597003],[120.60104136516493,163.09259361444654],[119.232508454699,162.49281720549945],[119.22028124542466,162.48600234695462],[119.19745824601743,162.47517649296293],[118.91861053580426,162.3263474946026],[118.24448567310415,161.96192043225997],[116.85213619434937,161.18709296430666],[116.69474204318057,161.1041557030247],[116.01472631661966,160.68466097326748],[115.7298709443719,160.52860049815453],[115.4310136909679,160.32061665619096],[115.25745179224916,160.1833974809399],[115.01737913065294,160.01503467717987],[114.8486425003658,159.88819454470143],[114.75649119298602,159.81643108494296],[114.1546344479319,159.34162978709102],[114.07904192307878,159.27768521446495],[113.8793389089289,159.02417102379525],[113.64924205251486,158.7665763250786],[113.30816760143892,158.32907398618923],[112.83795510128435,157.79188876618207],[112.72525791142735,157.64601585483723],[112.63214616103772,157.5387515027441],[112.12634509362236,156.9130244923022],[112.08522431215692,156.8578573488617],[111.9924321877775,156.7316293020759],[111.65439042954657,156.25451005145317],[111.5543909487315,156.12299595684885],[111.1360763857962,155.48449511578175],[110.81763591884396,155.05144694545942],[110.53955275107849,154.62456793162565],[110.32485857473122,154.31583235116042],[109.91763478571542,153.56682153130666],[109.59668228938202,152.9366968623329],[109.47756250524273,152.55342057479683],[109.04153650890473,151.18179496268522],[108.81383095457701,150.33391268701513],[108.7348200654381,150.09444673221682],[108.64680727305543,149.73890654443824],[108.33037223827179,148.38963154829156],[108.10424414773397,147.61111696713414],[107.84092759979872,146.43247426950816],[107.83958015237874,146.42739937669612],[107.7156290016402,145.8401536034693],[107.62573474281744,145.3577391494826],[107.60505548140412,145.11155450211842],[107.55893926401843,144.24100436957877],[107.52411388738669,143.72649539160184],[107.45189540783991,142.6205454758877],[107.42503834903401,141.92754474467594],[107.41193226802656,141.61505643090538],[107.3993613060255,141.35232578225418],[107.34209707616658,140.14061654153284],[107.30386866153523,138.047733621293],[107.30274977453368,137.99481779360406],[107.30577442891904,137.73048868630104],[107.3067400315648,137.66295325605657],[107.3139995525622,137.52757708701176],[107.55121812676941,135.6211095334766],[107.59969781727078,135.18998242024668],[107.67582939340114,134.71703393511856],[107.80007078745945,133.94913442051583],[107.90754812670207,133.20726455456025],[107.96571945635694,132.68716009455176],[108.17917810107329,131.38240912274614]]]]}},{"type":"Feature","properties":{"Level":"ADM1","shapeGroup":"BEL","shapeID":"BEL-ADM1-95415949B16727932","shapeISO":"BE-VLG","shapeName":"Flanders","shapeType":"ADM1"},"geometry":{"type":"MultiPolygon","coordinates":[[[[184.69637903992856,132.97572516010695],[184.75731231226126,132.96540407456484],[185.3172672142615,132.858577885445],[187.70498323020018,132.3996992636654],[191.19079011108332,131.75599133781168],[191.19556572198144,131.77894491356014],[191.6539821014771,133.88677418188968],[191.75457208933162,134.3553043579871],[191.88446787895023,134.93951694824378],[191.7692935484857,134.90626065551336],[191.66040546402215,134.87646008966573],[188.85761425846866,134.12263840608745],[187.70470670844645,133.80213869794764],[185.70818746456317,133.2548929098633],[184.73618842741809,132.98834773984683],[184.69637903992856,132.97572516010695]]],[[[185.32408362329713,136.80385451949127],[184.44569614423511,140.02403755925798],[184.21794572665647,140.80017029287885],[184.38420648495295,141.40575146984148],[184.50073663570728,141.86943762609772],[184.7619098209357,142.87509818383617],[184.89604118563693,143.3876530857176],[185.307874398556,144.95787416758284],[186.48419787170795,149.43812617912243],[187.40774250173706,152.9745140929603],[187.55603476462886,153.57362972120436],[188.05235867753106,155.5795323998605],[188.96517513404854,158.21920470523864],[189.43646089637497,159.50708052852],[191.76323365055543,165.78921730322395],[191.92746778789456,166.22772049793983],[191.76632685608666,166.3297916616338],[187.22654714091243,169.24797752751522],[186.20713492950196,169.88665016726705],[180.32028416080755,173.5417553754219],[179.98670364531176,174.65047572559678],[179.21737272598978,177.32364568382087],[178.8634786982414,178.49822004026515],[178.438941958081,179.78435994367197],[176.61655281196687,179.46486784937355],[167.40801256073266,178.03333125568224],[166.79754822584368,179.43743475991232],[166.33680811248325,180.4514607872371],[162.97029733179812,187.29894222104525],[160.82460758564451,191.09175039191214],[160.77220624645176,191.1851371261781],[160.67195710497006,191.37112691104443],[160.58532138354266,191.53190677209403],[160.41313499138354,191.8501828277664],[160.35747179182889,191.93967049354347],[157.37346440614425,196.74398363096017],[157.1401831673442,197.12011926885916],[153.78810094371022,192.7610909341769],[153.0411582672434,191.54072119621253],[152.94051157354028,191.3763943652522],[152.67837923386105,190.93205154779906],[151.20210016611668,191.41928077039861],[150.83139162553067,191.54420072267243],[149.40125664439114,192.03178103044246],[148.8490129109534,192.25531729496657],[145.5697821827814,193.13057549576718],[145.13457732021686,193.2369795685441],[145.5400099990843,193.69764557659113],[146.04494562721885,194.1110577993217],[147.95915420502124,195.66224321793425],[148.41410509092475,196.1227718065601],[147.46794997938431,197.0473749792579],[146.74048783920176,197.73274221501265],[144.94611539590906,199.3797417599771],[142.0269667847693,197.06572148171495],[138.48538161396664,194.371210039641],[133.18948482279174,194.84731978364363],[133.26127335749675,198.7331141669199],[130.93672774628018,198.28247871205318],[128.63969443516493,197.6843546281586],[128.1524425050467,197.54934274894327],[125.58462149175587,196.8429956870888],[126.46584069051734,194.85537622013152],[127.66491294544934,191.89429921386719],[127.79211231019467,191.58060694364576],[127.9561045136626,191.1775071550567],[128.06000645054218,190.9277943880244],[127.8366973889878,190.94164233750388],[117.43432258885541,191.6005299663231],[117.39678709512792,191.60293726904612],[117.39566620687853,191.60060432118019],[116.1092663335027,188.9796423523738],[114.91021268895662,186.96065910595826],[114.3777637192502,186.0762104576607],[112.0871446585498,185.0715930406999],[111.94375934450923,185.0053866947405],[106.92697295166322,182.17889930569672],[104.28347420291306,180.742646321677],[102.18713946149781,179.61703108294643],[102.0044412587483,179.5166788379685],[101.83247450987888,179.4153579661922],[100.11823916876938,178.1926932435936],[96.178808963004,180.12060928246382],[95.74833529520183,180.33393967644784],[94.91238911855189,180.77177389349546],[91.72655707249318,182.72222188613338],[87.73359677765636,185.15484232389232],[87.11084994049239,184.76710216957224],[86.90068350784406,184.61450638943475],[80.43635307348555,179.7236508629685],[79.94860401597633,181.93357338112983],[79.17023367730346,185.458914956642],[78.21942123627807,189.54421777297216],[70.00306148736503,188.76109511558965],[68.15629743730767,187.3925707498385],[67.67021179533614,187.02469222183132],[66.8678840516877,186.45839384005754],[64.25704987567262,184.61673200336958],[64.20136978717814,184.57750532145013],[62.55793705258829,183.4535041075149],[58.597768681401575,180.39621158696715],[56.90522159677478,179.09456138070755],[55.75800343686106,178.20871178718573],[43.60645086174147,169.26735943277652],[41.448465057328846,167.68099975881185],[41.78642174801071,164.2623050240015],[41.90555645757126,162.98242211098193],[42.30649264871208,159.8932748200108],[42.3492707752635,159.5558138485986],[42.82886175254838,156.0096975235579],[43.10001249509169,154.68390201258939],[43.210661817930244,154.15435108621722],[44.31253314145795,148.78125516952886],[44.41171611538486,148.20753301618873],[48.40780412240312,144.52768702245484],[48.66666294414786,144.2852476153482],[48.94195913290783,144.0275240229078],[49.54733558621399,143.4645419974231],[54.62896307258518,138.69762007683207],[56.9843199510812,136.57786155662276],[58.393101312415126,139.07165583757833],[59.016946631914706,140.18632664157352],[59.345099063253826,141.00413330238203],[59.95871553993815,142.4830672956132],[61.1589023856589,141.88692591913448],[63.8102649192165,140.61659014051145],[64.42142909801018,140.45842630378343],[64.46727265530174,140.44643299915901],[64.84993409849446,140.33583204249328],[67.62429988359757,139.46205759776984],[67.80313639556653,139.37177389571454],[71.10335000904664,137.6954396085501],[72.50207706224933,136.63515696059812],[72.89053658913862,136.33862945596297],[73.1751318614453,136.11691423257898],[73.40172853211995,135.94565738632176],[76.84884153147955,133.41088007224414],[78.67973698624894,132.31273090413896],[80.01667759772432,131.5053582500214],[80.4412247370183,131.77679364047657],[80.47907751460565,131.80096885831404],[81.09937659354253,132.1959369010565],[81.66428944727136,132.93719758851083],[81.79367848972541,133.19134147960204],[82.92367882954497,135.41564308023493],[84.62592090795671,133.78980617302346],[86.43780229415458,131.98401581015588],[87.77914836626073,130.6242739574769],[88.38636477813203,130.0214298444339],[88.96344454895092,129.4570492309258],[89.55086850405525,129.06278316981968],[90.10240512205432,128.6793558830411],[90.70385896792973,128.83647383125427],[93.56213175030183,132.57283306677874],[93.95726471985033,131.9890429345152],[95.1603197468224,130.15718136831194],[96.25198123106675,128.44417812890163],[96.27203393765704,128.41798736073005],[96.76233243414538,127.78642753601574],[97.52567336669657,126.85277887647207],[97.85997604456847,126.46220073520965],[99.00720405072188,125.5335318138069],[100.72520974016061,124.25228334669086],[100.7533170007973,124.230428410813],[101.5617304788486,123.56590419385483],[101.65541646195476,123.49191155638705],[103.0821811358478,123.19269554451337],[103.36848769447955,123.08239434755143],[104.31333897443028,122.69978557990189],[106.00420508551338,122.03836728833456],[106.09064662268557,122.00364595892228],[106.40215211921019,121.86922255544994],[110.72823179357098,119.94924116042154],[111.0921749755374,119.81346845464248],[111.42466119837724,119.70560932987635],[111.51372977089987,119.67769432199054],[111.7909301935103,119.5878718407242],[112.20490278899496,119.45802895507244],[112.32645463607248,119.42033159084856],[112.4921633143926,119.3685174927363],[113.0320669428213,119.2047460489107],[114.07468409644973,118.63059700253594],[114.58751381859283,118.38767995522255],[116.32858184707206,117.55837047080277],[116.35262449965492,117.54656276190266],[117.68548187699176,116.93711221054464],[118.76405951252084,116.43371154520669],[119.04703257567131,116.29753938026276],[119.33366301204444,116.1732466723699],[120.43142969440791,115.74295123687413],[120.49880821837576,115.71744644990731],[121.02942537242514,115.52328671637478],[121.83374327579781,115.25563760044861],[122.06272669770988,115.18245831693571],[123.33784117071836,115.04795288318292],[123.76738902982882,115.00348947293392],[125.25231033729104,114.84319145844351],[125.92502968563377,114.78824097928911],[126.6916399412944,114.73636014491227],[126.94213579681198,114.72600439614438],[127.00926194803904,114.72592137228479],[128.48058718561862,114.7507961305046],[130.1348152399011,114.79707931982549],[130.15894439088254,114.79888907817464],[130.9160851820664,114.87494628760106],[131.90825549011456,115.00632640533112],[132.0249685615325,115.0220952282017],[132.99299757412507,115.1708866977727],[133.7299331129905,115.28789953305744],[134.37835380739085,115.30321310835211],[134.57639507197305,115.33855949540731],[134.68209861188205,115.35856924533257],[134.8103430896304,115.38747849601477],[135.29096266143821,115.49689878407068],[135.96820663937376,115.68423179280208],[136.5079163369631,115.81226865663317],[137.4676728019549,116.04874146953568],[137.59506700908145,116.08855295453874],[137.97656775861563,116.18874770848723],[138.48799954405996,116.37327836150469],[139.1309499440656,116.62020959557358],[139.1388638579526,116.6224460283402],[139.3472385522691,116.6837099193656],[139.60095491001795,116.7564188568378],[140.59914007916404,117.16486374042846],[141.2457841771281,117.35742210596271],[141.62736473865476,117.47662964406067],[142.08992475582798,117.68238843854732],[143.43568276940226,118.14939832120241],[143.4964439330392,118.17753461515547],[143.53189671051032,118.19438733363033],[143.57003846891791,118.20522771365316],[144.3803664912269,118.61314989956746],[144.50641490682494,118.68019563769045],[144.73718054947054,118.80565122302968],[145.03584808225983,118.92048383972045],[145.23366048024144,118.99919162655458],[145.87180122975084,119.38046790745068],[146.2382593194817,119.56118560854303],[146.70141455631736,119.8035749323721],[146.9223269691825,119.97340968892213],[147.3551870927271,120.24442305996105],[147.4751145184003,120.32154428088971],[147.6463045521379,120.45165038942827],[148.40557650170152,121.0280804206258],[148.6561560294783,121.26483301316634],[149.05029280552657,121.5093936770386],[149.46870273158697,121.93441662161766],[150.14021657404984,122.62715090351008],[150.99404599653198,123.26280773524951],[151.68931107703298,123.78245702330719],[151.90834018849193,123.94535819088584],[152.51136508998962,124.44206065995532],[152.511974729527,124.44278532697479],[152.51228483766502,124.4433489350598],[152.51425944526238,124.44734961216031],[153.38878252209426,126.27034254437703],[153.90436623364184,127.37470947557034],[154.15953382509002,127.93065995617725],[155.2595344662861,127.53231161136755],[155.74013160900284,127.36771345211585],[156.75932943124877,127.02156802727309],[158.07544090182424,126.28107577505617],[159.32048194725218,125.62141548929736],[160.1927597376093,125.15028998885869],[161.32385329228882,124.53946462900953],[162.25112531858196,124.08189928634567],[162.42169374148358,123.99918632571307],[166.39865105748325,123.37230378042486],[167.41846584666945,123.79243115927619],[168.5515362130168,124.25219262313058],[170.73956991101556,124.91271148917178],[170.9778782218571,124.99253670286959],[174.25775885549103,126.6192679312554],[175.82037394389957,127.36034363396399],[175.98295055945542,127.44038599855689],[177.1038637491444,127.99108778760628],[177.67708084006978,128.28093689627897],[181.41423958530677,132.55027095609964],[183.24655548264715,134.6093752592138],[183.79450209326683,135.17365358265874],[183.8980354935521,135.2814223638995],[185.32408362329713,136.80385451949127]],[[108.17917810107329,131.38240912274614],[107.96571945635694,132.68716009455176],[107.90754812670207,133.20726455456025],[107.80007078745945,133.94913442051583],[107.67582939340114,134.71703393511856],[107.59969781727078,135.18998242024668],[107.55121812676941,135.6211095334766],[107.3139995525622,137.52757708701176],[107.3067400315648,137.66295325605657],[107.30577442891904,137.73048868630104],[107.30274977453368,137.99481779360406],[107.30386866153523,138.047733621293],[107.34209707616658,140.14061654153284],[107.3993613060255,141.35232578225418],[107.41193226802656,141.61505643090538],[107.42503834903401,141.92754474467594],[107.45189540783991,142.6205454758877],[107.52411388738669,143.72649539160184],[107.55893926401843,144.24100436957877],[107.60505548140412,145.11155450211842],[107.62573474281744,145.3577391494826],[107.7156290016402,145.8401536034693],[107.83958015237874,146.42739937669612],[107.84092759979872,146.43247426950816],[108.10424414773397,147.61111696713414],[108.33037223827179,148.38963154829156],[108.64680727305543,149.73890654443824],[108.7348200654381,150.09444673221682],[108.81383095457701,150.33391268701513],[109.04153650890473,151.18179496268522],[109.47756250524273,152.55342057479683],[109.59668228938202,152.9366968623329],[109.91763478571542,153.56682153130666],[110.32485857473122,154.31583235116042],[110.53955275107849,154.62456793162565],[110.81763591884396,155.05144694545942],[111.1360763857962,155.48449511578175],[111.5543909487315,156.12299595684885],[111.65439042954657,156.25451005145317],[111.9924321877775,156.7316293020759],[112.08522431215692,156.8578573488617],[112.12634509362236,156.9130244923022],[112.63214616103772,157.5387515027441],[112.72525791142735,157.64601585483723],[112.83795510128435,157.79188876618207],[113.30816760143892,158.32907398618923],[113.64924205251486,158.7665763250786],[113.8793389089289,159.02417102379525],[114.07904192307878,159.27768521446495],[114.1546344479319,159.34162978709102],[114.75649119298602,159.81643108494296],[114.8486425003658,159.88819454470143],[115.01737913065294,160.01503467717987],[115.25745179224916,160.1833974809399],[115.4310136909679,160.32061665619096],[115.7298709443719,160.52860049815453],[116.01472631661966,160.68466097326748],[116.69474204318057,161.1041557030247],[116.85213619434937,161.18709296430666],[118.24448567310415,161.96192043225997],[118.91861053580426,162.3263474946026],[119.19745824601743,162.47517649296293],[119.22028124542466,162.48600234695462],[119.232508454699,162.49281720549945],[120.60104136516493,163.09259361444654],[120.95719619178732,163.17859116597003],[121.80746498755765,163.4458714202984],[121.8094998378378,163.4463465211246],[122.92952907741173,163.7051449403887],[123.06646801898722,163.7436251424753],[124.3771823252973,163.97929634593288],[125.08293636731119,164.07580404143349],[125.5355698489285,164.14550182468108],[126.93751432457407,164.3739034506575],[127.62920293833889,164.4607822680985],[128.21975280007527,164.43526966628366],[129.2479462338984,164.38287588776183],[129.47114240392037,164.37143594257435],[130.3997566259175,164.2837574564069],[131.67018653474395,164.08201156217942],[131.99705538289646,164.03534058422338],[132.81664682115485,163.9037186041288],[133.80575409529217,163.71624699007418],[134.45343625708216,163.51568073143682],[134.54867953832849,163.38968783394427],[134.75558578854358,163.10489460960588],[134.88908062320232,162.9402775166243],[135.16604679881056,162.55107066426996],[135.30759050255878,162.38412219505037],[135.89140420857072,161.7658324974414],[135.94815525004492,161.69793127827708],[136.00552978344334,161.6326398991933],[136.84739026271228,160.2890542849958],[137.11258606301462,159.9488423161755],[137.28660295327046,159.72080995800695],[137.4334661841019,159.52566478708644],[137.48546062039165,159.44844598816792],[137.52551456233138,159.40190563714782],[138.00513819362172,158.69009625511728],[138.3966531775221,158.16279598188004],[138.4649372700522,158.06057617944703],[138.5322489855581,157.9303998210139],[138.7537716703389,157.54147192807946],[138.79824735573288,157.47211459307695],[138.99976397479728,157.1190190636082],[139.12112114575461,156.92818679378533],[139.57818041577946,156.16249795188907],[139.94864982862873,155.3228618686294],[140.17851185010724,154.8151873830384],[140.28148235874264,154.5603849624634],[140.32630153483345,154.46670972574933],[140.37382694043575,154.3456890147116],[140.7059942195301,153.49813587427138],[140.94996757221452,152.7243916497562],[141.21671257104794,152.02161208555918],[141.57135207850592,150.83230274370655],[141.61745906737772,150.70409514375135],[142.0102425589338,149.58108285203429],[142.20078153981171,148.92751988469587],[142.41633778205366,148.28355107947658],[142.67217790394471,147.15134152279404],[142.71213446721885,146.91278152757016],[142.71298462012902,146.9083544274189],[142.9796697290189,145.67952222638309],[143.12196122029655,144.86997464399195],[143.15642038265656,144.71466141958945],[143.34598216430396,143.68721840200106],[143.3573118007877,143.56964630461837],[143.38976845849268,143.2149744514527],[143.4201981723166,143.0205320185662],[143.4345931953732,142.7227276164402],[143.46688839499424,142.25925565175913],[143.4954381516798,141.64650542361633],[143.55341104644648,140.3768706529129],[143.58326614187413,139.82668135213015],[143.59041554305415,139.5677990492569],[143.7334044959328,138.15623316994296],[143.75095823979444,138.00056413164884],[143.79586229401144,137.40723159812546],[143.82585564022486,135.9435692188811],[143.82656853676576,135.92934701783756],[143.9116056064271,135.01677221710767],[143.94839751606224,133.79760236732977],[143.99891052709108,133.0190419860148],[144.04346828388177,132.60243490559503],[144.05341832395894,132.4901146699304],[144.15151587951826,131.44874023143558],[144.1686180043069,130.97097378969593],[144.1830184484039,130.15381967425918],[144.17844331962957,129.03592500450318],[144.19837196949393,128.23100536064888],[144.19899399157293,128.22241822506592],[144.23190125751543,127.74064802212236],[144.25686045723484,127.41154978217884],[144.27609483703492,127.16016579828326],[144.36804448115754,125.83233407686589],[144.369193018295,125.81383479328488],[144.38542722705944,125.3901179191098],[144.39071085511992,125.30346697438529],[144.4205908336719,124.88656682667715],[144.26710601805755,124.86113864132538],[143.1637417218125,124.72669808589603],[142.81751940121757,124.65805160876418],[142.66758846255215,124.60212359552975],[142.49952712305316,124.52498997711346],[142.0576437429875,124.3924605857579],[141.3052566064199,124.20191133550074],[140.73424710046118,124.06001634028557],[139.92680688478583,123.84300571124751],[139.79244431166228,123.7677005778089],[138.94777475488183,123.38970729290124],[137.43285198733835,122.64621240300387],[136.9759348915621,122.44931944541989],[136.88011996487091,122.4129857910218],[136.84335817939842,122.40299961789216],[136.80359731458293,122.38100299191747],[136.49576699792775,122.23265943860237],[136.4622695906686,122.21660493983947],[136.20923757055493,122.08237656369722],[135.6515247943169,121.82758476692649],[134.95923437845323,121.48390211137128],[134.78292481949222,121.40826293276598],[133.762039781025,120.95951968782299],[133.3471893341419,120.67055761733766],[132.76874842217575,120.28597351005212],[132.5613488637709,120.16564312761011],[132.4063533313734,120.05570370305301],[131.70285581405827,119.58361410180677],[131.60464544880168,119.63500445902721],[131.5905809206671,119.64168890669991],[130.6488016458079,120.02935596688853],[130.13071205027023,120.24761638975713],[129.94467711078883,120.3415094000764],[129.82715855192316,120.39923484638386],[129.51052162441164,120.54480846994882],[128.91904267698646,120.81678432179402],[128.41570424687433,120.98183182237582],[127.40425455921714,121.32194940193385],[127.22019250539117,121.38319853584014],[126.45460412101727,121.67901255698735],[126.22594428663939,121.75743284753553],[126.13259189882925,121.79750144525195],[125.9791592979121,121.83912962540333],[125.94156446617627,121.85691359207273],[125.60301442120357,122.03963337426043],[125.03601364064389,122.31148909649737],[124.65782588002092,122.52049852483901],[123.80751251165799,122.98432370831384],[123.46367155593735,123.1661485401783],[122.38835578550956,123.55942434321565],[122.12358084962612,123.65178121039645],[121.74203979197426,123.81152087723109],[121.45099508377828,123.97854682140438],[120.86420761550431,124.28018525302124],[120.71875178135342,124.36503008569704],[120.64700569778884,124.393614564482],[120.30372376292209,124.511416919008],[120.08242780002354,124.5900445204817],[119.63479419255165,124.77043617393856],[119.09825009706833,124.98108419979347],[118.20145226078169,125.48304537971632],[117.4931860002993,125.86953242256571],[117.36865147311245,125.9306076589914],[117.16892590040263,126.02440328485856],[116.48780178377649,126.39498481015337],[115.9450064135293,126.65870878593894],[115.66767722939483,126.81358472152625],[115.09580433482543,127.09714844811745],[114.94983718164217,127.17856232527257],[114.72562032403201,127.31639258021075],[114.31927493530165,127.56564074483543],[113.63269336160403,127.9980593062686],[112.97942052758737,128.36248034692912],[112.56028831349815,128.606886167617],[112.30841834418602,128.74870083175543],[112.19556195823995,128.8220573897344],[111.69635354891463,129.15415320738992],[111.12819642035535,129.50023358531175],[110.9113484183165,129.64931367285052],[110.46981311856712,129.92531047681558],[110.46016642269075,129.93181452439916],[109.95839627757029,130.25080665196208],[108.60351590546881,131.18554371802693],[108.53217213769892,131.2234229353567],[108.17917810107329,131.38240912274614]]]]}},{"type":"Feature","properties":{"Level":"ADM1","shapeGroup":"BEL","shapeID":"BEL-ADM1-95415949B15047719","shapeISO":"BE-WAL","shapeName":"Wallonia","shapeType":"ADM1"},"geometry":{"type":"MultiPolygon","coordinates":[[[[184.69637903992856,132.97572516010695],[184.70331221344077,133.02405617391747],[185.07882251986797,135.28056834510429],[185.32408362329713,136.80385451949127],[183.8980354935521,135.2814223638995],[183.79450209326683,135.17365358265874],[183.24655548264715,134.6093752592138],[181.41423958530677,132.55027095609964],[177.67708084006978,128.28093689627897],[177.1038637491444,127.99108778760628],[175.98295055945542,127.44038599855689],[175.82037394389957,127.36034363396399],[174.25775885549103,126.6192679312554],[170.9778782218571,124.99253670286959],[170.73956991101556,124.91271148917178],[168.5515362130168,124.25219262313058],[167.41846584666945,123.79243115927619],[166.39865105748325,123.37230378042486],[162.42169374148358,123.99918632571307],[162.25112531858196,124.08189928634567],[161.32385329228882,124.53946462900953],[160.1927597376093,125.15028998885869],[159.32048194725218,125.62141548929736],[158.07544090182424,126.28107577505617],[156.75932943124877,127.02156802727309],[155.74013160900284,127.36771345211585],[155.2595344662861,127.53231161136755],[154.15953382509002,127.93065995617725],[153.90436623364184,127.37470947557034],[153.38878252209426,126.27034254437703],[152.51425944526238,124.44734961216031],[152.51228483766502,124.4433489350598],[152.511974729527,124.44278532697479],[152.51136508998962,124.44206065995532],[151.90834018849193,123.94535819088584],[151.68931107703298,123.78245702330719],[150.99404599653198,123.26280773524951],[150.14021657404984,122.62715090351008],[149.46870273158697,121.93441662161766],[149.05029280552657,121.5093936770386],[148.6561560294783,121.26483301316634],[148.40557650170152,121.0280804206258],[147.6463045521379,120.45165038942827],[147.4751145184003,120.32154428088971],[147.3551870927271,120.24442305996105],[146.9223269691825,119.97340968892213],[146.70141455631736,119.8035749323721],[146.2382593194817,119.56118560854303],[145.87180122975084,119.38046790745068],[145.23366048024144,118.99919162655458],[145.03584808225983,118.92048383972045],[144.73718054947054,118.80565122302968],[144.50641490682494,118.68019563769045],[144.3803664912269,118.61314989956746],[143.57003846891791,118.20522771365316],[143.53189671051032,118.19438733363033],[143.4964439330392,118.17753461515547],[143.43568276940226,118.14939832120241],[142.08992475582798,117.68238843854732],[141.62736473865476,117.47662964406067],[141.2457841771281,117.35742210596271],[140.59914007916404,117.16486374042846],[139.60095491001795,116.7564188568378],[139.3472385522691,116.6837099193656],[139.1388638579526,116.6224460283402],[139.1309499440656,116.62020959557358],[138.48799954405996,116.37327836150469],[137.97656775861563,116.18874770848723],[137.59506700908145,116.08855295453874],[137.4676728019549,116.04874146953568],[136.5079163369631,115.81226865663317],[135.96820663937376,115.68423179280208],[135.29096266143821,115.49689878407068],[134.8103430896304,115.38747849601477],[134.68209861188205,115.35856924533257],[134.57639507197305,115.33855949540731],[134.37835380739085,115.30321310835211],[133.7299331129905,115.28789953305744],[132.99299757412507,115.1708866977727],[132.0249685615325,115.0220952282017],[131.90825549011456,115.00632640533112],[130.9160851820664,114.87494628760106],[130.15894439088254,114.79888907817464],[130.1348152399011,114.79707931982549],[128.48058718561862,114.7507961305046],[127.00926194803904,114.72592137228479],[126.94213579681198,114.72600439614438],[126.6916399412944,114.73636014491227],[125.92502968563377,114.78824097928911],[125.25231033729104,114.84319145844351],[123.76738902982882,115.00348947293392],[123.33784117071836,115.04795288318292],[122.06272669770988,115.18245831693571],[121.83374327579781,115.25563760044861],[121.02942537242514,115.52328671637478],[120.49880821837576,115.71744644990731],[120.43142969440791,115.74295123687413],[119.33366301204444,116.1732466723699],[119.04703257567131,116.29753938026276],[118.76405951252084,116.43371154520669],[117.68548187699176,116.93711221054464],[116.35262449965492,117.54656276190266],[116.32858184707206,117.55837047080277],[114.58751381859283,118.38767995522255],[114.07468409644973,118.63059700253594],[113.0320669428213,119.2047460489107],[112.4921633143926,119.3685174927363],[112.32645463607248,119.42033159084856],[112.20490278899496,119.45802895507244],[111.7909301935103,119.5878718407242],[111.51372977089987,119.67769432199054],[111.42466119837724,119.70560932987635],[111.0921749755374,119.81346845464248],[110.72823179357098,119.94924116042154],[106.40215211921019,121.86922255544994],[106.09064662268557,122.00364595892228],[106.00420508551338,122.03836728833456],[104.31333897443028,122.69978557990189],[103.36848769447955,123.08239434755143],[103.0821811358478,123.19269554451337],[101.65541646195476,123.49191155638705],[101.5617304788486,123.56590419385483],[100.7533170007973,124.230428410813],[100.72520974016061,124.25228334669086],[99.00720405072188,125.5335318138069],[97.85997604456847,126.46220073520965],[97.52567336669657,126.85277887647207],[96.76233243414538,127.78642753601574],[96.27203393765704,128.41798736073005],[96.25198123106675,128.44417812890163],[95.1603197468224,130.15718136831194],[93.95726471985033,131.9890429345152],[93.56213175030183,132.57283306677874],[90.70385896792973,128.83647383125427],[90.10240512205432,128.6793558830411],[89.55086850405525,129.06278316981968],[88.96344454895092,129.4570492309258],[88.38636477813203,130.0214298444339],[87.77914836626073,130.6242739574769],[86.43780229415458,131.98401581015588],[84.62592090795671,133.78980617302346],[82.92367882954497,135.41564308023493],[81.79367848972541,133.19134147960204],[81.66428944727136,132.93719758851083],[81.09937659354253,132.1959369010565],[80.47907751460565,131.80096885831404],[80.4412247370183,131.77679364047657],[80.01667759772432,131.5053582500214],[78.67973698624894,132.31273090413896],[76.84884153147955,133.41088007224414],[73.40172853211995,135.94565738632176],[73.1751318614453,136.11691423257898],[72.89053658913862,136.33862945596297],[72.50207706224933,136.63515696059812],[71.10335000904664,137.6954396085501],[71.71491359855739,135.96834436921762],[71.91797940079567,135.3770655129739],[72.05717912345696,134.99022403495243],[72.17658172783555,134.68047565675903],[72.53539472531702,133.86535376777996],[75.02597104906657,128.10527686270933],[75.18907489509012,127.72481818809116],[75.3158324903668,127.52537591848359],[76.60810007273595,125.35589720620547],[77.03593559621527,124.62245096865573],[77.28683972801869,124.206536709358],[77.33867793935474,124.11855995924266],[77.58381653177818,123.7297336364929],[77.89096766796509,123.22602414877227],[78.83456339631005,123.1140700088155],[80.56900601885282,122.89179175372763],[80.80290369464888,122.86011151054205],[81.12681427225257,122.80195064946301],[82.55760338235773,122.5568082478636],[82.82286066592026,122.50842263133512],[83.69116546785301,122.35567354545378],[83.97491568387424,122.2416355603158],[84.38425859029635,122.07094513754687],[84.55312488120278,122.00311849657469],[84.574614423249,121.99432304467047],[85.43061054366395,121.64058236787517],[86.64819025159315,121.19398574351271],[88.55098686893503,120.48924108607656],[89.24372661172697,120.23138541042402],[91.57668508619841,119.32990949515683],[91.65194945773925,119.29988784190547],[92.55298380473963,118.9689836933596],[93.0076532123205,118.7870626023676],[93.66882787768564,117.55767427829021],[93.76782142627948,117.40473999970189],[94.55567388614553,116.22917512484712],[95.33569173549894,114.98495015490339],[96.61143758240934,113.08719047250541],[97.12436621001991,112.30140451816996],[97.19922166173427,112.18421837126216],[97.42934209166141,111.79223785535251],[97.55364679472714,111.60697097672899],[97.800643005225,111.1291324273087],[98.4994003962141,109.75447677677636],[98.85251808639345,108.8790490203348],[99.07256546303887,109.24971337318001],[99.37024206521238,109.56220052343727],[100.45398198515,110.69205728240637],[100.56373637549751,110.66184674067667],[101.64497994105658,110.36059074627084],[102.41586728171701,110.16475376636137],[104.34573168679727,109.70506192116966],[104.55032640145888,109.66833727356405],[104.67837022553198,109.64336031736991],[105.76666671304653,109.51320876627307],[106.04410827839082,109.48322047499508],[108.55797449738812,109.04746043163888],[109.20208977885211,108.92713042865819],[112.58523431088352,108.32745716862624],[112.63548528149155,108.31800384333874],[112.92576048667195,108.26427195646059],[113.49028012484885,108.15569271672062],[115.16985666556266,107.82692697122178],[115.76786786854962,107.37249003148801],[116.62903936890385,106.75240646489243],[118.07791779358499,105.66468971302103],[119.19295550472435,104.86329119607677],[120.13109702080763,104.27016725238434],[120.692128959515,103.90244305131782],[121.25231599782785,103.52475484580546],[121.59781834847016,103.18230701649662],[122.0748806100907,102.84197407575961],[122.2035504714175,102.73002237957581],[122.94175848793319,102.89567107116801],[123.39523404938393,102.94555746921549],[124.66919599610614,103.0994687463535],[125.42341143532872,103.18706413132531],[124.68270282912485,102.22957407235967],[124.4992784095017,101.99366247403819],[123.51384422910641,100.30779060986475],[122.16835151596484,98.02938204318417],[121.83009737792653,97.56828297380623],[121.89885225137567,97.53729429271488],[122.17742983995896,97.41690201954545],[124.07480724187832,96.40919658238525],[124.58695832401406,96.13244569245741],[124.72583065639786,96.05806684748389],[125.0796233712784,95.86648584095951],[125.59380182499521,95.54810340941594],[126.39041009376072,95.05063079286454],[126.20779954644743,94.93582408429263],[124.7131153215312,93.96438733638118],[124.12635467050227,93.58578796710702],[122.7747482693695,92.54630133959618],[122.71149322123063,92.49837279283852],[122.65954058651164,92.45924049258586],[122.58800966219206,92.4064991398674],[121.91839375046098,91.94289758515664],[122.70812864099628,90.54870451426133],[122.72609223970669,90.51635374756809],[122.74829436440623,90.47582415505899],[123.78204029658639,88.57963454027086],[124.0553451691864,88.06613861355316],[124.38752317453748,88.12644236220902],[124.63237901710049,88.17071237407553],[124.99824704258788,88.23266486355061],[127.31401336200267,88.63836371165793],[128.27183908825793,88.80072595947021],[128.57007454900523,88.85048714111328],[130.16381143368469,89.10205800613109],[134.17659900970392,89.81866497136605],[136.4825391418749,90.23756677806267],[136.8542748064186,90.30129592884416],[138.64314802291025,90.46738351878852],[140.45029825824736,90.64562554133018],[142.6443238741254,90.85086194618127],[143.16044663926004,90.8967450085307],[144.4208499699587,91.01488654476253],[145.6759668921401,91.1275807653546],[145.81179256816543,91.13963005741469],[145.8763390375981,91.52898062993454],[146.05455812957513,92.56895805102072],[146.3361138364818,94.17327634784982],[146.3795901629487,94.4671334384743],[146.38641195157626,94.5124964407164],[146.38763307680196,94.52064654149473],[146.4972971576943,95.20554671498573],[146.6419042034311,96.17805438440101],[146.6438483495014,96.18848375356586],[147.69828915308923,96.44842867254815],[148.38502428298358,96.61578802150667],[148.59138846903053,96.66544952202493],[148.6209324260636,96.67541484686971],[152.38005752990426,97.90962720237637],[152.86818754070373,98.07672099300103],[153.8742493167186,98.44774514965702],[153.02985201359343,96.38744126042235],[152.91367745010348,96.10066406195708],[152.84537614576394,95.90693665073852],[152.42049745684574,94.87568620205218],[152.1843708378024,94.32151541961665],[151.95316514286066,93.90780031330826],[151.5272380302635,92.9404081463826],[151.33364044917658,92.49523148996916],[150.49374615887376,90.57224807515513],[150.1952550316744,89.89746252390246],[149.93770566994357,89.33316668184038],[150.902207156563,88.60471587312125],[152.4946298547547,87.38316656264891],[153.82369936086832,86.33047885429022],[153.63681774059566,85.78389998893635],[153.24565695143383,84.6497373974743],[152.94288985046916,83.79080626312083],[152.72313371484108,83.1702539884286],[152.50855294248322,82.580804530445],[151.80950735634573,80.71074344537001],[151.34966836860207,79.52121119179944],[152.47893999607552,79.30501832688645],[154.2604816346517,78.96330199367145],[154.4401563215784,78.92805916428082],[154.86189885299868,78.84412947851582],[155.10276178710552,78.78974282937803],[156.39884707984083,78.49162437201839],[157.53539842904442,78.22981086720218],[160.32149090986198,77.57168028700026],[160.72866644079295,77.4733118751347],[160.90315347644784,77.4082590727562],[161.33410787666256,77.25059765591604],[162.5148446931736,76.81863382194996],[164.25343204334808,76.17085400695748],[164.72497247204814,75.99018529638374],[165.21658274738388,75.78908775220285],[165.88472585097574,75.52548486438454],[166.22198058478253,75.38778109150493],[166.6275699517028,75.21578189588112],[167.04406132963737,75.04101587225855],[167.19830551224135,74.79963676930507],[167.5818677444512,74.17516246047983],[168.20464934305645,73.2030250315436],[168.45734148482637,72.7994180982723],[169.11563145969768,71.71924702517323],[169.70139297452863,70.79530068722882],[169.88259461552897,70.49591629878057],[170.17827393641602,70.02818200737192],[170.641795074052,69.2669330099796],[170.93886027146993,68.79249640960232],[171.0435592452297,68.62104769014304],[172.1265341806608,66.63029472705345],[172.60096050922425,65.76191299477588],[173.1156670496834,64.78960262895126],[174.05776184189423,62.98218892039716],[174.15920526568428,62.7863180127979],[174.2813008516354,62.54818142147272],[174.38956700786133,62.33521654874044],[174.45590848968712,62.36295565437085],[175.46047331878287,62.79127425909801],[175.8304017047618,62.945702895123624],[175.97607196161627,63.005729047183095],[177.94233743900634,63.805263457175194],[179.82903695069552,64.56771618166968],[180.32835019368474,64.7678348594489],[182.5482819929743,65.63940130274325],[183.7018374671498,66.06951336856469],[185.3569646285443,66.68083275077855],[185.64042557866435,66.78405869902386],[185.81219058821858,66.84578369472837],[187.51981769025377,67.45018962463098],[187.5082913974337,67.72869447577982],[187.53358515358306,68.56932468893883],[187.53463991679985,68.59752671099214],[187.54173181701853,68.77708895190634],[187.5319439316242,70.3282881175017],[187.52042698329345,72.26137629799679],[187.51681381064716,72.52872480880694],[187.51670257936755,72.55039683459749],[187.4974189706478,75.62535607084001],[187.46444305015405,75.66852366081244],[186.8805108439846,76.45923831833665],[186.29087002948876,77.27215953162784],[185.4649951786074,78.36969987138532],[185.4349859953091,78.41098631604176],[185.41272687551267,78.44127709746718],[184.60411989171365,79.56937470493975],[183.95705351820607,80.4417311527493],[183.47793941214883,81.10204271193854],[182.32038060515745,82.7407449545639],[182.36838807094648,83.33374253031414],[182.50248482896686,84.93425668818324],[182.8038218344021,88.43779749854298],[183.02482602647598,90.80966214538844],[183.42958167582933,91.88967554295762],[183.63512482559415,92.41953163670728],[184.7155524344751,95.12201476388724],[184.98252776068378,95.83462711006413],[185.2812378533572,96.388708606074],[185.40445952298808,96.60567598681054],[185.54363536513995,96.82250516232496],[186.1370286507037,97.6702931472318],[187.4172385042392,99.55783286474846],[187.51846226755688,99.70417372281895],[187.9659503938334,100.36670889024612],[188.0694398062982,100.51530057484555],[188.61080263059068,101.16870554433518],[189.4262861281974,102.1771233502265],[189.5042991850356,102.27066633562488],[189.56610378308383,102.34719151215333],[190.20235884976353,103.10576090384802],[190.68884093992548,103.03262215329627],[190.75509878343325,103.02039894311824],[191.4261682752513,102.89552138694432],[193.2517252441406,102.54561532620977],[193.4157335949189,102.51411620924262],[194.05382456516878,102.38695624638046],[195.16811565616302,102.15875900002584],[195.39760902896933,102.11217937492532],[196.33048260062037,101.91134375266083],[197.75933189473778,101.60236199296077],[198.84366826544405,104.08747183034085],[198.9502999175503,104.32233105408781],[199.3212404726524,105.13892104568242],[199.84269931568392,106.27640008154498],[200.11381805090005,106.85336580768112],[200.43432953030958,106.99915918464922],[200.52816179076962,107.0463016492402],[201.31240615712554,107.45095940842299],[202.85939523703843,108.23508335156478],[203.30476982913763,108.4578064167288],[203.77452008034257,108.69244548943912],[207.2987527577979,110.42279097805198],[210.624836874624,112.05976620446266],[210.803167156203,112.14671719922417],[210.21160942468285,114.89465047852873],[209.99626988556543,115.91180811744516],[209.67448258133362,117.44588363798123],[209.20824141210625,119.76994272780037],[209.13578907052226,120.12688386076303],[209.1342056465602,120.13960960085355],[209.03779037719164,120.16936121818169],[207.28267655186812,120.64845940100241],[205.97896511871085,121.01833592030354],[205.29231167358128,121.215952787059],[204.91875772023724,121.32505294273744],[203.63966155278158,121.69804015675285],[203.38822811241766,121.77295702312301],[203.31444754640896,121.79408747981554],[202.86044776134213,121.92549295180171],[202.74636656934658,121.95876737219463],[202.75618418950438,121.97735948322116],[203.31330785384398,123.05891002010621],[203.6285205043903,123.66121990299555],[204.2066350520953,124.7441830806849],[204.66894003631398,125.63200531430681],[204.8903609686821,126.04337906443511],[204.9929851039576,126.23609946599858],[205.31451109596333,126.88986883649007],[205.55474414749662,127.3642051969777],[205.66865922420524,127.59411852776913],[206.75096431620835,129.7136078267968],[206.49906145266448,129.80207226259978],[203.76170266650996,130.73604399277315],[203.4073303505179,130.86124415089853],[201.85914853172906,131.41284798705053],[199.47868883055008,132.27150643296426],[198.06127627603365,132.78328114003077],[197.51715877745977,132.98255519671935],[196.60473179376436,133.31541529042866],[195.56134134230166,133.70437877449785],[193.45784449965043,134.49435930410027],[192.89665317757655,134.65221284137277],[191.88446787895023,134.93951694824378],[191.75457208933162,134.3553043579871],[191.6539821014771,133.88677418188968],[191.19556572198144,131.77894491356014],[191.19079011108332,131.75599133781168],[187.70498323020018,132.3996992636654],[185.3172672142615,132.858577885445],[184.75731231226126,132.96540407456484],[184.69637903992856,132.97572516010695]]],[[[56.9843199510812,136.57786155662276],[60.11340271546402,138.21733881651693],[61.35615768601762,138.86257372808677],[63.8102649192165,140.61659014051145],[61.1589023856589,141.88692591913448],[59.95871553993815,142.4830672956132],[59.345099063253826,141.00413330238203],[59.016946631914706,140.18632664157352],[58.393101312415126,139.07165583757833],[56.9843199510812,136.57786155662276]]]]}}]}
