{"type":"FeatureCollection","bbox":[42.66666666666668,58.028407085315266,213.33333333333334,197.97159291468475],"features":[{"type":"Feature","properties":{"Level":"ADM1","shapeGroup":"BEL","shapeID":"BEL-ADM1-95415949B89589665","shapeISO":"BE-BRU","shapeName":"Brussels-Capital","shapeType":"ADM1"},"geometry":{"type":"MultiPolygon","coordinates":[[[[117.08729955959222,150.09408638664513],[123.22800815942739,146.180557463836],[127.60615122863722,148.21937252348002],[124.13585501346006,156.66630216170628],[117.08729955959222,150.09408638664513]]]]}},{"type":"Feature","properties":{"Level":"ADM1","shapeGroup":"BEL","shapeID":"BEL-ADM1-95415949B16727932","shapeISO":"BE-VLG","shapeName":"Flanders","shapeType":"ADM1"},"geometry":{"type":"MultiPolygon","coordinates":[[[[180.60048177411898,146.17869877689458],[189.55279647351773,143.0106985253724],[189.8832594503312,146.17853640231826],[180.60048177411898,146.17869877689458]]],[[[180.79488059963884,149.98043615360925],[178.80148511275544,154.09850002410093],[187.77055988942664,173.33734427659482],[174.76226026401312,178.54351630350482],[172.73022942320952,183.60745203845198],[160.62234872293814,181.09681547078816],[151.80176805827702,196.77377000672078],[147.0167718501435,190.34800802858936],[140.27631508349947,191.5722341374548],[143.34201925814432,194.77023433302298],[140.27184064671192,197.97159291468475],[134.5266469234831,192.15156926236912],[129.9157886147224,192.2154415102222],[130.03315751177723,196.36062969741508],[123.26872443264419,194.1162214507047],[125.38206975846522,188.08317597087674],[116.06361267565089,188.80257804005288],[113.79723589459455,183.15632706431953],[101.5287282082989,176.75540055805854],[88.6508547945404,184.26989328609602],[81.49572307727603,180.08323616498137],[78.94424855084839,188.8228240830506],[71.1061694160053,188.49042238715646],[42.66666666666668,169.99055997942145],[44.589783988404555,153.18017217161807],[56.01781723269309,143.07853926094373],[59.414390079995755,148.9678316379699],[62.99705527550035,147.49703511027263],[70.01252020469406,146.1449843866522],[78.01933118603344,142.76966752464344],[82.25869423043665,147.01472465071882],[89.96927038986232,143.40773575539936],[95.65513772194409,147.4985788906662],[102.38505593415121,141.20695990044007],[113.20419020142945,143.78886334662062],[117.18285423228711,141.00424827706368],[139.35805988472387,149.2490409246016],[157.15309752977936,141.5397474279527],[171.64763974610753,143.66986442999325],[180.79488059963884,149.98043615360925]],[[117.08729955959222,150.09408638664513],[124.13585501346006,156.66630216170628],[127.60615122863722,148.21937252348002],[123.22800815942739,146.180557463836],[117.08729955959222,150.09408638664513]]]]}},{"type":"Feature","properties":{"Level":"ADM1","shapeGroup":"BEL","shapeID":"BEL-ADM1-95415949B15047719","shapeISO":"BE-WAL","shapeName":"Wallonia","shapeType":"ADM1"},"geometry":{"type":"MultiPolygon","coordinates":[[[[180.60048177411898,146.17869877689458],[180.79488059963884,149.98043615360925],[171.64763974610753,143.66986442999325],[157.15309752977936,141.5397474279527],[139.35805988472387,149.2490409246016],[117.18285423228711,141.00424827706368],[113.20419020142945,143.78886334662062],[102.38505593415121,141.20695990044007],[95.65513772194409,147.4985788906662],[89.96927038986232,143.40773575539936],[82.25869423043665,147.01472465071882],[78.01933118603344,142.76966752464344],[70.01252020469406,146.1449843866522],[74.61653257972095,129.98950491306726],[88.75159174246896,127.79104267524625],[93.1642647999901,114.19310948112204],[94.85597574600557,117.51599430279329],[107.20246937367509,117.9891629274556],[112.12949814857241,110.85667576476695],[115.3715049179689,111.93080833442303],[111.7149200456343,102.3555008933881],[116.34232183242825,98.00136224771612],[112.06443110700211,94.26449946150224],[114.81542908065693,89.70079248589964],[137.08867254285212,92.54156305468797],[137.4562423821034,99.53573051945115],[145.29757087788215,103.63132213357663],[141.44002167568107,90.60109220487078],[145.95278801414136,86.54086004959494],[144.27896504798633,78.43995889105372],[163.12624075429187,71.8517897249238],[172.51372532871787,58.028407085315266],[190.579258295923,63.71834261863142],[191.0400164105393,73.15382745254536],[184.2216500198595,81.71395108493469],[185.679858853796,90.62118111785776],[193.85657222881935,105.56891696746266],[201.70830357101624,102.7475588209807],[203.23883219058592,110.15575782685471],[213.33333333333334,116.54223924734266],[210.58826604640433,128.01362568060642],[203.70586416873678,130.76175563154996],[206.58150995533106,138.65731542227857],[189.8832594503312,146.17853640231826],[189.55279647351773,143.0106985253724],[180.60048177411898,146.17869877689458]]],[[[56.01781723269309,143.07853926094373],[62.99705527550035,147.49703511027263],[59.414390079995755,148.9678316379699],[56.01781723269309,143.07853926094373]]]]}}]}
