{"type":"FeatureCollection","bbox":[41.515357466668675,62.1148006841709,209.63954064996597,199.52576346332694],"crs":{"type":"name","properties":{"name":"EPSG:cartesian"}},"properties":{"note":"Created using cartogram-cpp / go-cart.io with custom projection, not in EPSG:4326"},"features":[{"type":"Feature","properties":{"Level":"ADM1","shapeGroup":"BEL","shapeID":"BEL-ADM1-95415949B89589665","shapeISO":"BE-BRU","shapeName":"Brussels-Capital","shapeType":"ADM1"},"geometry":{"type":"MultiPolygon","coordinates":[[[[102.35542645820269,132.76436965541134],[132.1625219896512,114.7476355287267],[149.42132015077462,123.26285330582328],[134.27615423162212,168.44516014349193],[102.35542645820269,132.76436965541134]]]]}},{"type":"Feature","properties":{"Level":"ADM1","shapeGroup":"BEL","shapeID":"BEL-ADM1-95415949B16727932","shapeISO":"BE-VLG","shapeName":"Flanders","shapeType":"ADM1"},"geometry":{"type":"MultiPolygon","coordinates":[[[[185.4134048493331,130.96442953708177],[191.25113194544838,129.1677205288212],[191.76951302405735,132.7215110689864],[185.4134048493331,130.96442953708177]]],[[[185.68528456238607,135.96380440870533],[184.4625115073014,141.519949803501],[192.2397108687784,166.95414738002125],[180.6723587224531,174.26464979476242],[178.47583767851413,180.05214846965163],[167.50937095671577,178.6047062017945],[156.8645181069808,197.1815461519912],[152.42438615050978,191.12199281157936],[144.999370475217,193.50492880089502],[148.26562334313596,196.33889731929779],[144.79251870144375,199.52576346332694],[138.36181041998586,194.65915768148292],[133.06475077613226,195.1356392864518],[133.11389161865554,198.93328895463165],[125.43315186678227,197.05596158212617],[127.94462020427619,191.34659269233288],[117.20146432271017,191.84183905155518],[113.95279394424834,186.75868221551443],[99.30439762693494,178.75570834162212],[87.22071265822377,185.22363903697624],[79.85636219465937,179.9721806951473],[78.01538827846517,189.39446836668694],[69.87102865298353,188.50715891183276],[41.515357466668675,167.2165075510964],[43.540873707735166,149.70490815480298],[56.29203369681949,137.81744724218532],[59.116397524920586,143.6404944415839],[63.18271749716018,141.78463872257927],[70.62218677216723,138.73416157094613],[78.9210346332616,133.1209532936783],[81.26409860577425,136.37057946222697],[87.95016691599312,130.38399603259828],[90.73308217661119,133.35600204773408],[98.5990547317519,123.27948392814905],[109.79399386244543,117.62284571045029],[120.36388900184525,112.28506869525852],[157.88794351752335,128.00793211383362],[168.17262270330247,123.44705392783392],[179.0618940597256,127.31229681736122],[185.68528456238607,135.96380440870533]],[[102.35542645820269,132.76436965541134],[134.27615423162212,168.44516014349193],[149.42132015077462,123.26285330582328],[132.1625219896512,114.7476355287267],[102.35542645820269,132.76436965541134]]]]}},{"type":"Feature","properties":{"Level":"ADM1","shapeGroup":"BEL","shapeID":"BEL-ADM1-95415949B15047719","shapeISO":"BE-WAL","shapeName":"Wallonia","shapeType":"ADM1"},"geometry":{"type":"MultiPolygon","coordinates":[[[[185.4134048493331,130.96442953708177],[185.68528456238607,135.96380440870533],[179.0618940597256,127.31229681736122],[168.17262270330247,123.44705392783392],[157.88794351752335,128.00793211383362],[120.36388900184525,112.28506869525852],[109.79399386244543,117.62284571045029],[98.5990547317519,123.27948392814905],[90.73308217661119,133.35600204773408],[87.95016691599312,130.38399603259828],[81.26409860577425,136.37057946222697],[78.9210346332616,133.1209532936783],[70.62218677216723,138.73416157094613],[76.70349383472899,124.21516761143926],[91.20934887415285,119.44024138483468],[97.22056312837049,108.40906193804837],[98.69423243220967,110.39062705586441],[113.76075900436484,106.37266546948405],[121.92132597241354,101.34172142039102],[125.31880821823245,101.48834770024004],[121.69172211656866,96.36511580428021],[126.33807683635001,93.82232903545419],[121.76331947913167,90.95802010910559],[123.9366547799863,87.2672799787729],[146.50742085093557,90.38292285582355],[147.40303833318777,95.2302381881447],[154.82317285922136,97.64091988133556],[150.54315251209286,88.80769834086034],[154.40286252787809,86.13029133241197],[151.8070522093795,79.45900418880791],[167.45971529853497,75.20412204303449],[174.42743076105563,62.1148006841709],[187.88024792527133,67.47710721504741],[187.92228566141665,75.66813996266026],[182.8097180798688,82.4748283244787],[183.52165447774317,90.62946040107715],[190.49927369534646,103.27813084636335],[198.37020323816537,100.90933464035626],[200.2730836704706,106.3147518865436],[209.63954064996597,111.2954983112472],[206.6001276146374,120.80466467265488],[200.7791180460598,121.7644110414432],[204.37438360331967,129.4852535645972],[191.76951302405735,132.7215110689864],[191.25113194544838,129.1677205288212],[185.4134048493331,130.96442953708177]]],[[[56.29203369681949,137.81744724218532],[63.18271749716018,141.78463872257927],[59.116397524920586,143.6404944415839],[56.29203369681949,137.81744724218532]]]]}}]}
