{"type":"FeatureCollection","bbox":[68.94466709677181,1167.042083390838,1153.975344894947,1916.1581227204833],"crs":{"type":"name","properties":{"name":"EPSG:cartesian"}},"properties":{"note":"Created using cartogram-cpp / go-cart.io with custom projection, not in EPSG:4326"},"features":[{"type":"Feature","properties":{"Level":"ADM2","shapeGroup":"SGP","shapeID":"SGP-ADM2-91842731B16705465","shapeName":"Ang Mo Kio","shapeType":"ADM2"},"geometry":{"type":"MultiPolygon","coordinates":[[[[479.0588364102602,1683.4816317251068],[494.37496332515406,1720.912366890389],[483.98280795563585,1718.9460057178858],[455.3404675149832,1706.154450126194],[364.35456587225053,1722.8751816152721],[245.63945669926665,1775.7425768725507],[233.6286491310613,1789.5772744103106],[239.87057381752166,1781.190304996228],[239.7630002493282,1781.3347232284198],[241.0005569508942,1779.586954670507],[242.53902614382585,1777.4145092538708],[245.23171205606607,1773.5115472320065],[253.08727404809585,1761.1885595585018],[258.1526683527333,1752.5956903992173],[261.35490929602884,1746.9657043900127],[260.55619488196294,1748.4189039581618],[262.9757849693757,1744.1213465449082],[269.3665352069535,1732.3886903673929],[271.76616790715684,1727.7231351992957],[278.2788016473315,1714.3160085927798],[281.713282624279,1707.0027162609044],[282.3425967405447,1706.2609930966153],[369.1491463072931,1616.0153121802082],[444.8669396400836,1551.5181698318308],[463.7371817737389,1596.7145240169914],[457.450563616251,1629.9593029569728],[479.0588364102602,1683.4816317251068]]]]}},{"type":"Feature","properties":{"Level":"ADM2","shapeGroup":"SGP","shapeID":"SGP-ADM2-91842731B15087516","shapeName":"Bedok","shapeType":"ADM2"},"geometry":{"type":"MultiPolygon","coordinates":[[[[759.8112417827139,1352.2324989484987],[766.6384575776083,1351.4323227493414],[807.7413696620142,1373.5556184976144],[886.3003163498415,1406.4737719297405],[937.3992862034872,1435.6608200057221],[933.261058588271,1456.46667786898],[895.9225144908781,1466.5466383957564],[868.9353638482322,1492.1184755384038],[792.3454387686133,1503.2287815641848],[746.4126513427198,1543.1742416396721],[736.5977621868597,1534.6195366006064],[725.8875627937786,1526.4557445300093],[727.3901310679584,1527.821565221495],[709.8606573975038,1515.165334260841],[700.9065665154119,1508.220242502423],[691.4601733932965,1503.4937979107117],[656.9684870752895,1478.2719608695802],[664.6144436253433,1448.2947662136005],[644.5967031043691,1393.9297584693168],[644.9997528113349,1367.3225185851775],[653.1847828249033,1334.971589599511],[692.9249974585946,1347.307831167675],[695.1089762739673,1328.018084069583],[759.8112417827139,1352.2324989484987]]]]}},{"type":"Feature","properties":{"Level":"ADM2","shapeGroup":"SGP","shapeID":"SGP-ADM2-91842731B69392651","shapeName":"Bishan","shapeType":"ADM2"},"geometry":{"type":"MultiPolygon","coordinates":[[[[281.713282624279,1707.0027162609044],[289.38842776983563,1689.4042749858763],[297.88444461348183,1668.559174509059],[293.2113138895287,1679.9141214507076],[300.7859780197823,1660.6457786281733],[302.5838275667385,1655.5846689641487],[312.3786662900265,1626.1019618259277],[325.2027599157445,1577.9885013933808],[327.51932744771455,1566.456117689833],[325.4637935770882,1577.2892766249688],[327.57293026301204,1566.8717216478653],[328.29632204177466,1563.3044790048411],[328.9994311164668,1559.8234929188418],[330.80285193048735,1551.9788818928694],[331.9954219529111,1544.3099165432122],[332.27756257624407,1543.6334119854614],[336.35385307819246,1547.6145697694192],[463.45640034445574,1495.4054836931],[444.8669396400836,1551.5181698318308],[369.1491463072931,1616.0153121802082],[282.3425967405447,1706.2609930966153],[281.713282624279,1707.0027162609044]]]]}},{"type":"Feature","properties":{"Level":"ADM2","shapeGroup":"SGP","shapeID":"SGP-ADM2-91842731B95017104","shapeName":"Boon Lay","shapeType":"ADM2"},"geometry":{"type":"MultiPolygon","coordinates":[[[[143.09416448316526,1494.8269885693994],[143.320539185004,1494.2482946350008],[143.36496253543768,1494.0935876987974],[143.53892866498236,1493.754408226282],[143.41809933024274,1494.2078868864342],[143.4570391306642,1494.1674674889837],[143.45604609120343,1494.1709703507227],[143.30578036816306,1494.71891613431],[143.79933442487666,1494.375900253376],[144.93576291224204,1493.4237182637748],[166.56188875108808,1496.844357411011],[142.60026637104548,1498.7610671928476],[141.3626076860537,1501.9939219708458],[142.89928675581814,1495.4985003074648],[142.741291316297,1495.9561397806065],[142.6859217918858,1496.063646340409],[142.72994125107599,1495.894083330621],[142.99801221077772,1494.9931315454055],[143.16221605690737,1494.5834270275868],[143.05447588504546,1494.8949449617523],[143.02866486331556,1494.9925206049302],[143.0802497299631,1494.8279392577085],[143.2124729414036,1494.4432129595968],[143.3168843227536,1494.1542079655849],[143.24262370566794,1494.4197806088914],[143.03227961469256,1494.9845806223789],[143.09416448316526,1494.8269885693994]]]]}},{"type":"Feature","properties":{"Level":"ADM2","shapeGroup":"SGP","shapeID":"SGP-ADM2-91842731B11718063","shapeName":"Bukit Batok","shapeType":"ADM2"},"geometry":{"type":"MultiPolygon","coordinates":[[[[243.62344690872004,1619.4220933862834],[214.17625766851904,1707.4141253816485],[220.47390073261298,1739.4093196878619],[193.4516606063452,1788.6109727818705],[197.6756785749895,1825.9517963267158],[104.15386773238163,1865.8449860225035],[70.4782615358031,1908.4157716017405],[70.20332351580795,1909.813066545891],[70.32655375385583,1909.0026379982164],[81.4240773963912,1882.5108315796322],[107.01216059124157,1836.449037554999],[110.4062577320131,1830.2865083711058],[112.45364813773244,1826.6008310832221],[114.85696632641066,1822.2307575105665],[122.85159353892243,1807.3677051834256],[163.42013674513896,1728.919123486799],[167.36117224193282,1720.2340753471221],[188.04522242088527,1674.9482895526899],[239.77770846600248,1561.711936373727],[243.62776257362572,1555.0287694133667],[239.82986221804185,1574.3944427016656],[229.72420130163465,1602.37862829246],[230.18268829537294,1610.6135582734573],[238.205088109126,1599.981308654195],[211.17220380422884,1656.9971894932562],[243.62344690872004,1619.4220933862834]]]]}},{"type":"Feature","properties":{"Level":"ADM2","shapeGroup":"SGP","shapeID":"SGP-ADM2-91842731B75613840","shapeName":"Bukit Merah","shapeType":"ADM2"},"geometry":{"type":"MultiPolygon","coordinates":[[[[380.89751785901274,1201.3980460480652],[380.6877438480084,1201.2382378239963],[381.2963844731426,1201.096478637871],[382.10038213209975,1200.4604154248416],[382.0454091443644,1201.1639380537401],[390.90202716275775,1193.53670752622],[397.9868022776428,1188.699488633165],[406.3277936748642,1182.2841406287057],[416.3852242732409,1180.0623699307278],[411.9684122297513,1188.1649380322995],[397.6313425063289,1192.713369099414],[382.7524914943054,1200.6242879819424],[382.1077976043863,1203.435780524126],[404.8873224909537,1202.9493149338591],[428.3811409900552,1205.3570538748475],[429.46527243913533,1187.245464250069],[434.4521310036272,1191.598301707523],[438.13136207866364,1201.8264645524043],[447.91339307826325,1210.2212853340607],[443.60663818213834,1195.0055883612458],[467.8332313822284,1222.5325751537955],[468.31381448916926,1228.152300621025],[455.2503254100213,1225.3387721407707],[455.47892743699333,1229.4049520152066],[449.19131519008795,1275.880782169528],[420.93893173377853,1312.3675517156073],[409.908067942791,1331.4478488655732],[389.94823663580456,1358.318545737735],[385.05003615229515,1361.959539707535],[385.01472663351575,1361.9772961320107],[384.5107916355369,1362.2336407474816],[362.8662323644694,1371.865027928878],[340.38447584225185,1383.7801342103912],[340.79505379050124,1374.3146808718623],[327.91426945013666,1375.721459816581],[318.4366443824348,1344.0184784290354],[317.8809577202165,1324.891602130766],[323.86891784807756,1304.4471919824198],[324.4684871870534,1275.8663675069545],[318.9961855546204,1263.594245283026],[336.7694070586919,1235.244782445368],[341.07191320647524,1242.3016349852207],[350.1112963154533,1232.824584924469],[353.06089174191595,1234.673561799947],[362.35139579923657,1223.3190941850594],[357.84405556808736,1224.4772950446466],[353.8095943678258,1229.9630905723975],[350.89964167332994,1228.733266567923],[354.05728275082254,1224.3040015489012],[362.64554162008005,1222.8584636882738],[372.2338961535297,1211.7127323275054],[369.10479162165706,1212.531018273634],[380.1170196067368,1204.9420781748927],[380.2985854350535,1201.8467783179062],[380.89751785901274,1201.3980460480652]]]]}},{"type":"Feature","properties":{"Level":"ADM2","shapeGroup":"SGP","shapeID":"SGP-ADM2-91842731B44469853","shapeName":"Bukit Panjang","shapeType":"ADM2"},"geometry":{"type":"MultiPolygon","coordinates":[[[[243.62344690872004,1619.4220933862834],[288.2914615276513,1532.021994927526],[329.0843453230769,1545.4100960242333],[329.10343775006726,1549.7437108743327],[327.44889961843705,1561.9592341619941],[327.6242281081563,1562.8923310100645],[328.43048949286316,1557.2883379718496],[327.8123493296505,1562.5959266538932],[309.8935328658741,1632.0347466150379],[286.51907941767206,1695.3380762396457],[235.0045804980227,1787.5847070326226],[212.83793911157733,1812.100731195339],[169.69379535724997,1855.2529761149024],[83.93933834219526,1913.9708349329812],[197.6756785749895,1825.9517963267158],[193.4516606063452,1788.6109727818705],[220.47390073261298,1739.4093196878619],[214.17625766851904,1707.4141253816485],[243.62344690872004,1619.4220933862834]]]]}},{"type":"Feature","properties":{"Level":"ADM2","shapeGroup":"SGP","shapeID":"SGP-ADM2-91842731B90456756","shapeName":"Bukit Timah","shapeType":"ADM2"},"geometry":{"type":"MultiPolygon","coordinates":[[[[239.77770846600248,1561.711936373727],[279.4485217701385,1487.6850330377906],[268.106572695916,1480.5712203824924],[269.1930995659731,1465.5772391457906],[286.3432259367934,1432.7553958228718],[295.3494301014572,1422.4445603260529],[296.1751107521711,1435.0681698305666],[298.91840981634766,1436.9426385827396],[303.7413183333388,1420.82074545068],[307.64234921337646,1429.7126752624577],[308.67895900559097,1421.2994200516055],[313.76994224723467,1415.5123383977682],[314.82821313730324,1420.0254301644231],[317.5660170965982,1414.2783460093535],[322.64435727185673,1435.7084561016343],[328.47930049576235,1451.5023153116258],[330.1403052635685,1462.65916256759],[331.2165861932449,1483.8202901012871],[332.5696840804534,1526.8054798336557],[332.3469043862344,1527.7373435096208],[331.87042168899046,1532.7502916717385],[331.6725147287748,1534.2665326208553],[331.20497715816293,1540.419105091265],[331.00839789235084,1539.256099156446],[330.91362276100654,1540.3702553355895],[329.01982833168,1556.5840866241035],[328.502896545153,1559.6653465511763],[328.25915678677666,1560.857907612325],[327.88595505004184,1562.6975735918943],[327.8123493296505,1562.5959266538932],[328.43048949286316,1557.2883379718496],[327.6242281081563,1562.8923310100645],[327.44889961843705,1561.9592341619941],[329.10343775006726,1549.7437108743327],[329.0843453230769,1545.4100960242333],[288.2914615276513,1532.021994927526],[243.62344690872004,1619.4220933862834],[211.17220380422884,1656.9971894932562],[238.205088109126,1599.981308654195],[230.18268829537294,1610.6135582734573],[229.72420130163465,1602.37862829246],[239.82986221804185,1574.3944427016656],[243.62776257362572,1555.0287694133667],[239.77770846600248,1561.711936373727]]]]}},{"type":"Feature","properties":{"Level":"ADM2","shapeGroup":"SGP","shapeID":"SGP-ADM2-91842731B39071774","shapeName":"Central Water Catchment","shapeType":"ADM2"},"geometry":{"type":"MultiPolygon","coordinates":[[[[233.6286491310613,1789.5772744103106],[230.10495715046522,1793.9494092534276],[226.40310701675256,1798.097883538618],[226.62922852348427,1797.922327565439],[225.98580308961184,1798.5983515947767],[221.3656167670204,1803.5299393312025],[91.70273944004545,1912.3651102071526],[81.27770248853989,1914.1458597313522],[71.24023280890806,1911.1953667029254],[86.36388663247357,1913.64969830817],[235.0045804980227,1787.5847070326226],[286.51907941767206,1695.3380762396457],[309.8935328658741,1632.0347466150379],[327.8123493296505,1562.5959266538932],[327.88595505004184,1562.6975735918943],[328.25915678677666,1560.857907612325],[328.502896545153,1559.6653465511763],[329.01982833168,1556.5840866241035],[330.91362276100654,1540.3702553355895],[331.00839789235084,1539.256099156446],[331.20497715816293,1540.419105091265],[331.6725147287748,1534.2665326208553],[331.87042168899046,1532.7502916717385],[332.3469043862344,1527.7373435096208],[332.5696840804534,1526.8054798336557],[331.910342711019,1537.3280238211175],[331.95286044286934,1540.6429800532192],[332.2388147825993,1540.1564518034547],[332.287703003482,1540.164852441462],[332.29589336192464,1540.352970012302],[332.2781457611579,1540.9179676541548],[332.25450684266946,1542.9044242961006],[332.27756257624407,1543.6334119854614],[331.9954219529111,1544.3099165432122],[330.80285193048735,1551.9788818928694],[328.9994311164668,1559.8234929188418],[328.29632204177466,1563.3044790048411],[327.57293026301204,1566.8717216478653],[325.4637935770882,1577.2892766249688],[327.51932744771455,1566.456117689833],[325.2027599157445,1577.9885013933808],[312.3786662900265,1626.1019618259277],[302.5838275667385,1655.5846689641487],[300.7859780197823,1660.6457786281733],[293.2113138895287,1679.9141214507076],[297.88444461348183,1668.559174509059],[289.38842776983563,1689.4042749858763],[281.713282624279,1707.0027162609044],[278.2788016473315,1714.3160085927798],[271.76616790715684,1727.7231351992957],[269.3665352069535,1732.3886903673929],[262.9757849693757,1744.1213465449082],[260.55619488196294,1748.4189039581618],[261.35490929602884,1746.9657043900127],[258.1526683527333,1752.5956903992173],[253.08727404809585,1761.1885595585018],[245.23171205606607,1773.5115472320065],[242.53902614382585,1777.4145092538708],[241.0005569508942,1779.586954670507],[239.7630002493282,1781.3347232284198],[239.87057381752166,1781.190304996228],[233.6286491310613,1789.5772744103106]]]]}},{"type":"Feature","properties":{"Level":"ADM2","shapeGroup":"SGP","shapeID":"SGP-ADM2-91842731B90623709","shapeName":"Changi","shapeType":"ADM2"},"geometry":{"type":"MultiPolygon","coordinates":[[[[1081.1669330037923,1525.7583627304382],[1067.9438100419036,1508.124091453029],[1055.4482512278391,1496.1038579104675],[1088.8336973702772,1533.6234404834368],[1086.2122460727278,1524.666347416579],[1090.4973685669836,1531.4768355590556],[1095.4686579657398,1543.584820519097],[1096.069680865822,1543.592296934351],[1098.1858120365423,1580.1620667184939],[1097.9831733656472,1580.3737521944545],[1097.7693841207063,1580.8104005922748],[1094.8280595875203,1582.9617586738345],[1095.0080756598568,1582.7106792483794],[1094.6945248711008,1582.8273794225975],[1093.9261423441949,1583.4009517877564],[1093.7345201390508,1583.5619785960143],[1093.352873342328,1583.7425462284377],[1088.2797439460794,1586.4823861082205],[1086.5899296716389,1587.5575247321067],[1078.110415104761,1592.3375125929733],[1068.8942040240165,1596.2485265512078],[1067.319751725578,1596.6981885284627],[1087.0716993129051,1586.743523590885],[1088.6140148286902,1585.622026178728],[1091.480159701851,1584.2835852608748],[1092.245323664545,1583.8622609634856],[1093.4372054926207,1582.7427398857485],[1094.5253350013954,1581.587146012251],[1095.0409652056935,1580.4292907755212],[1096.85387799174,1577.7743917002756],[1092.634926890566,1573.1610353062313],[1097.382567141182,1568.5680731739164],[1099.9497148465514,1574.0504214134448],[1085.7316194675416,1535.881978147321],[1089.9586781821015,1540.0884770435932],[1081.1669330037923,1525.7583627304382]]]]}},{"type":"Feature","properties":{"Level":"ADM2","shapeGroup":"SGP","shapeID":"SGP-ADM2-91842731B22047646","shapeName":"Changi Bay","shapeType":"ADM2"},"geometry":{"type":"MultiPolygon","coordinates":[[[[1096.069680865822,1543.592296934351],[1096.2574105804015,1540.5662496176565],[1098.4374363180834,1550.3947319975587],[1098.8508935806562,1547.8356578446044],[1097.251755757271,1537.9819776825611],[1099.0069407993196,1535.5045780674254],[1101.2863715560413,1553.52560818865],[1100.485516184964,1558.3769406616518],[1100.8624848112738,1560.6997382923446],[1098.1858120365423,1580.1620667184939],[1096.069680865822,1543.592296934351]]],[[[1097.7693841207063,1580.8104005922748],[1097.9974267819616,1580.4758152111099],[1099.758124860899,1578.9377371801972],[1100.459937138282,1578.1733499091495],[1100.956402138117,1577.538286790707],[1101.4169375695421,1577.2436238430653],[1099.8776211205643,1578.8511701416035],[1098.0360787475124,1580.5336146983489],[1097.7693841207063,1580.8104005922748]]]]}},{"type":"Feature","properties":{"Level":"ADM2","shapeGroup":"SGP","shapeID":"SGP-ADM2-91842731B37820439","shapeName":"Choa Chu Kang","shapeType":"ADM2"},"geometry":{"type":"MultiPolygon","coordinates":[[[[197.6756785749895,1825.9517963267158],[83.93933834219526,1913.9708349329812],[77.50500901458716,1913.7986891913424],[70.39771052557609,1910.3452487470458],[70.23514935500734,1910.0620150446537],[70.23458238789651,1910.060415608629],[70.22206104787848,1910.02181924778],[70.22411412576132,1910.0282942755264],[70.20647335311276,1909.965997910795],[70.20170749268658,1909.949804237159],[70.2044844412394,1909.9584097480924],[70.20367172532262,1909.8575639357664],[70.4782615358031,1908.4157716017405],[104.15386773238163,1865.8449860225035],[197.6756785749895,1825.9517963267158]]]]}},{"type":"Feature","properties":{"Level":"ADM2","shapeGroup":"SGP","shapeID":"SGP-ADM2-91842731B65220759","shapeName":"Clementi","shapeType":"ADM2"},"geometry":{"type":"MultiPolygon","coordinates":[[[[188.04522242088527,1674.9482895526899],[212.7124461587644,1522.2454001437009],[216.82591096875905,1497.0184026463653],[216.19298820601915,1493.8115763398255],[203.20712846662303,1455.3098394378603],[202.9689776943024,1444.892693166302],[217.02100865850755,1432.4232481854322],[230.19306829270954,1397.974214837228],[233.73867863057893,1396.0182639948973],[233.99524320553834,1395.5270401178477],[244.13288466808586,1394.5459441740752],[256.2441261577861,1358.8921428700473],[261.8559452217201,1360.476782398856],[271.0259271054605,1437.3083963443598],[269.1930995659731,1465.5772391457906],[268.106572695916,1480.5712203824924],[279.4485217701385,1487.6850330377906],[239.77770846600248,1561.711936373727],[188.04522242088527,1674.9482895526899]]]]}},{"type":"Feature","properties":{"Level":"ADM2","shapeGroup":"SGP","shapeID":"SGP-ADM2-91842731B10931458","shapeName":"Downtown Core","shapeType":"ADM2"},"geometry":{"type":"MultiPolygon","coordinates":[[[[467.8332313822284,1222.5325751537955],[467.5416397892258,1221.4646731460577],[479.18358162736024,1237.8132508413635],[479.87227645410763,1238.833975290727],[480.99882950173884,1240.7175694066211],[482.432261024532,1243.348365710904],[483.8372981878185,1246.212554217481],[485.61079091520327,1251.3864345215275],[486.12597047030783,1251.1399556355425],[486.277378308729,1251.3647297653083],[486.28501997275134,1251.3854291376106],[486.4150886087838,1251.7839631343943],[486.85326970841186,1254.7951108107402],[486.9372420069419,1255.4013819158747],[486.9824192133283,1255.6998660135341],[487.05805191333167,1256.2510630718118],[487.1980507083607,1257.2409342803442],[486.76659956923464,1260.6348027683932],[480.654533394587,1283.9526748361013],[460.2686704900083,1314.6995901058954],[469.50729238717526,1303.069073189994],[467.19436769903916,1300.8029018542816],[470.61879705851777,1293.9797740596262],[482.9834695980613,1259.4810542683126],[478.81293458365667,1271.3134871176171],[482.0991881069227,1254.7493911091738],[481.0932931934127,1250.2503876360374],[479.07425340811426,1246.830966140592],[477.3875482100219,1260.490669472802],[471.43531229881796,1235.7651503930217],[455.47892743699333,1229.4049520152066],[455.2503254100213,1225.3387721407707],[468.31381448916926,1228.152300621025],[467.8332313822284,1222.5325751537955]]]]}},{"type":"Feature","properties":{"Level":"ADM2","shapeGroup":"SGP","shapeID":"SGP-ADM2-91842731B16549460","shapeName":"Geylang","shapeType":"ADM2"},"geometry":{"type":"MultiPolygon","coordinates":[[[[656.9684870752895,1478.2719608695802],[598.5798747263493,1443.3800522312135],[500.35265094338956,1415.505285203942],[528.8496641652217,1376.3635942629455],[521.9072580004292,1356.2336275229559],[517.7441591716948,1317.2626316626552],[541.0344000669371,1311.0885564389484],[567.5364699959895,1325.4356659316936],[571.053316756095,1334.583721354094],[620.0316059398579,1345.8627162725275],[644.9997528113349,1367.3225185851775],[644.5967031043691,1393.9297584693168],[664.6144436253433,1448.2947662136005],[656.9684870752895,1478.2719608695802]]]]}},{"type":"Feature","properties":{"Level":"ADM2","shapeGroup":"SGP","shapeID":"SGP-ADM2-91842731B68340411","shapeName":"Hougang","shapeType":"ADM2"},"geometry":{"type":"MultiPolygon","coordinates":[[[[691.4601733932965,1503.4937979107117],[705.5581930471734,1512.894289732827],[709.7091748713527,1516.0405868029593],[704.318539856743,1512.8219301413512],[699.6948999006088,1510.6469396791422],[711.9362651568068,1517.833438451036],[714.4829459472015,1519.5109056467995],[720.5188432796615,1523.492540982712],[731.3500353463421,1531.1009910240236],[764.2978186499233,1557.3000021295961],[756.6873543665349,1561.8547741711043],[700.9432909702024,1574.3252528105177],[635.0463337125672,1604.598156727532],[550.6759123377757,1694.9075725199843],[526.4011321627008,1682.8885299727572],[535.4624482246156,1651.9805820539123],[534.4639701384848,1586.2066034333957],[519.4378276173026,1559.557817943667],[523.8768293076176,1547.1309306814394],[546.3447748035331,1523.1855525007654],[537.3497218923644,1519.9922641983426],[554.1471577330935,1511.0918642523206],[587.0313279940128,1473.0378108734071],[598.5798747263493,1443.3800522312135],[656.9684870752895,1478.2719608695802],[691.4601733932965,1503.4937979107117]]]]}},{"type":"Feature","properties":{"Level":"ADM2","shapeGroup":"SGP","shapeID":"SGP-ADM2-91842731B57983807","shapeName":"Jurong East","shapeType":"ADM2"},"geometry":{"type":"MultiPolygon","coordinates":[[[[143.45604609120343,1494.1709703507227],[143.46818483571093,1494.194252789253],[143.51552129006578,1494.0656799471417],[143.72682073422845,1493.1865640966193],[143.7448482746575,1493.157783670755],[143.69833755873384,1493.3558808061034],[143.98011454175443,1492.9150195590225],[144.57894223072037,1491.5243524577218],[143.97401835677255,1492.9532374130467],[144.08270913887208,1492.8163275412362],[143.64892286812182,1493.912320769846],[143.56814551840313,1493.961565776298],[143.51290035446775,1494.1538789235062],[143.60263631732315,1494.2067946423758],[147.26289444040154,1485.596508704138],[149.8090130092223,1480.4470398648084],[175.53244835185077,1444.7997472629465],[186.46293204737077,1439.4664888481457],[191.09238011566447,1435.726047038312],[186.65710107015852,1436.4045861280042],[203.15413048342052,1420.574527019668],[230.19306829270954,1397.974214837228],[217.02100865850755,1432.4232481854322],[202.9689776943024,1444.892693166302],[203.20712846662303,1455.3098394378603],[216.19298820601915,1493.8115763398255],[216.82591096875905,1497.0184026463653],[212.7124461587644,1522.2454001437009],[188.04522242088527,1674.9482895526899],[167.36117224193282,1720.2340753471221],[163.42013674513896,1728.919123486799],[122.85159353892243,1807.3677051834256],[112.19795292628345,1826.8553967160276],[70.2215532094391,1909.5962487301829],[70.25369059286251,1909.3773190841462],[70.9020565197985,1906.8039825069513],[77.51981836570012,1890.1748679256202],[119.55825560073866,1811.7457882284266],[96.51627572303538,1853.547989151677],[118.63715577633349,1809.349646712963],[182.59198219032814,1607.220250217236],[163.21678480996917,1482.3053235729815],[156.48100990699356,1480.659435435639],[144.93576291224204,1493.4237182637748],[143.79933442487666,1494.375900253376],[143.30578036816306,1494.71891613431],[143.45604609120343,1494.1709703507227]]]]}},{"type":"Feature","properties":{"Level":"ADM2","shapeGroup":"SGP","shapeID":"SGP-ADM2-91842731B44472798","shapeName":"Jurong West","shapeType":"ADM2"},"geometry":{"type":"MultiPolygon","coordinates":[[[[144.93576291224204,1493.4237182637748],[156.48100990699356,1480.659435435639],[163.21678480996917,1482.3053235729815],[182.59198219032814,1607.220250217236],[118.63715577633349,1809.349646712963],[96.51627572303538,1853.547989151677],[119.55825560073866,1811.7457882284266],[77.51981836570012,1890.1748679256202],[70.9020565197985,1906.8039825069513],[70.25369059286251,1909.3773190841462],[70.2215532094391,1909.5962487301829],[70.20145458495323,1909.8379294127924],[70.20191649675748,1909.9101589457],[70.20223296253603,1909.921328250723],[70.20331076985757,1909.9368972541363],[70.20383729119574,1909.9436288114107],[70.20288500162582,1909.9498495058626],[70.20218236784166,1909.9484174265215],[70.20040551764008,1909.94423066806],[70.1999777800705,1909.9429822912962],[70.15743172719431,1909.8009509533595],[68.94466709677181,1887.0515078751046],[83.31570494860668,1770.2374073470794],[95.23548644484244,1703.1292101770318],[104.93383046606212,1653.3177783092956],[131.675997457446,1536.4551898513005],[138.30607045244255,1511.8927462859424],[138.6784489702976,1510.6156493099993],[137.1742371943207,1515.984592233249],[140.6108304404923,1503.9257359348503],[141.3626076860537,1501.9939219708458],[142.60026637104548,1498.7610671928476],[166.56188875108808,1496.844357411011],[144.93576291224204,1493.4237182637748]]]]}},{"type":"Feature","properties":{"Level":"ADM2","shapeGroup":"SGP","shapeID":"SGP-ADM2-91842731B92965426","shapeName":"Kallang","shapeType":"ADM2"},"geometry":{"type":"MultiPolygon","coordinates":[[[[487.1980507083607,1257.2409342803442],[487.3668543478823,1256.9376882694355],[487.4917479144642,1256.7147940416799],[487.83132865708495,1256.810472532925],[488.7408668434502,1257.0589693032878],[489.70574514542875,1257.5774029282306],[497.22170104357514,1262.5258180426686],[534.5238195288346,1279.9167484981217],[543.0908950495301,1299.781957073053],[541.0344000669371,1311.0885564389484],[517.7441591716948,1317.2626316626552],[521.9072580004292,1356.2336275229559],[528.8496641652217,1376.3635942629455],[500.35265094338956,1415.505285203942],[469.4822303512185,1432.0651622849307],[467.2652123574723,1433.176808934377],[467.4082145156556,1429.1935166563699],[466.9625801589187,1425.0891557704083],[462.3675994753572,1417.245674315484],[430.9855111865735,1406.0271199528747],[386.6515364997625,1402.2007403574323],[387.49359375849644,1392.8688152932325],[400.5402766342678,1374.8114301162832],[414.3653596503198,1356.0060838422512],[433.2858190614599,1374.418725349866],[434.93715121239876,1371.972726464621],[447.229825200061,1355.6800274658183],[443.1070594105217,1350.5154581685597],[482.9747120295764,1283.7265306288336],[480.654533394587,1283.9526748361013],[486.76659956923464,1260.6348027683932],[487.1980507083607,1257.2409342803442]]]]}},{"type":"Feature","properties":{"Level":"ADM2","shapeGroup":"SGP","shapeID":"SGP-ADM2-91842731B84667478","shapeName":"Lim Chu Kang","shapeType":"ADM2"},"geometry":{"type":"MultiPolygon","coordinates":[[[[70.20782660350501,1909.9717043962619],[70.21660254471458,1910.0034182080856],[70.22037449794414,1910.0161442137346],[70.22192495904092,1910.0215264423869],[70.2244391429288,1910.0296709588622],[70.22477468912187,1910.030743580186],[70.22604977479948,1910.034873741025],[70.22695280871388,1910.0379667679674],[70.22848542744605,1910.0428862940275],[70.23129855223091,1910.05128293297],[70.23499853684302,1910.0616445587402],[70.23149940674904,1910.0518472478134],[70.22819098002087,1910.0419665146449],[70.22780767645965,1910.040763655271],[70.22780866474812,1910.0407668119128],[70.22794285307194,1910.0411889940644],[70.22834517538709,1910.0424497910644],[70.22870874518772,1910.0435911982386],[70.23075626254102,1910.0497452880627],[70.23048748104246,1910.0489744148583],[70.2365263017082,1910.0658723810993],[70.24901299523817,1910.0975748992826],[70.26023947136342,1910.1240823170044],[70.26536708762738,1910.1352543078474],[70.25793129623389,1910.1188499021366],[70.2671916407651,1910.1390577239486],[70.2983344917844,1910.197840160248],[70.27513512372177,1910.1550485257249],[70.2573248307021,1910.1175493486955],[70.24134496412967,1910.0789128240092],[70.22008754116582,1910.015210353952],[70.21822192197641,1910.0089201019873],[70.21375286793923,1909.9935466060242],[70.20531603841478,1909.9624379576085],[70.20437661312384,1909.9591646993485],[70.20172018490472,1909.9503013128456],[70.20115122524247,1909.948469385011],[70.200531347397,1909.9464860520775],[70.19814723837898,1909.9384604497852],[70.1986776592943,1909.9402429403162],[70.19982386111279,1909.9441266815254],[70.19898821284202,1909.9412843021578],[70.20173256923593,1909.9502917358607],[70.20782660350501,1909.9717043962619]]]]}},{"type":"Feature","properties":{"Level":"ADM2","shapeGroup":"SGP","shapeID":"SGP-ADM2-91842731B62952515","shapeName":"Mandai","shapeType":"ADM2"},"geometry":{"type":"MultiPolygon","coordinates":[[[[226.62922852348427,1797.922327565439],[228.3971827409701,1796.4516020065485],[230.85901678546205,1795.237298431722],[249.24089544001774,1790.8535818583148],[324.0525313647702,1802.0201882509114],[344.7873790348816,1811.394108714066],[332.54782638894517,1806.9098212189442],[335.2223892189383,1810.7130900281313],[332.27283150902423,1810.8417511249336],[314.0106338096564,1800.6652795252826],[224.5068349959667,1800.2344326203672],[215.57751564433275,1809.4371723211411],[166.42884812575716,1858.474505655648],[76.58301993089104,1913.6179837415443],[70.9504160680272,1910.9451137785913],[71.24023280890806,1911.1953667029254],[81.27770248853989,1914.1458597313522],[91.70273944004545,1912.3651102071526],[221.3656167670204,1803.5299393312025],[225.98580308961184,1798.5983515947767],[226.62922852348427,1797.922327565439]]]]}},{"type":"Feature","properties":{"Level":"ADM2","shapeGroup":"SGP","shapeID":"SGP-ADM2-91842731B18600643","shapeName":"Marina East","shapeType":"ADM2"},"geometry":{"type":"MultiPolygon","coordinates":[[[[486.28501997275134,1251.3854291376106],[486.98814462150244,1247.1780444091523],[488.4919069220064,1248.8441580135802],[490.61603165900505,1250.0869663860976],[492.0286628632257,1251.0062856351303],[490.44656738306276,1250.0736042842213],[499.20717874035336,1256.1028841023435],[491.81211713810615,1256.0027628068851],[497.22170104357514,1262.5258180426686],[489.70574514542875,1257.5774029282306],[488.7408668434502,1257.0589693032878],[487.83132865708495,1256.810472532925],[487.4917479144642,1256.7147940416799],[487.3668543478823,1256.9376882694355],[487.1980507083607,1257.2409342803442],[487.05805191333167,1256.2510630718118],[486.9824192133283,1255.6998660135341],[486.9372420069419,1255.4013819158747],[486.85326970841186,1254.7951108107402],[486.4150886087838,1251.7839631343943],[486.28501997275134,1251.3854291376106]]]]}},{"type":"Feature","properties":{"Level":"ADM2","shapeGroup":"SGP","shapeID":"SGP-ADM2-91842731B25785375","shapeName":"Marina South","shapeType":"ADM2"},"geometry":{"type":"MultiPolygon","coordinates":[[[[480.99882950173884,1240.7175694066211],[482.36791166530554,1238.869143044722],[485.54663398789603,1243.9989681679547],[485.70116110400187,1245.7672940837692],[486.98814462150244,1247.1780444091523],[486.28501997275134,1251.3854291376106],[486.277378308729,1251.3647297653083],[486.12597047030783,1251.1399556355425],[485.61079091520327,1251.3864345215275],[483.8372981878185,1246.212554217481],[482.432261024532,1243.348365710904],[480.99882950173884,1240.7175694066211]]]]}},{"type":"Feature","properties":{"Level":"ADM2","shapeGroup":"SGP","shapeID":"SGP-ADM2-91842731B19705608","shapeName":"Marine Parade","shapeType":"ADM2"},"geometry":{"type":"MultiPolygon","coordinates":[[[[644.9997528113349,1367.3225185851775],[620.0316059398579,1345.8627162725275],[571.053316756095,1334.583721354094],[567.5364699959895,1325.4356659316936],[541.0344000669371,1311.0885564389484],[543.0908950495301,1299.781957073053],[534.5238195288346,1279.9167484981217],[497.22170104357514,1262.5258180426686],[491.81211713810615,1256.0027628068851],[499.2379471665636,1256.1755885367397],[568.6364016285805,1286.5726974577894],[695.1089762739673,1328.018084069583],[692.9249974585946,1347.307831167675],[653.1847828249033,1334.971589599511],[644.9997528113349,1367.3225185851775]]]]}},{"type":"Feature","properties":{"Level":"ADM2","shapeGroup":"SGP","shapeID":"SGP-ADM2-91842731B65785162","shapeName":"Museum","shapeType":"ADM2"},"geometry":{"type":"MultiPolygon","coordinates":[[[[467.19436769903916,1300.8029018542816],[442.7796100089698,1322.084033434866],[414.8563053997839,1345.7719572450924],[415.4329962543056,1343.4421296074038],[407.0270973643694,1353.1607445236227],[402.3941076776899,1356.9051432322126],[420.91782152576627,1335.8069542339383],[424.95471518042496,1330.8810676435787],[470.61879705851777,1293.9797740596262],[467.19436769903916,1300.8029018542816]]]]}},{"type":"Feature","properties":{"Level":"ADM2","shapeGroup":"SGP","shapeID":"SGP-ADM2-91842731B70623819","shapeName":"Newton","shapeType":"ADM2"},"geometry":{"type":"MultiPolygon","coordinates":[[[[387.49359375849644,1392.8688152932325],[369.67712982206064,1408.9173015727981],[355.57356532713044,1428.4937816118816],[346.66942892010576,1422.4067207043352],[346.4546759598265,1416.921906168852],[349.49632385773657,1412.877073018439],[357.49563273865914,1409.0184852218815],[360.9248041513235,1411.03677426917],[368.295039009355,1402.1987984675138],[364.03188951654954,1403.7616057513003],[368.66681849881394,1399.2905912904287],[374.55541259069145,1395.1942477678228],[387.7198219340424,1378.3338994711671],[386.1888476411099,1383.1059306951665],[391.02224346752826,1375.9441804581656],[391.0703011592163,1375.8641051542986],[407.0270973643694,1353.1607445236227],[415.4329962543056,1343.4421296074038],[414.8563053997839,1345.7719572450924],[404.307492455814,1362.799218732462],[422.4414445394608,1340.4699678526445],[400.5402766342678,1374.8114301162832],[387.49359375849644,1392.8688152932325]]]]}},{"type":"Feature","properties":{"Level":"ADM2","shapeGroup":"SGP","shapeID":"SGP-ADM2-91842731B72347899","shapeName":"North-Eastern Islands","shapeType":"ADM2"},"geometry":{"type":"MultiPolygon","coordinates":[[[[1090.9482113120093,1586.22800012186],[1090.473399078575,1586.5532152903859],[1089.2970952146975,1587.0790098850557],[1086.3941068326615,1589.1743501801552],[1085.1114486881554,1590.1289690409803],[1082.6829643010885,1591.1519889060428],[1082.359153203823,1590.9305842606566],[1083.3245735405694,1590.2882887605215],[1085.1954045429939,1589.0782377188668],[1088.2107409696314,1587.0314364515461],[1089.3178796558695,1586.4577014142592],[1091.439327212476,1585.4398290320162],[1092.0172870891095,1585.1790801761422],[1092.3548164467818,1585.015933818575],[1092.4700015348835,1584.9394484541012],[1092.6802663411042,1584.809950824557],[1092.68249030919,1584.7976258312274],[1090.4641787394635,1585.7928983341158],[1091.4971548199649,1585.219880062821],[1092.6728985967627,1584.6044438622444],[1146.9686059419105,1555.8042772162876],[1153.975344894947,1552.596749925413],[1148.8847330256551,1555.8290364398429],[1110.9152697433324,1573.7794811036065],[1102.8582346543944,1578.416971607268],[1097.7271355146406,1582.246776605833],[1098.0736910527721,1582.4680820234557],[1097.599839506728,1583.0031237563558],[1096.5727214630338,1583.4122873114316],[1095.4854578600018,1583.8396119085226],[1095.7672953263398,1583.876246428878],[1094.6626950372956,1584.644557971109],[1092.519900928262,1585.521680158405],[1090.9482113120093,1586.22800012186]]],[[[855.0274041333174,1669.2394724072278],[868.044765927491,1666.1237551789459],[876.6092284854876,1663.7570027518893],[881.559335893048,1662.3329116388911],[958.7767185281621,1637.6891076007553],[971.9021717001345,1633.0260772749791],[989.1744612216035,1627.470119294373],[1006.9700357653899,1620.41597893937],[1057.5282589172011,1601.973357346605],[1074.3631681149095,1594.1645714416402],[1077.2219109072603,1592.9143188456437],[1076.8515317727904,1593.108955041114],[1085.8174604191604,1588.3208916353826],[1086.0555029490176,1588.2008514403187],[1079.628002366664,1592.0617108471627],[1064.20905250421,1599.2396910138107],[1025.968988764597,1614.5026211720428],[998.9552903890076,1623.99233039999],[957.6866462351885,1638.3305515422214],[950.3747983590898,1640.9742662411732],[923.7154729859333,1649.4636548414323],[897.9816653091832,1657.5728177868707],[856.913543067509,1669.695337140797],[838.9828119643485,1674.1585377551621],[855.0274041333174,1669.2394724072278]]],[[[955.9996510508763,1638.5472743004484],[941.145824739705,1643.46868734711],[993.9453926998565,1625.231849141967],[986.7898955196573,1628.3945126431652],[971.1348368184099,1633.2395387584525],[955.9996510508763,1638.5472743004484]]]]}},{"type":"Feature","properties":{"Level":"ADM2","shapeGroup":"SGP","shapeID":"SGP-ADM2-91842731B32481655","shapeName":"Novena","shapeType":"ADM2"},"geometry":{"type":"MultiPolygon","coordinates":[[[[330.1403052635685,1462.65916256759],[335.36989604066025,1457.8862921875434],[336.63781103275085,1455.8240508883134],[355.57356532713044,1428.4937816118816],[369.67712982206064,1408.9173015727981],[387.49359375849644,1392.8688152932325],[386.6515364997625,1402.2007403574323],[430.9855111865735,1406.0271199528747],[462.3675994753572,1417.245674315484],[466.9625801589187,1425.0891557704083],[467.4082145156556,1429.1935166563699],[467.2652123574723,1433.176808934377],[467.0570571456207,1433.2439436815282],[433.3352797545326,1435.9962851237326],[360.450578036568,1467.0820154188457],[343.8912413150679,1511.0622568719518],[332.25450684266946,1542.9044242961006],[332.2781457611579,1540.9179676541548],[332.29589336192464,1540.352970012302],[332.287703003482,1540.164852441462],[332.2388147825993,1540.1564518034547],[331.95286044286934,1540.6429800532192],[331.910342711019,1537.3280238211175],[332.5696840804534,1526.8054798336557],[331.2165861932449,1483.8202901012871],[330.1403052635685,1462.65916256759]]]]}},{"type":"Feature","properties":{"Level":"ADM2","shapeGroup":"SGP","shapeID":"SGP-ADM2-91842731B65999064","shapeName":"Orchard","shapeType":"ADM2"},"geometry":{"type":"MultiPolygon","coordinates":[[[[407.0270973643694,1353.1607445236227],[391.0703011592163,1375.8641051542986],[391.02224346752826,1375.9441804581656],[386.1888476411099,1383.1059306951665],[387.7198219340424,1378.3338994711671],[374.55541259069145,1395.1942477678228],[368.66681849881394,1399.2905912904287],[364.03188951654954,1403.7616057513003],[368.295039009355,1402.1987984675138],[360.9248041513235,1411.03677426917],[357.49563273865914,1409.0184852218815],[349.49632385773657,1412.877073018439],[342.8074241697086,1411.2763553142458],[345.73643211582646,1406.0851129827565],[356.06601161789376,1406.0587985522725],[389.38029654966215,1371.0244524573036],[402.3941076776899,1356.9051432322126],[407.0270973643694,1353.1607445236227]]]]}},{"type":"Feature","properties":{"Level":"ADM2","shapeGroup":"SGP","shapeID":"SGP-ADM2-91842731B94133817","shapeName":"Outram","shapeType":"ADM2"},"geometry":{"type":"MultiPolygon","coordinates":[[[[455.47892743699333,1229.4049520152066],[471.43531229881796,1235.7651503930217],[477.3875482100219,1260.490669472802],[479.07425340811426,1246.830966140592],[481.0932931934127,1250.2503876360374],[482.0991881069227,1254.7493911091738],[478.81293458365667,1271.3134871176171],[434.60040143635814,1321.8620900079004],[409.908067942791,1331.4478488655732],[420.93893173377853,1312.3675517156073],[449.19131519008795,1275.880782169528],[455.47892743699333,1229.4049520152066]]]]}},{"type":"Feature","properties":{"Level":"ADM2","shapeGroup":"SGP","shapeID":"SGP-ADM2-91842731B8754104","shapeName":"Pasir Ris","shapeType":"ADM2"},"geometry":{"type":"MultiPolygon","coordinates":[[[[1067.319751725578,1596.6981885284627],[1052.5445948419806,1602.688032194878],[1057.9424619546137,1600.4114442987177],[1051.9025792938269,1602.2609999254987],[1039.5955442206225,1607.9763858671124],[981.8433008439856,1625.0793355021297],[960.4138861876103,1630.156537510669],[934.4170297344448,1639.2250896937228],[931.2617432343948,1641.5613677294316],[941.0698907281228,1641.8311815388415],[929.9292428212946,1645.6743522780323],[903.209619959025,1650.4538528899466],[919.7837052863733,1649.0372233427747],[900.5256978528616,1655.6261213872203],[877.8865373778706,1661.5143264661237],[799.89382505076,1642.424431178984],[778.0663476214268,1580.959182889866],[777.4788324975145,1570.9480254404161],[777.498450083966,1569.47017724378],[796.8180654618501,1580.0586485625577],[898.183886868864,1585.4804958835339],[1022.5994169971902,1585.1643662176052],[1075.5776792494778,1576.599708972723],[1092.634926890566,1573.1610353062313],[1096.85387799174,1577.7743917002756],[1095.0409652056935,1580.4292907755212],[1094.5253350013954,1581.587146012251],[1093.4372054926207,1582.7427398857485],[1092.245323664545,1583.8622609634856],[1091.480159701851,1584.2835852608748],[1088.6140148286902,1585.622026178728],[1087.0716993129051,1586.743523590885],[1067.319751725578,1596.6981885284627]]]]}},{"type":"Feature","properties":{"Level":"ADM2","shapeGroup":"SGP","shapeID":"SGP-ADM2-91842731B26204757","shapeName":"Paya Lebar","shapeType":"ADM2"},"geometry":{"type":"MultiPolygon","coordinates":[[[[746.4126513427198,1543.1742416396721],[767.7622354638837,1558.9224839723552],[780.3199978920121,1570.2385679560216],[796.8180654618501,1580.0586485625577],[777.498450083966,1569.47017724378],[777.4788324975145,1570.9480254404161],[764.2978186499233,1557.3000021295961],[731.3500353463421,1531.1009910240236],[720.5188432796615,1523.492540982712],[714.4829459472015,1519.5109056467995],[711.9362651568068,1517.833438451036],[699.6948999006088,1510.6469396791422],[704.318539856743,1512.8219301413512],[709.7091748713527,1516.0405868029593],[705.5581930471734,1512.894289732827],[691.4601733932965,1503.4937979107117],[700.9065665154119,1508.220242502423],[709.8606573975038,1515.165334260841],[727.3901310679584,1527.821565221495],[725.8875627937786,1526.4557445300093],[736.5977621868597,1534.6195366006064],[746.4126513427198,1543.1742416396721]]]]}},{"type":"Feature","properties":{"Level":"ADM2","shapeGroup":"SGP","shapeID":"SGP-ADM2-91842731B43721367","shapeName":"Pioneer","shapeType":"ADM2"},"geometry":{"type":"MultiPolygon","coordinates":[[[[141.3626076860537,1501.9939219708458],[140.6108304404923,1503.9257359348503],[137.1742371943207,1515.984592233249],[138.6784489702976,1510.6156493099993],[139.7121774499334,1506.9495633940578],[141.11010381399538,1501.8481419193647],[142.252281598959,1497.475765588224],[142.37353471939701,1497.0423701223974],[142.4033298762365,1496.9198078797833],[142.44692801462656,1496.7609950351182],[142.57760676895018,1496.1907394262435],[142.6262134617057,1496.0247031074418],[142.61025289764953,1496.1059834139671],[142.70071009970889,1495.8070345228675],[142.7280658576562,1495.698746665126],[142.7200276358896,1495.7418170552032],[142.75729089291525,1495.598996571],[142.87548427303136,1495.2272218849403],[142.9516622195984,1494.9439655488259],[142.93112682464704,1495.1470247707098],[142.75757373917324,1495.7002914450497],[142.62652408613863,1496.1865989923929],[142.66192153742713,1496.079453894377],[142.754778968611,1495.7342863061244],[142.96454088101183,1495.069629589917],[142.98929759340598,1495.0093961048824],[142.72994125107599,1495.894083330621],[142.6859217918858,1496.063646340409],[142.741291316297,1495.9561397806065],[142.89928675581814,1495.4985003074648],[141.3626076860537,1501.9939219708458]]]]}},{"type":"Feature","properties":{"Level":"ADM2","shapeGroup":"SGP","shapeID":"SGP-ADM2-91842731B10704061","shapeName":"PuunggolL","shapeType":"ADM2"},"geometry":{"type":"MultiPolygon","coordinates":[[[[877.8865373778706,1661.5143264661237],[881.3891991381378,1661.681916829537],[770.4726844599448,1688.2238117977163],[751.1903401096718,1692.9392496760352],[727.6082896550784,1706.3968614423434],[644.3476149003012,1732.4584453228133],[575.5352287588992,1752.3128794757527],[575.1310281967587,1752.4272666817287],[552.1648598818987,1759.2990471823966],[534.0756862780614,1764.6969836459396],[534.9530354477611,1764.1198737128095],[674.080627528622,1686.965133244822],[737.6228344789632,1647.3067471040058],[778.0663476214268,1580.959182889866],[799.89382505076,1642.424431178984],[877.8865373778706,1661.5143264661237]]]]}},{"type":"Feature","properties":{"Level":"ADM2","shapeGroup":"SGP","shapeID":"SGP-ADM2-91842731B39998411","shapeName":"Queenstown","shapeType":"ADM2"},"geometry":{"type":"MultiPolygon","coordinates":[[[[340.38447584225185,1383.7801342103912],[339.7398584788317,1393.4066360443019],[330.2290321060103,1391.14040414139],[326.6987374069446,1400.200572421057],[320.7026270497324,1397.20221139795],[317.5660170965982,1414.2783460093535],[314.82821313730324,1420.0254301644231],[313.76994224723467,1415.5123383977682],[308.67895900559097,1421.2994200516055],[307.64234921337646,1429.7126752624577],[303.7413183333388,1420.82074545068],[298.91840981634766,1436.9426385827396],[296.1751107521711,1435.0681698305666],[295.3494301014572,1422.4445603260529],[286.3432259367934,1432.7553958228718],[269.1930995659731,1465.5772391457906],[271.0259271054605,1437.3083963443598],[261.8559452217201,1360.476782398856],[256.2441261577861,1358.8921428700473],[244.13288466808586,1394.5459441740752],[233.99524320553834,1395.5270401178477],[245.82556919214508,1372.1239114509258],[240.4504967805549,1369.014635891052],[270.865830924297,1328.3896453008383],[266.65242978020603,1316.7586003682723],[231.43080455360916,1370.806920473025],[218.05625693131032,1390.5247552299807],[211.67715036899813,1393.9034092672111],[271.9219400561987,1285.2400077569546],[278.73271173879544,1310.3533370039027],[295.1115422176357,1289.5571703095181],[282.5782393401231,1246.3921430582984],[291.825240932617,1234.2783228641595],[308.1078118260395,1272.4023111002707],[317.73930751715125,1259.2159988273274],[318.9961855546204,1263.594245283026],[324.4684871870534,1275.8663675069545],[323.86891784807756,1304.4471919824198],[317.8809577202165,1324.891602130766],[318.4366443824348,1344.0184784290354],[327.91426945013666,1375.721459816581],[340.79505379050124,1374.3146808718623],[340.38447584225185,1383.7801342103912]]]]}},{"type":"Feature","properties":{"Level":"ADM2","shapeGroup":"SGP","shapeID":"SGP-ADM2-91842731B46223595","shapeName":"River Valley","shapeType":"ADM2"},"geometry":{"type":"MultiPolygon","coordinates":[[[[402.3941076776899,1356.9051432322126],[389.38029654966215,1371.0244524573036],[356.06601161789376,1406.0587985522725],[345.73643211582646,1406.0851129827565],[349.0806345068346,1400.9506968558376],[366.0004720730233,1392.5257371657804],[373.5622324821859,1379.1160791434058],[379.8681020611558,1377.612541401429],[392.0579101964247,1356.7267303519925],[400.1172580476153,1349.5141562407998],[417.11867942042016,1332.6986218328975],[424.95471518042496,1330.8810676435787],[420.91782152576627,1335.8069542339383],[402.3941076776899,1356.9051432322126]]]]}},{"type":"Feature","properties":{"Level":"ADM2","shapeGroup":"SGP","shapeID":"SGP-ADM2-91842731B7509188","shapeName":"Rochor","shapeType":"ADM2"},"geometry":{"type":"MultiPolygon","coordinates":[[[[480.654533394587,1283.9526748361013],[482.9747120295764,1283.7265306288336],[443.1070594105217,1350.5154581685597],[447.229825200061,1355.6800274658183],[434.93715121239876,1371.972726464621],[433.2858190614599,1374.418725349866],[414.3653596503198,1356.0060838422512],[400.5402766342678,1374.8114301162832],[422.4414445394608,1340.4699678526445],[404.307492455814,1362.799218732462],[414.8563053997839,1345.7719572450924],[442.7796100089698,1322.084033434866],[467.19436769903916,1300.8029018542816],[469.50729238717526,1303.069073189994],[460.2686704900083,1314.6995901058954],[480.654533394587,1283.9526748361013]]]]}},{"type":"Feature","properties":{"Level":"ADM2","shapeGroup":"SGP","shapeID":"SGP-ADM2-91842731B82615982","shapeName":"Seletar","shapeType":"ADM2"},"geometry":{"type":"MultiPolygon","coordinates":[[[[575.1310281967587,1752.4272666817287],[570.8946371148625,1754.4597077230583],[536.3112746256772,1764.659465315215],[533.623505628565,1765.389728694504],[535.4949971833973,1764.8862549804649],[530.4600272021612,1766.66431465482],[529.6516913683367,1767.1343595989206],[528.9066085483365,1767.490776971164],[528.7316172883052,1767.3193309168794],[529.5112201203258,1765.911389291212],[521.9985707209006,1758.7195316908467],[512.4728649536127,1750.4242382786636],[534.9530354477611,1764.1198737128095],[534.0756862780614,1764.6969836459396],[552.1648598818987,1759.2990471823966],[575.1310281967587,1752.4272666817287]],[[529.4444294786719,1767.0990630464564],[528.9687440873811,1767.4342273960885],[529.1557610455153,1767.3651131535316],[529.4444294786719,1767.0990630464564]]]]}},{"type":"Feature","properties":{"Level":"ADM2","shapeGroup":"SGP","shapeID":"SGP-ADM2-91842731B81849311","shapeName":"Sembawang","shapeType":"ADM2"},"geometry":{"type":"MultiPolygon","coordinates":[[[[344.7873790348816,1811.394108714066],[386.0938188448825,1820.022592738238],[416.39752171565743,1820.125090842703],[473.89907221517115,1804.4780409053003],[455.2357784104888,1813.8878174289446],[496.10204126809583,1794.1742535899843],[461.0007539222585,1815.8910061540535],[453.5522321323616,1819.1093890321176],[446.6364073022447,1820.1916320632783],[439.81237083565725,1823.4715713745886],[446.4456597765711,1822.822470325617],[402.48319518448864,1846.08072348199],[390.9733406773775,1842.9116666060013],[391.93468381179895,1847.7239623929981],[384.3050370081543,1847.246071743465],[383.54114295302185,1852.3128709893472],[368.8646697913556,1855.4030375773557],[378.8519820476558,1855.4712601658382],[356.61945865890624,1866.2218605068804],[294.0669486895997,1889.1500686837167],[226.09426753246095,1903.9972481885798],[286.12269882937943,1869.8628749512368],[303.7925518726787,1865.4425546899793],[328.16937051457893,1818.3913930139067],[332.27283150902423,1810.8417511249336],[335.2223892189383,1810.7130900281313],[332.54782638894517,1806.9098212189442],[344.7873790348816,1811.394108714066]]]]}},{"type":"Feature","properties":{"Level":"ADM2","shapeGroup":"SGP","shapeID":"SGP-ADM2-91842731B50862644","shapeName":"Sengkang","shapeType":"ADM2"},"geometry":{"type":"MultiPolygon","coordinates":[[[[479.0588364102602,1683.4816317251068],[526.4011321627008,1682.8885299727572],[550.6759123377757,1694.9075725199843],[635.0463337125672,1604.598156727532],[700.9432909702024,1574.3252528105177],[756.6873543665349,1561.8547741711043],[764.2978186499233,1557.3000021295961],[777.4788324975145,1570.9480254404161],[778.0663476214268,1580.959182889866],[737.6228344789632,1647.3067471040058],[674.080627528622,1686.965133244822],[534.9530354477611,1764.1198737128095],[512.4728649536127,1750.4242382786636],[493.7963651951761,1733.0022811360209],[455.3404675149832,1706.154450126194],[483.98280795563585,1718.9460057178858],[494.37496332515406,1720.912366890389],[479.0588364102602,1683.4816317251068]]]]}},{"type":"Feature","properties":{"Level":"ADM2","shapeGroup":"SGP","shapeID":"SGP-ADM2-91842731B85682916","shapeName":"Serangoon","shapeType":"ADM2"},"geometry":{"type":"MultiPolygon","coordinates":[[[[444.8669396400836,1551.5181698318308],[463.45640034445574,1495.4054836931],[486.4968631206008,1497.0173835205733],[506.9693387192969,1486.2111966132238],[538.3505693918657,1488.1433188429455],[587.0313279940128,1473.0378108734071],[554.1471577330935,1511.0918642523206],[537.3497218923644,1519.9922641983426],[546.3447748035331,1523.1855525007654],[523.8768293076176,1547.1309306814394],[519.4378276173026,1559.557817943667],[534.4639701384848,1586.2066034333957],[535.4624482246156,1651.9805820539123],[526.4011321627008,1682.8885299727572],[479.0588364102602,1683.4816317251068],[457.450563616251,1629.9593029569728],[463.7371817737389,1596.7145240169914],[444.8669396400836,1551.5181698318308]]]]}},{"type":"Feature","properties":{"Level":"ADM2","shapeGroup":"SGP","shapeID":"SGP-ADM2-91842731B49662430","shapeName":"Simpang","shapeType":"ADM2"},"geometry":{"type":"MultiPolygon","coordinates":[[[[528.6074445618166,1768.312862871366],[517.6456350110533,1778.0596215192],[513.9998700512524,1780.9987216421105],[520.4099646812615,1775.2428415868605],[526.615347725364,1769.7590713259203],[528.1570639868938,1768.4938829021562],[528.7724127148819,1768.076595958509],[528.6074445618166,1768.312862871366]]],[[[473.89907221517115,1804.4780409053003],[500.75475883613865,1789.8427982546557],[508.67387634650214,1784.067861446079],[519.6558817251943,1775.3113046500403],[522.2561354887675,1773.1555872785952],[527.7471777644973,1768.3453007075527],[525.3620776454599,1770.3859589615627],[527.1270671081285,1769.1519202385239],[526.8843240374537,1769.45954114243],[525.9974571914016,1770.250948370072],[525.2374790789834,1771.0177185690409],[519.1567765852205,1776.2848734830613],[510.3133871404211,1783.7545636485058],[512.8704190473554,1782.0378939004886],[496.10204126809583,1794.1742535899843],[455.2357784104888,1813.8878174289446],[473.89907221517115,1804.4780409053003]]]]}},{"type":"Feature","properties":{"Level":"ADM2","shapeGroup":"SGP","shapeID":"SGP-ADM2-91842731B30699469","shapeName":"Singapore River","shapeType":"ADM2"},"geometry":{"type":"MultiPolygon","coordinates":[[[[409.908067942791,1331.4478488655732],[434.60040143635814,1321.8620900079004],[478.81293458365667,1271.3134871176171],[482.9834695980613,1259.4810542683126],[470.61879705851777,1293.9797740596262],[424.95471518042496,1330.8810676435787],[417.11867942042016,1332.6986218328975],[400.1172580476153,1349.5141562407998],[392.0579101964247,1356.7267303519925],[379.8681020611558,1377.612541401429],[373.5622324821859,1379.1160791434058],[382.848064897881,1364.8015443762524],[383.934852947831,1363.3198576031052],[384.3918810614061,1362.7422619911215],[385.01472663351575,1361.9772961320107],[385.05003615229515,1361.959539707535],[389.94823663580456,1358.318545737735],[409.908067942791,1331.4478488655732]]]]}},{"type":"Feature","properties":{"Level":"ADM2","shapeGroup":"SGP","shapeID":"SGP-ADM2-91842731B37609929","shapeName":"Southern Islands","shapeType":"ADM2"},"geometry":{"type":"MultiPolygon","coordinates":[[[[412.5221157302017,1172.997471983038],[411.8914869821877,1171.9382413801527],[412.8588868538211,1170.98899937625],[414.0060003712729,1171.9188803819357],[412.5221157302017,1172.997471983038]]],[[[409.656387616974,1174.5799107587413],[410.6560264705962,1172.875449388429],[411.28260626349373,1173.6873938378815],[409.656387616974,1174.5799107587413]]],[[[429.67189578598385,1170.1409917077078],[425.9181242716543,1171.2467402858156],[429.14173848850527,1170.114894070644],[428.1956806570896,1170.3209704054184],[428.91688989643063,1169.98540587692],[429.13017898161706,1169.7950482593515],[430.04457218345124,1169.3268007035526],[429.2778195103782,1169.7150893545543],[429.53352385359676,1169.665032352366],[429.6138563372677,1169.5489585721232],[431.0232322570626,1169.1099751748457],[434.88345687588617,1167.428187938694],[435.3544773351572,1167.3459390926773],[434.13956693561965,1167.5489886758744],[433.50052768548466,1167.720288446107],[432.08268902788166,1168.362677456418],[433.58538669805404,1167.6697027875362],[434.2679202462682,1167.4928732090434],[435.9778874330912,1167.2246933874535],[435.60773482187994,1167.466091379859],[429.67189578598385,1170.1409917077078]]],[[[418.2707237409544,1174.3417424681213],[416.2682774154175,1175.2782157394],[418.8007092320771,1173.9895399260106],[417.4223522173023,1174.2271137964854],[419.1941906563827,1173.8135047364956],[419.4788024793981,1173.5753262370674],[420.75262126501036,1173.136216852014],[420.9529269337424,1172.896559875252],[419.68554285090727,1173.2774653006893],[421.36503127813535,1172.497113077589],[421.2370636859621,1172.025095291334],[417.1089372296067,1173.9040276953756],[415.9649324159261,1174.141179877559],[424.5543258236836,1168.1692924359022],[421.2578134127055,1171.7819157848967],[421.9071514292029,1171.4706451004754],[421.73460365514296,1172.1256096169825],[427.45078267567646,1168.94205405395],[429.0563925994042,1169.0396127486674],[423.49207010119665,1172.0177077868307],[422.2743803229172,1172.3765618527666],[421.4975490732666,1172.8371559470959],[421.951596675009,1172.8420551938311],[424.8153998149703,1171.9971989958349],[426.4026478070483,1171.9914521301305],[419.98931590272275,1173.739215480052],[418.86583659165063,1173.979486576038],[418.2707237409544,1174.3417424681213]]],[[[412.9734871333601,1176.3785536748478],[411.66351237781504,1177.4206431901878],[408.1515271801454,1179.202863110921],[407.6585725747824,1179.2567228563796],[410.3036940371717,1177.6312136750769],[412.57983258488616,1176.359993389486],[412.9734871333601,1176.3785536748478]]],[[[424.09506421180174,1173.8189827304248],[423.4203646864665,1174.5658502519886],[421.3489828773787,1175.1338312266],[415.1744100275701,1176.4277513263505],[416.26524970457933,1175.8762563100913],[419.0379608310629,1174.993262105016],[421.8399061541695,1173.8825607969034],[424.09506421180174,1173.8189827304248]]],[[[380.2985854350535,1201.8467783179062],[376.13214807466363,1204.3071664772608],[368.9016534147239,1210.6351306209474],[362.54011982471576,1214.7786564485261],[342.9291534334599,1225.7789191403183],[354.0344909351765,1215.9546176619465],[353.3864712602454,1217.2560823723763],[370.62553977306266,1205.203638501857],[375.40148937032774,1202.2975970091368],[377.2882061884544,1201.3555743904958],[383.24071453452484,1196.6696103451043],[383.45956242158246,1196.0727633598585],[403.57101005132836,1181.3693629884883],[411.1812845806236,1178.4067342858839],[417.8434059909962,1176.739922445467],[417.0626624628127,1177.5427706136134],[412.8183811047019,1178.9686482054415],[412.6050346079463,1179.4808326801049],[404.05680769479056,1183.0923361843775],[387.23109182756224,1195.602918787636],[382.32260568903473,1199.7265020626044],[382.10038213209975,1200.4604154248416],[381.2963844731426,1201.096478637871],[380.6877438480084,1201.2382378239963],[380.89751785901274,1201.3980460480652],[380.2985854350535,1201.8467783179062]]]]}},{"type":"Feature","properties":{"Level":"ADM2","shapeGroup":"SGP","shapeID":"SGP-ADM2-91842731B80067240","shapeName":"Straits View","shapeType":"ADM2"},"geometry":{"type":"MultiPolygon","coordinates":[[[[467.8332313822284,1222.5325751537955],[465.25478267755807,1219.3750167505348],[467.6155601259468,1218.8763612498308],[474.6329155015051,1226.3560182327833],[474.6207576303279,1224.3291203908839],[476.3829375062242,1226.7273557849662],[476.0446584460217,1228.594819384784],[482.36791166530554,1238.869143044722],[480.99882950173884,1240.7175694066211],[479.87227645410763,1238.833975290727],[479.18358162736024,1237.8132508413635],[467.5416397892258,1221.4646731460577],[467.8332313822284,1222.5325751537955]]]]}},{"type":"Feature","properties":{"Level":"ADM2","shapeGroup":"SGP","shapeID":"SGP-ADM2-91842731B83761023","shapeName":"Sungei Kadut","shapeType":"ADM2"},"geometry":{"type":"MultiPolygon","coordinates":[[[[212.83793911157733,1812.100731195339],[71.24023280890806,1911.1953667029254],[70.9504160680272,1910.9451137785913],[71.21083268153977,1911.1728934301516],[72.52092189617576,1912.106203861513],[71.50271311720223,1911.4132322844828],[71.13518684744707,1911.1151242649985],[70.65277015254688,1910.6518164153551],[70.32065900956371,1910.2350930915734],[70.23950028261184,1910.073658384603],[70.23403871571311,1910.058931117384],[70.24044265447502,1910.0762933719172],[70.2370039405134,1910.0671678305287],[70.23075626254102,1910.0497452880627],[70.22870874518772,1910.0435911982386],[70.22834517538709,1910.0424497910644],[70.22794285307194,1910.0411889940644],[70.23149940674904,1910.0518472478134],[70.23499853684302,1910.0616445587402],[70.23129855223091,1910.05128293297],[70.22848542744605,1910.0428862940275],[70.22695280871388,1910.0379667679674],[70.22604977479948,1910.034873741025],[70.22477468912187,1910.030743580186],[70.2244391429288,1910.0296709588622],[70.22192495904092,1910.0215264423869],[70.22037449794414,1910.0161442137346],[70.21660254471458,1910.0034182080856],[70.20782660350501,1909.9717043962619],[70.21402658217048,1909.9943294823343],[70.21550335725277,1909.9994575974479],[70.216234544495,1910.0020864641474],[70.21655695559204,1910.00323289636],[70.21741241661874,1910.0061653352245],[70.22382179163043,1910.0276471007523],[70.23514935500734,1910.0620150446537],[70.39771052557609,1910.3452487470458],[77.50500901458716,1913.7986891913424],[83.93933834219526,1913.9708349329812],[169.69379535724997,1855.2529761149024],[212.83793911157733,1812.100731195339]]]]}},{"type":"Feature","properties":{"Level":"ADM2","shapeGroup":"SGP","shapeID":"SGP-ADM2-91842731B36527330","shapeName":"Tampines","shapeType":"ADM2"},"geometry":{"type":"MultiPolygon","coordinates":[[[[937.3992862034872,1435.6608200057221],[1081.1669330037923,1525.7583627304382],[1089.9586781821015,1540.0884770435932],[1085.7316194675416,1535.881978147321],[1099.9497148465514,1574.0504214134448],[1097.382567141182,1568.5680731739164],[1092.634926890566,1573.1610353062313],[1075.5776792494778,1576.599708972723],[1022.5994169971902,1585.1643662176052],[898.183886868864,1585.4804958835339],[796.8180654618501,1580.0586485625577],[780.3199978920121,1570.2385679560216],[767.7622354638837,1558.9224839723552],[746.4126513427198,1543.1742416396721],[792.3454387686133,1503.2287815641848],[868.9353638482322,1492.1184755384038],[895.9225144908781,1466.5466383957564],[933.261058588271,1456.46667786898],[937.3992862034872,1435.6608200057221]]]]}},{"type":"Feature","properties":{"Level":"ADM2","shapeGroup":"SGP","shapeID":"SGP-ADM2-91842731B68539058","shapeName":"Tanglin","shapeType":"ADM2"},"geometry":{"type":"MultiPolygon","coordinates":[[[[385.01472663351575,1361.9772961320107],[384.3918810614061,1362.7422619911215],[383.934852947831,1363.3198576031052],[382.848064897881,1364.8015443762524],[373.5622324821859,1379.1160791434058],[366.0004720730233,1392.5257371657804],[349.0806345068346,1400.9506968558376],[345.73643211582646,1406.0851129827565],[342.8074241697086,1411.2763553142458],[349.49632385773657,1412.877073018439],[346.4546759598265,1416.921906168852],[346.66942892010576,1422.4067207043352],[355.57356532713044,1428.4937816118816],[336.63781103275085,1455.8240508883134],[335.36989604066025,1457.8862921875434],[330.1403052635685,1462.65916256759],[328.47930049576235,1451.5023153116258],[322.64435727185673,1435.7084561016343],[317.5660170965982,1414.2783460093535],[320.7026270497324,1397.20221139795],[326.6987374069446,1400.200572421057],[330.2290321060103,1391.14040414139],[339.7398584788317,1393.4066360443019],[340.38447584225185,1383.7801342103912],[362.8662323644694,1371.865027928878],[384.5107916355369,1362.2336407474816],[385.01472663351575,1361.9772961320107]]]]}},{"type":"Feature","properties":{"Level":"ADM2","shapeGroup":"SGP","shapeID":"SGP-ADM2-91842731B47131171","shapeName":"Tengah","shapeType":"ADM2"},"geometry":{"type":"MultiPolygon","coordinates":[[[[70.4782615358031,1908.4157716017405],[70.20367172532262,1909.8575639357664],[70.2044844412394,1909.9584097480924],[70.20170749268658,1909.949804237159],[70.19736611147098,1909.9355333709518],[70.17961577253381,1909.878371717134],[70.15743172719431,1909.8009509533595],[70.1999777800705,1909.9429822912962],[70.20040551764008,1909.94423066806],[70.20218236784166,1909.9484174265215],[70.20288500162582,1909.9498495058626],[70.20383729119574,1909.9436288114107],[70.20331076985757,1909.9368972541363],[70.20223296253603,1909.921328250723],[70.20191649675748,1909.9101589457],[70.20145458495323,1909.8379294127924],[70.2215532094391,1909.5962487301829],[70.23391272464615,1909.5053421851485],[72.84132804095967,1901.046176620338],[112.19795292628345,1826.8553967160276],[122.85159353892243,1807.3677051834256],[114.85696632641066,1822.2307575105665],[112.45364813773244,1826.6008310832221],[110.4062577320131,1830.2865083711058],[107.01216059124157,1836.449037554999],[81.4240773963912,1882.5108315796322],[70.32655375385583,1909.0026379982164],[70.20332351580795,1909.813066545891],[70.4782615358031,1908.4157716017405]]]]}},{"type":"Feature","properties":{"Level":"ADM2","shapeGroup":"SGP","shapeID":"SGP-ADM2-91842731B95029368","shapeName":"Toa Payoh","shapeType":"ADM2"},"geometry":{"type":"MultiPolygon","coordinates":[[[[332.27756257624407,1543.6334119854614],[332.25450684266946,1542.9044242961006],[343.8912413150679,1511.0622568719518],[360.450578036568,1467.0820154188457],[433.3352797545326,1435.9962851237326],[467.0570571456207,1433.2439436815282],[467.2652123574723,1433.176808934377],[469.4822303512185,1432.0651622849307],[500.35265094338956,1415.505285203942],[598.5798747263493,1443.3800522312135],[587.0313279940128,1473.0378108734071],[538.3505693918657,1488.1433188429455],[506.9693387192969,1486.2111966132238],[486.4968631206008,1497.0173835205733],[463.45640034445574,1495.4054836931],[336.35385307819246,1547.6145697694192],[332.27756257624407,1543.6334119854614]]]]}},{"type":"Feature","properties":{"Level":"ADM2","shapeGroup":"SGP","shapeID":"SGP-ADM2-91842731B80812605","shapeName":"Tuas","shapeType":"ADM2"},"geometry":{"type":"MultiPolygon","coordinates":[[[[141.11010381399538,1501.8481419193647],[139.539303964486,1507.351853265078],[139.0086455394007,1509.2602533339884],[128.0536889017748,1550.4326670325806],[116.29684501427388,1599.329027426263],[105.39936756095422,1650.7661057399293],[75.01104189829356,1823.1934735664927],[78.42741013641562,1800.415376817297],[75.77271556010778,1817.938424821653],[76.45828540517812,1813.40793626256],[74.65870610080012,1825.6641910819262],[82.88317410410524,1772.1362939854496],[87.6241220105553,1744.51808704754],[141.76903794848306,1498.5359427885821],[142.67305241865438,1495.1870745993283],[142.72807922412431,1494.7798409615825],[142.6870390535212,1494.3303705714065],[142.79042425444385,1491.8559072004882],[142.8670161628803,1491.453821202637],[142.90730276407083,1492.1687602108882],[143.02461488773443,1491.441156974191],[143.02115192830684,1491.6499320933026],[143.0960162832019,1491.1976578807523],[143.08083080690412,1490.905297210838],[143.26504406032277,1489.6863652797015],[143.2390318586573,1490.1547833157151],[143.31464467660115,1489.6617614527458],[143.31777500360604,1488.045388916382],[144.65764348657888,1470.6811073897943],[144.92709495970777,1466.9580703033384],[145.69154606795695,1474.3242364288953],[145.3093291649618,1479.9854512040565],[144.37413157856105,1485.537944875456],[144.09412452419053,1484.1689554556524],[143.71499734131925,1487.011122530615],[143.89926214865918,1488.4831095112327],[143.6379493311123,1490.6071924453647],[143.44086077155052,1489.089380178082],[143.27390263381727,1490.3945235199553],[143.41880909649066,1491.2990022549902],[143.40822320669457,1491.7735265730623],[143.31601486043448,1492.4118005615035],[143.0698137580793,1491.8591015345085],[143.03975481311466,1492.6893389157492],[143.19492939893,1493.1492250677259],[143.03642992143494,1494.0059405405384],[143.0218737988397,1494.0051384029673],[142.90540482175925,1494.6683985564175],[142.92713082589822,1494.697032037591],[142.87302708923752,1494.980137925061],[142.72453455339087,1495.5583086896345],[142.56664664005845,1496.186188085236],[141.73103067651994,1499.257562362852],[141.50820720684604,1500.1033796531146],[142.17929694893718,1497.6728279780418],[141.92385170052384,1498.6508147512527],[142.18215118041107,1497.7069919323492],[142.32070329121055,1497.1408865560975],[142.5102130487556,1496.4485412939323],[142.37392297536582,1497.019568295253],[142.4033298762365,1496.9198078797833],[142.37353471939701,1497.0423701223974],[142.252281598959,1497.475765588224],[141.11010381399538,1501.8481419193647]]]]}},{"type":"Feature","properties":{"Level":"ADM2","shapeGroup":"SGP","shapeID":"SGP-ADM2-91842731B84058945","shapeName":"Western Islands","shapeType":"ADM2"},"geometry":{"type":"MultiPolygon","coordinates":[[[[268.09217097501454,1199.608378133325],[267.52215016359054,1200.06939280414],[267.6905722238104,1198.1897241947004],[268.27827039521253,1196.753703166388],[269.24034834769645,1188.574716906931],[269.8985525334692,1188.5270425156218],[269.4366749428962,1194.5875753409202],[269.2526006191231,1195.0869732245321],[269.5375864779529,1194.661149684199],[269.5966257581242,1196.1536482918364],[268.88601269822243,1197.9183607246227],[268.9029620640644,1196.8750325764329],[268.7542556609956,1198.0333516415437],[268.5223414085017,1198.0248581689266],[268.09217097501454,1199.608378133325]]],[[[267.76396534106254,1205.1318278771753],[267.86746525839817,1205.704005029439],[267.490306660406,1205.7030488190385],[267.76396534106254,1205.1318278771753]]],[[[265.2764568754101,1208.8738364771148],[264.7643293006462,1209.3860975684986],[264.88801885745534,1208.62083742152],[263.93476339633645,1209.7506259452643],[264.9373161224473,1207.128647818623],[265.60701153685034,1206.9806607832638],[266.2996372799154,1205.956502964445],[266.09577025262104,1206.6841674116145],[265.6375249283045,1207.4746550117004],[265.92455908407624,1207.0424064090632],[266.1613443586386,1206.5561998527598],[265.79305239899065,1207.4297873957812],[266.22999103430124,1206.4853229290802],[266.7454559854151,1206.133437341288],[265.90616999867365,1207.667946937789],[265.4796113897106,1208.232677092769],[265.70001902448115,1208.0322557366912],[265.2764568754101,1208.8738364771148]]],[[[273.3210715379174,1204.7918159276055],[272.90852317963856,1204.8431270335332],[273.5397614367861,1204.5384873803205],[273.3210715379174,1204.7918159276055]]],[[[316.31614813141516,1179.0721616648211],[313.679817295981,1180.484319323531],[315.07755272422355,1178.6306749107532],[319.4014939422216,1175.5288290514968],[333.3625544078368,1167.042083390838],[322.99111457948806,1175.0217135581872],[316.31614813141516,1179.0721616648211]]],[[[261.8109307021276,1215.3794285661986],[254.52562131304953,1223.018800629703],[249.80747015562554,1227.0501322203336],[261.42535089461757,1214.5753602842894],[263.31763737200015,1212.3923195240022],[264.3211287497956,1211.256815372767],[264.9994299994876,1210.491700650108],[264.79238290962644,1210.7373217567065],[264.68514299619096,1211.1874547324512],[265.47263318992674,1209.9748532539368],[265.00382945556845,1210.946151036641],[263.8045654752822,1212.4298373886095],[264.02550718305463,1212.428460692159],[264.576231390376,1211.787159384112],[263.9325246294374,1212.6674884089948],[263.50367998637324,1213.2026418919681],[262.9593281006218,1213.5848137208231],[261.93385791846333,1215.1027627472424],[262.4157951275125,1214.6161024497878],[261.8109307021276,1215.3794285661986]]],[[[271.5879898383635,1207.3337152854479],[270.7270821700195,1208.1142451311482],[272.5737120751571,1205.8795677895343],[273.10222041954984,1205.325323657348],[273.0436563202545,1205.564436800747],[273.2665888878266,1205.3041032820774],[273.2905821402637,1205.3832823415075],[272.9954656064518,1205.7068071561907],[273.26256544371927,1205.4954496825044],[273.61363623828834,1204.9979341618553],[273.89534362217734,1204.0928284382762],[276.95993324545316,1200.7210994503776],[278.67721259714335,1199.316591284527],[280.18181248849936,1198.4368053230073],[279.3282504881208,1199.3443852577648],[286.92425008262154,1193.6413921704282],[279.1101980942613,1200.234668156488],[275.0640269517516,1203.8469535007052],[274.06827941342675,1204.8497341290579],[273.2308049830033,1205.7694895287482],[273.01990690608477,1205.8225956783963],[272.8464863618436,1206.0950370244418],[272.4483731206192,1206.3678532486695],[272.7959414444867,1206.1621144283604],[272.58603451767726,1206.4539477633161],[272.16500327430776,1206.6986949099748],[271.91260692673427,1207.0974461539436],[271.5879898383635,1207.3337152854479]]],[[[268.8408189400405,1210.8889098224404],[267.92904553951814,1211.8406374822775],[268.6274447080953,1211.1433709022062],[268.8727239547837,1210.6645021126908],[268.75774595654605,1210.7433450370534],[268.85043562581245,1210.637506885809],[269.10583508655685,1210.3813545037847],[268.97600069888483,1210.5236100968577],[268.92563897434843,1210.6660094167635],[268.948892208787,1210.7211409761971],[269.0823195129096,1210.4805593772635],[268.8408189400405,1210.8889098224404]]],[[[267.3504025258406,1212.3160507655089],[267.34164559956383,1212.0052485089482],[267.78847692820557,1211.6330681434913],[267.45330651722827,1211.8540356659087],[268.6026527891779,1210.9302194694037],[268.2458387269871,1211.274603786929],[268.3657971546625,1211.343753971405],[267.3964795610564,1212.1163230075113],[267.3504025258406,1212.3160507655089]]],[[[267.536581376878,1213.058236634345],[266.30550328686957,1215.5474892030206],[264.3294871946157,1217.554288972437],[265.84570116030557,1214.5536172577927],[268.5076980653762,1211.5728103619786],[270.1056390607296,1209.407445112341],[271.8833541539829,1207.8304940903874],[271.96465658388775,1207.8601896739842],[271.08564458806194,1208.8547990889906],[269.6931120675336,1210.3691549690566],[268.9566629141109,1211.706380252152],[268.592020146867,1211.8708250311035],[267.536581376878,1213.058236634345]]],[[[269.57589789960855,1211.4375035808798],[269.2472082081082,1211.6062573567615],[269.7993847486751,1210.3480238040495],[271.7831378921753,1208.1305445447442],[272.9776170312656,1206.8660795635424],[274.4509248838923,1205.3013376431059],[272.4346845423481,1207.69012336647],[270.3141711709583,1210.4926721402908],[269.57589789960855,1211.4375035808798]]],[[[143.72682073422845,1493.1865640966193],[143.7119022753981,1493.0487220061236],[143.60544498600282,1493.319052630344],[143.48066890613524,1493.559788626395],[143.38458267116795,1493.619964157919],[143.38826315083776,1493.5455567359434],[143.3441693352099,1493.6162468569346],[143.327743451394,1493.6750862849167],[143.3020046117764,1493.668168549624],[143.25814499430683,1493.8378312415716],[143.29622594993083,1493.8556392056516],[143.3587518637555,1493.8791833766418],[143.14808187496524,1494.386735963713],[143.10120256114845,1494.1872892260044],[143.05168107610828,1494.3623682551888],[143.06816125423282,1494.1557882280515],[143.13753401247902,1493.778020173036],[143.55217046722927,1492.0954263707656],[143.80316786755375,1490.9966323179033],[143.8366430990429,1491.0094668535726],[144.5279959895859,1488.0810345945288],[144.9480963884569,1484.9408305661977],[144.28276057737065,1488.4876559190207],[145.06727100986163,1484.2106644391615],[145.20710943932622,1484.0599265263038],[144.0929021137349,1491.0699294820556],[143.4529969217945,1493.0087317489076],[143.3563021298321,1493.3090578331182],[143.31155847968603,1493.5809185041041],[143.42059472123782,1493.2324196891184],[143.7972181588815,1492.118925245267],[144.27741242976637,1491.0439689858513],[144.59436454372263,1490.353446976333],[143.6041368432905,1492.885453806433],[143.5635921487333,1493.0191288694364],[143.70462646417803,1492.6735277632833],[143.68147555930193,1492.7614470665615],[143.81349049767414,1492.430338001933],[151.80942534615377,1473.6071001265288],[163.61270144993796,1451.548037134784],[159.71962491977598,1458.3066524173485],[150.5529370265927,1476.9890635782056],[145.20226506998924,1489.152574838223],[144.48255061475163,1490.8343537147073],[144.67403466542518,1490.4025054903934],[150.60676353161082,1476.8888138232066],[155.34009077612137,1466.5977060015937],[173.39592504678217,1439.2571784417623],[153.74986705722543,1470.4920721582448],[146.65655146905326,1486.1083897551607],[144.90253795450784,1490.0567439200893],[144.22576516356494,1491.8710348550662],[144.06708946067002,1492.2467095159927],[143.94311442193208,1492.4880487861687],[144.01120353443824,1492.3786024171995],[143.95290510862526,1492.5219734768107],[143.8947482271079,1492.6112202418399],[143.735084619052,1492.9974435183944],[143.7448482746575,1493.157783670755],[143.72682073422845,1493.1865640966193]]]]}},{"type":"Feature","properties":{"Level":"ADM2","shapeGroup":"SGP","shapeID":"SGP-ADM2-91842731B8759017","shapeName":"Western Water Catchment","shapeType":"ADM2"},"geometry":{"type":"MultiPolygon","coordinates":[[[[70.23514935500734,1910.0620150446537],[70.22382179163043,1910.0276471007523],[70.21741241661874,1910.0061653352245],[70.21655695559204,1910.00323289636],[70.216234544495,1910.0020864641474],[70.21550335725277,1909.9994575974479],[70.21402658217048,1909.9943294823343],[70.20782660350501,1909.9717043962619],[70.20173256923593,1909.9502917358607],[70.19898821284202,1909.9412843021578],[70.19982386111279,1909.9441266815254],[70.1986776592943,1909.9402429403162],[70.19814723837898,1909.9384604497852],[70.200531347397,1909.9464860520775],[70.20115122524247,1909.948469385011],[70.20172018490472,1909.9503013128456],[70.20437661312384,1909.9591646993485],[70.20531603841478,1909.9624379576085],[70.21375286793923,1909.9935466060242],[70.21822192197641,1910.0089201019873],[70.21764047464374,1910.0070155929254],[70.2148242168469,1909.9971717413005],[70.21810766158113,1910.008577393234],[70.21569849584147,1910.0003360212088],[70.21770464076394,1910.0072720976955],[70.21370030697457,1909.993510270852],[70.21390839490827,1909.9942399030353],[70.20916415963043,1909.977124240294],[70.20578505232598,1909.9642650905375],[70.20664977847588,1909.967598632863],[70.20513097136863,1909.9619502081275],[70.20423386703544,1909.9589059717243],[70.20269135202888,1909.9537416110543],[70.20274236969553,1909.9539486965864],[70.19992601353307,1909.9447281130242],[70.20038898693981,1909.9463339480958],[70.19815806116618,1909.93874114418],[70.19723033442094,1909.9356577314584],[70.19272982240682,1909.9211623863296],[70.18415424952504,1909.8939218336993],[70.14333706351252,1909.7508312512568],[70.03472243748588,1909.3104785520645],[69.98809672349522,1909.0931319731847],[69.96088132640017,1908.9595887675168],[69.30629019855084,1904.4951839713049],[69.4727971739416,1905.8202087866591],[69.30610501169437,1904.4981230035396],[70.52455481353533,1861.7175897775805],[71.45892011428563,1852.25717050421],[75.01104189829356,1823.1934735664927],[105.39936756095422,1650.7661057399293],[116.29684501427388,1599.329027426263],[128.0536889017748,1550.4326670325806],[139.0086455394007,1509.2602533339884],[139.539303964486,1507.351853265078],[141.11010381399538,1501.8481419193647],[139.7121774499334,1506.9495633940578],[138.6784489702976,1510.6156493099993],[138.30607045244255,1511.8927462859424],[131.675997457446,1536.4551898513005],[104.93383046606212,1653.3177783092956],[95.23548644484244,1703.1292101770318],[83.31570494860668,1770.2374073470794],[68.94466709677181,1887.0515078751046],[70.15743172719431,1909.8009509533595],[70.17961577253381,1909.878371717134],[70.19736611147098,1909.9355333709518],[70.20170749268658,1909.949804237159],[70.20647335311276,1909.965997910795],[70.22411412576132,1910.0282942755264],[70.22206104787848,1910.02181924778],[70.23458238789651,1910.060415608629],[70.23514935500734,1910.0620150446537]]],[[[70.22223128768792,1910.0225688819944],[70.22456137750692,1910.0301162621524],[70.22382240374273,1910.0277562404508],[70.22223128768792,1910.0225688819944]]]]}},{"type":"Feature","properties":{"Level":"ADM2","shapeGroup":"SGP","shapeID":"SGP-ADM2-91842731B34010756","shapeName":"Woodlands","shapeType":"ADM2"},"geometry":{"type":"MultiPolygon","coordinates":[[[[332.27283150902423,1810.8417511249336],[328.16937051457893,1818.3913930139067],[303.7925518726787,1865.4425546899793],[286.12269882937943,1869.8628749512368],[226.09426753246095,1903.9972481885798],[106.41214088422619,1915.338845436217],[82.58568782567747,1915.3767557225374],[83.45381013026125,1916.1581227204833],[80.43575325752863,1915.0877701355773],[72.93286486224478,1912.379939769362],[71.50271311720223,1911.4132322844828],[72.52092189617576,1912.106203861513],[71.21083268153977,1911.1728934301516],[70.9504160680272,1910.9451137785913],[76.58301993089104,1913.6179837415443],[166.42884812575716,1858.474505655648],[215.57751564433275,1809.4371723211411],[224.5068349959667,1800.2344326203672],[314.0106338096564,1800.6652795252826],[332.27283150902423,1810.8417511249336]]]]}},{"type":"Feature","properties":{"Level":"ADM2","shapeGroup":"SGP","shapeID":"SGP-ADM2-91842731B71564682","shapeName":"Yishun","shapeType":"ADM2"},"geometry":{"type":"MultiPolygon","coordinates":[[[[455.3404675149832,1706.154450126194],[493.7963651951761,1733.0022811360209],[512.4728649536127,1750.4242382786636],[521.9985707209006,1758.7195316908467],[529.5112201203258,1765.911389291212],[528.7316172883052,1767.3193309168794],[528.9066085483365,1767.490776971164],[528.3124460654689,1767.8937308963266],[527.7471777644973,1768.3453007075527],[522.2561354887675,1773.1555872785952],[519.6558817251943,1775.3113046500403],[508.67387634650214,1784.067861446079],[500.75475883613865,1789.8427982546557],[473.89907221517115,1804.4780409053003],[416.39752171565743,1820.125090842703],[386.0938188448825,1820.022592738238],[344.7873790348816,1811.394108714066],[324.0525313647702,1802.0201882509114],[249.24089544001774,1790.8535818583148],[230.85901678546205,1795.237298431722],[228.3971827409701,1796.4516020065485],[226.62922852348427,1797.922327565439],[226.40310701675256,1798.097883538618],[230.10495715046522,1793.9494092534276],[233.6286491310613,1789.5772744103106],[245.63945669926665,1775.7425768725507],[364.35456587225053,1722.8751816152721],[455.3404675149832,1706.154450126194]]]]}}]}
