{"type":"FeatureCollection","bbox":[41.18550324749344,61.904531052508716,209.5013848472332,199.4861989751293],"crs":{"type":"name","properties":{"name":"EPSG:cartesian"}},"properties":{"note":"Created using cartogram-cpp / go-cart.io with custom projection, not in EPSG:4326"},"features":[{"type":"Feature","properties":{"Level":"ADM1","shapeGroup":"BEL","shapeID":"BEL-ADM1-95415949B89589665","shapeISO":"BE-BRU","shapeName":"Brussels-Capital","shapeType":"ADM1"},"geometry":{"type":"MultiPolygon","coordinates":[[[[107.79526435562167,132.06590185166914],[108.14757216006657,131.90097595688232],[108.2187887425736,131.86200643437695],[109.56783989734963,130.92208366822487],[109.74225958570429,130.8236593574822],[110.07680955937883,130.6063908605935],[110.08634795982604,130.59981226753845],[111.33803557788804,129.86520197633507],[111.93301990675934,129.45161838067742],[112.19141340322996,129.30996642957686],[112.61537602916088,129.08015653935763],[112.92502459007613,128.91926644739374],[113.26517560760766,128.70785593278654],[114.32063592645726,127.9756155429665],[114.43450525937277,127.90565629679297],[114.54478122077529,127.8385234681802],[114.6909265199147,127.75781377806003],[116.09976183094055,127.09880690068746],[116.76540601137512,126.7083311573798],[117.09231349487484,126.56050709684949],[117.71600845195336,126.24721483456118],[118.68406792533597,125.65048648005765],[119.01496509581874,125.50191761087541],[119.2092525231972,125.41397605920831],[119.33713432353434,125.36963068304588],[119.65900452681367,125.2387784066205],[120.2206729717146,125.0564139889945],[120.29884882674088,125.03136275871117],[121.03222246170314,124.6769974719193],[121.31804981681347,124.50417040313951],[121.6928347797128,124.33242040075908],[122.75777169476815,123.98213586527292],[123.03355480489874,123.86560389124467],[123.7694456894175,123.43433583823145],[124.20208921819224,123.17727404613241],[124.58186914023105,122.97737733423708],[125.53348401082226,122.56919279333647],[125.68644852126053,122.53092887377954],[125.77945251442796,122.49465063968583],[126.00734407959982,122.42318164741273],[126.76218319982567,122.11264382138714],[127.80197417285308,121.79811131063974],[128.2482170418674,121.63467034608198],[128.47008746587008,121.55425112389258],[129.36026729659076,121.11509674798904],[129.45303534852812,121.07145799762284],[129.47728976544664,121.06004544784692],[129.66197389514497,120.9697541214051],[130.16372128790965,120.76004487741531],[131.0765137978131,120.38767762115003],[131.1914667933838,120.33315514928057],[131.93922304342362,120.79728416974595],[132.09632679052248,120.90485298429192],[132.3057637977243,121.02463715454783],[133.28050864612982,121.7411946802425],[133.52277000209665,121.85860703797313],[134.03075044146516,122.06854427191215],[134.50127454502723,122.26300161937664],[135.17595413278713,122.6252582112995],[136.24900139552136,123.10101505160249],[136.35662808154734,123.14887727695756],[136.39754388888792,123.16967047305658],[136.4349696903818,123.17923371497554],[136.53291733372103,123.21377834691586],[136.85867765985824,123.35323874239776],[136.9972319131715,123.40981330634845],[138.51495877758373,124.17427467614527],[139.36367599649617,124.5647174388699],[139.49839943508428,124.64185395679743],[140.3027929929979,124.8740911328757],[141.46727025483239,125.18297560383343],[141.63468866709317,125.22744201567679],[142.07683946469396,125.36694965312562],[142.24567689919843,125.44637515678139],[142.39649995083988,125.50474255827267],[142.74310368716883,125.57977804044359],[143.84534386009418,125.73563309761238],[143.99364637685,125.76244491998219],[143.97597412157324,126.22324878209801],[143.97147286709628,126.29455117616882],[143.96881027107014,126.68322221749494],[143.9680104055237,126.701638440874],[143.91313556570435,127.78729155554043],[143.8699970304842,128.59791675543073],[143.84449303044593,129.07630136949348],[143.84397006098172,129.08486242830205],[143.83236082517146,129.88884902104138],[143.8476789033196,131.00671793883714],[143.8446476262134,131.82030203951004],[143.8342041063372,132.2949200498822],[143.75216697225204,133.3271685046258],[143.74393313570772,133.43852789816123],[143.71647913631614,133.8528769678736],[143.69651259134298,134.65496300881225],[143.66551855995394,135.25565154245507],[143.6350936419316,135.83596167968935],[143.61358537935774,136.08016590958275],[143.55554769637607,136.74064734834224],[143.5549054014706,136.7547696397611],[143.5241978248184,138.2159775043823],[143.4828063111397,138.80379859454223],[143.46629418386306,138.95783907570143],[143.331891338405,140.36069099465547],[143.32592642575446,140.61850949756825],[143.29790370314143,141.16379634320953],[143.22192611185747,143.03539797461767],[143.19069702610489,143.49396842552957],[143.17799466114525,143.78971680651406],[143.1777995495222,143.79102570858336],[143.14901785670872,143.98204469030975],[143.10839746392844,144.45027935600868],[142.93182047333698,145.47010463349102],[142.89831713760526,145.62359579106797],[142.75801513665033,146.42908738391117],[142.4943867256547,147.6492165934772],[142.49354515009998,147.65361489127764],[142.45456436662738,147.89083628445823],[142.20173836063793,149.0150479068326],[141.98960069048243,149.6528706602807],[141.80450280733317,150.3034192879989],[141.41851976886352,151.41332940830895],[141.37322414902667,151.54001670559754],[141.02594155959886,152.72256331412655],[140.76198272429542,153.41494770804348],[140.5209275199818,154.18392516304021],[140.19394648379364,155.02568543212354],[140.14716454903441,155.1458781455678],[140.1030234489951,155.23793738624175],[139.9999065323277,155.49035441757584],[139.9387962634764,155.61960627180576],[139.38085490074175,156.81127498250856],[138.90949298879545,157.5572901589669],[138.50710589702177,158.13724208965002],[138.27445889510497,158.51015454585533],[138.20889313197307,158.63916565157032],[137.46719832950436,159.78987272347115],[137.33267011277783,159.99785761116658],[137.29588018330182,160.04402188299403],[137.24321742409043,160.1193995057728],[136.61933528512415,160.8467880994077],[136.17528926087041,161.48076526342163],[135.75646536145499,162.1870432162634],[135.64518720667363,162.32300333861596],[135.05527170249155,162.91361338586972],[134.91853072013592,163.07749862541849],[134.3223472590744,163.92035460529317],[134.22110012227623,164.0452094099139],[133.75480628448085,164.16738201194863],[133.5510603089125,164.23252099672948],[131.7721507722362,164.5703524664135],[131.44182981767537,164.6164825147674],[130.1640827031827,164.81245721018993],[129.23076570591655,164.89691636714454],[129.00500735701013,164.90747556962017],[128.11706437143468,164.9474207028933],[127.37660690404962,164.978586832255],[126.68289119311088,164.89323474261664],[125.27893263192598,164.66518024331455],[124.82562722422885,164.59551874591222],[124.114492756634,164.50089391673947],[122.80460581887124,164.2627427632875],[122.66774305082042,164.2243044558847],[121.54228146570001,163.9662546834731],[121.5402367181805,163.96578105607423],[120.69066965618055,163.69557621867222],[120.33319779426394,163.60694399924282],[118.95675944196137,163.00278219628836],[118.94451455967732,162.99597983787993],[118.92159718447179,162.98506763929115],[117.98905788210996,162.42914966085402],[117.36263779019188,162.04582075928744],[116.41796079951227,161.57303061375976],[115.75572363900429,161.1412925126117],[115.46795143294409,160.9898305501246],[114.73133524056793,160.5074020575903],[114.56764156843718,160.37421871021755],[114.26238188272143,160.1164864126107],[113.87519038846996,159.8476826994329],[113.86337870145525,159.83943542015658],[113.79047319886442,159.7740672840224],[113.05909228529224,158.8015227902505],[112.35610603457968,158.05240442162562],[112.10641110898108,157.7147488249958],[111.90832079438758,157.44551964411534],[111.87458784567849,157.40704497094845],[111.2617118433633,156.64615742156784],[110.85193771078073,156.00618936531376],[110.52531610071716,155.58734537360425],[110.05450973815383,154.83841716215778],[109.88428301440807,154.49481251948157],[109.63765548294005,154.09515570613283],[109.28353606791963,153.4868686600932],[109.14302705799561,153.11708066951985],[108.69359051569407,151.75163417398417],[108.45733307578344,150.90742285114797],[108.37703630389618,150.67102345860056],[108.28583279707088,150.3172828162595],[107.95696010081626,148.97473894928834],[107.75024202613119,148.28455377192407],[107.72657417791925,148.20553214771024],[107.46424560620909,147.0354440851025],[107.4628926027357,147.03043217409686],[107.33771821735755,146.44998790442153],[107.24660253841648,145.97297925344625],[107.22484262404947,145.7291698803631],[107.18053021709001,144.8607371169701],[107.1129482255856,143.9011848564304],[107.06784207893187,143.249163807748],[107.04102989745007,142.55559272389974],[107.02716749131565,142.24424868009092],[106.98066460828232,141.32150076210428],[106.95333630942905,140.7761034917473],[106.91363998837917,138.69047094867483],[106.912586057905,138.63756987450807],[106.9158619961051,138.3730661637735],[106.9168901628172,138.30548056482036],[106.92420681401629,138.17046093338496],[107.16108213659413,136.26514535165666],[107.21077582076668,135.83317302024005],[107.4115875326128,134.60211189299034],[107.43570559519198,134.4371596270349],[107.5191999246081,133.86654209468054],[107.57979999176037,133.35107303703148],[107.79526435562167,132.06590185166914]]]]}},{"type":"Feature","properties":{"Level":"ADM1","shapeGroup":"BEL","shapeID":"BEL-ADM1-95415949B16727932","shapeISO":"BE-VLG","shapeName":"Flanders","shapeType":"ADM1"},"geometry":{"type":"MultiPolygon","coordinates":[[[[184.80850538239105,131.0472665077845],[185.30738949837774,130.9265366311597],[186.10094146649044,130.73990717994687],[186.1254130036212,130.73840187199974],[187.1224642637667,130.6740108897623],[187.6544612273509,130.44564952499664],[187.69798941298617,130.42721500825618],[188.79361570256287,129.95607253348822],[189.11336662325294,129.81717606780808],[191.009113210585,129.36467018189072],[191.07435596671897,129.3492794602512],[191.0880054066435,129.40359722485672],[191.2463827354156,130.044036307528],[191.272320383348,130.14761515568554],[191.4377199208786,131.50765451344407],[191.45979666215655,131.6355055257519],[191.62643401738487,132.6248066483376],[191.62704397459967,132.6284643109839],[191.6303709575109,132.6485180903296],[191.65049444023816,132.77076331784372],[191.65930746896134,132.8223909758987],[191.6511703681159,132.82101292609428],[191.63029334248714,132.8177988931183],[191.3402582143635,132.7737927242759],[189.91893904394567,132.56290425690537],[189.64188415290118,132.52057675430774],[188.32679757867493,132.3141943416799],[187.65071417392932,132.20947103881818],[187.19576018812407,132.1400917146625],[186.46281047791024,131.74589377112807],[186.28396222323357,131.6433361548576],[185.8033658126327,131.3734442247905],[185.67111416389858,131.29786118300575],[185.46131223677952,131.2365305511979],[184.80850538239105,131.0472665077845]]],[[[185.12986041158615,135.97388380301146],[184.7814704397908,137.41744309633933],[184.63968290376988,138.01313443802735],[184.51773503734734,138.53505732610347],[184.2723865177578,139.67703193270165],[184.16415104509724,140.1766532980696],[183.8802959443476,141.48002144210045],[183.94559663423843,141.7108508630002],[184.12804581312673,142.39281925011275],[184.45792948011058,143.69904900698018],[184.77408239059673,144.93085756279655],[185.8314338489272,147.3738619437055],[186.83565498948815,149.69364968444108],[187.4468864860334,151.71546030403886],[187.8714556983374,153.11473388144856],[188.46080081189876,154.9266100162111],[188.56869255795138,155.2616142203882],[189.6980149994973,158.85757899285454],[189.9819298501954,159.71315199720655],[191.69168375889402,164.77950543698614],[191.9289045866545,165.4742397689964],[192.48150423795508,167.04331857546308],[191.94740976229113,167.39304991875755],[191.70795648973888,167.55781471699083],[188.71422469228014,169.6384495547963],[187.6242608078674,170.38997809714274],[186.58693913230104,171.08175193759348],[183.19559905234257,173.04472523263487],[181.8348271580644,173.80415349004824],[180.6256617142597,174.40382230005187],[180.40557024344076,174.97793515508286],[180.16851143319928,175.62808477219767],[179.30880928033935,177.99901602245953],[178.4670036859184,180.22150004372548],[176.3541606546468,179.77494250258977],[175.79982327921934,179.6701985111314],[172.38023789776895,179.02516029477414],[172.35848837672268,179.02119134293346],[167.16269449542096,178.34545034132083],[166.54434452364623,179.74725930476563],[166.084704636769,180.75286547208862],[162.69890919015748,187.5013583347496],[160.99992246898907,190.446938181757],[160.49178193404714,191.33374704157535],[160.39152645817327,191.51870941672502],[160.35150645298307,191.59301160610406],[160.1344802110184,191.9969869048966],[159.86283509158,192.43637611683067],[156.89654566331643,197.25392879695664],[155.73925108819608,195.76232056902217],[153.53735803240502,192.8954885300619],[152.74013662872215,191.5924999148379],[152.68980297680338,191.51094930187253],[152.42712527945102,191.07088212221547],[150.9586930506977,191.55086319221218],[150.8338506674661,191.5929561874658],[149.1668902431049,192.16007304380003],[148.61726970615695,192.38227585169741],[145.35281037877155,193.25042577445444],[144.91831566570133,193.35575122143837],[145.32339663559372,193.81633425625182],[145.8278054996833,194.22995466812046],[147.73706398096664,195.78159581597095],[148.19100196924654,196.24206818302892],[147.25030576191412,197.16341660648317],[146.52431158446004,197.8459946633586],[144.73353594594715,199.4861989751293],[141.81747475239553,197.17082740067974],[138.29075057320028,194.47424604627005],[133.01441606372506,194.938603999562],[133.08364135402712,198.8170791196648],[130.76807173178813,198.3625527979284],[128.47999840330598,197.76087753018714],[128.08897475673015,197.65155362664507],[125.42979421799286,196.91735089028316],[126.31072227393673,194.93448053266627],[127.50954577042391,191.98035800706782],[127.66471818227949,191.59929279524934],[127.73872105547899,191.4185409513309],[127.86002570258724,191.1230586807249],[127.90039546570463,191.02526758064977],[127.81341334006056,191.03055065355767],[127.04881974623144,191.0746438517574],[118.26951351180337,191.6186336745668],[117.25726701716675,191.68179153650732],[117.22746969725844,191.6207788160903],[115.97283487169432,189.0741055264343],[114.77647032215549,187.06723009983435],[114.2440661611925,186.1838089900829],[111.95431911277379,185.17139179144385],[111.8110257001452,185.10459497907698],[106.79732695011776,182.25968662171164],[104.1538070453167,180.82267827621854],[101.8734295283385,179.5975784382291],[101.70039814958466,179.49710632324192],[99.97509211486545,178.28368019470588],[96.16086392432577,180.14689488236053],[95.58912888384997,180.42680770579835],[94.75240577329436,180.8615911478886],[88.90276476281842,184.4170494006007],[87.58535387550103,185.2117832687186],[86.9617663096755,184.82388524073465],[86.75126351925006,184.67135449279058],[80.29627922927753,179.7895331592254],[80.19563512983109,180.2447172670808],[79.81215859406969,181.98543598117013],[79.04139225680703,185.49027270080924],[78.09972428854803,189.5518436685414],[78.03539691424025,189.5457472860889],[69.93309851095543,188.78254499087313],[68.34033808599742,187.6032537909669],[68.09765401262663,187.42356876891404],[67.61519454488094,187.05672189869432],[64.2438124117886,184.66593895612903],[64.1646813186936,184.60986306501317],[62.521880652075765,183.49058474803783],[56.87584036586694,179.14775437537963],[55.734335291439564,178.2616303736761],[52.551048119683195,175.7920306818877],[49.495841382154204,173.44021179155158],[48.31064367414342,172.52632784836064],[41.4315551649088,167.26198942351132],[41.18550324749344,167.09429611456005],[41.46124421006678,164.23649373711532],[41.83516573963693,159.953406816265],[41.851288406368134,159.7669443439979],[42.16160866298305,156.50612267633687],[42.41461700654111,154.9578227018814],[42.4375035033302,154.81611793808267],[42.78803237228392,152.5710135089073],[43.43712535003071,149.14434797855904],[44.440290934049735,148.1559806549888],[47.15491175589552,145.5112034544222],[48.37115494762897,144.34365489949357],[48.60708553865529,144.11384837948947],[52.237938458961366,140.57456879679836],[52.37522724870676,140.45680682337553],[52.735173510325396,140.1490216712503],[54.14858356907643,138.9361147213565],[54.3757526759178,138.7455584841536],[55.06559589154864,138.16917589519238],[55.29786551174949,137.97457145841855],[56.14679306167268,137.2940471635198],[56.317941149217305,137.15633861302894],[56.37096109218285,137.11354878260366],[56.51347976205059,136.99758118910992],[56.529452001843694,137.02428359758338],[56.62430313752806,137.18479193400208],[56.902938244765494,137.64919720262588],[57.0048219133955,137.8186186489996],[57.173587024392106,138.17753847866152],[57.26853224203268,138.38137416126347],[58.099961130153865,140.14663890661404],[58.229684643256896,140.42621086668655],[58.55435431557761,141.12502343168995],[59.27952970738428,142.6436048797758],[59.31330506440651,142.71392479626388],[60.35376701894213,142.22038275537105],[60.56713286263267,142.12012957572057],[60.59222365334624,142.1085320842066],[62.01260895604322,141.4588468989821],[62.34584367145102,141.30563950297255],[63.149621320592274,140.9394943991072],[63.42198578995467,140.81419516709857],[64.26787540898498,140.58296613228913],[64.35864286017872,140.55575982109414],[64.54327924716651,140.49986553408922],[65.64786924677944,140.13850845956165],[67.30161630096438,139.59207702198253],[67.46078948046092,139.5401265618401],[68.3914076435934,139.10626381412618],[69.05738448982733,138.79014473329767],[70.4094825112429,138.154390237681],[70.47836298040663,138.12146233907748],[71.11463678657212,137.81626855836868],[71.28877712753928,137.73351765594612],[71.41647632579824,137.64713635192044],[71.73618571999029,137.42868996895743],[72.20582803831982,137.10599037811528],[72.33237572384874,137.01935587708596],[72.41858750730279,136.9606502849853],[72.8979527349965,136.6323037620473],[73.70197949442748,136.09791040308096],[73.76246230330489,136.05781839881615],[74.2438079408267,135.75309540774526],[74.41420005210021,135.64453809460792],[74.77171674513238,135.4206557978083],[75.27722344796695,134.95793372971397],[75.28067400952791,134.95470728605366],[76.40919254824571,134.13594936055244],[76.44779785646062,134.10837389540907],[76.62871755527632,133.97958096696436],[77.02978343763245,133.69500161559344],[79.97248019329012,132.11895548967686],[80.09109862588214,132.1937116288476],[80.1335791625466,132.2205979737736],[80.39713569699433,132.388683628992],[80.83132150404383,132.6667734141176],[81.29228592791901,133.36400810896072],[82.56648270556295,135.33327273563387],[83.05205216674791,134.87537277434893],[84.14847349560827,133.94517284184536],[84.2259388210118,133.87995831083657],[85.58216883397523,132.99882381407778],[86.4497837913073,132.2931060250282],[87.6221287218364,131.32787175115806],[87.94076549791414,131.06801278262964],[88.16437838369879,130.8709338118187],[88.33438585647679,130.71487557676585],[88.64718492492591,130.42786979076982],[89.89049427938531,129.58236981751728],[90.41836790731224,129.79100346652874],[91.0845072608066,130.50892430695905],[91.14502461279818,130.57453678898491],[92.82239661022619,132.20205657987378],[93.13067640210483,132.5062606551749],[93.53802485144831,131.97711844096034],[93.99753904298973,131.45960723949844],[94.916160370934,130.4066301246401],[95.2946966112311,129.95019743737038],[96.26461230765392,128.6735492254302],[96.75817076359266,128.0310842429224],[97.15846825167071,127.52333358208391],[97.41152845164497,127.224810366796],[97.7827664138758,126.90834645646962],[98.18874500836667,126.52126186675147],[98.49948295234125,126.24632440618512],[99.30036131639628,125.57354305384814],[100.56893865087221,124.49720340988638],[101.03873891751705,124.05993010520466],[101.51425307071494,123.63924542704979],[102.02823528792291,123.55542357446365],[102.90823356306798,123.40734801901223],[103.0764110312316,123.35174787329709],[104.27743785604821,122.91433670241577],[104.82971839651441,122.71366942908236],[105.54067436512562,122.51042636177755],[106.72962527475694,122.17141969477196],[107.3244172497036,121.92056976525848],[108.88551581947658,121.26896674335038],[110.37720027665077,120.63884961122088],[110.66311982011786,120.54861006430194],[111.11126612245133,120.4258379578108],[111.3866683092017,120.3359105444907],[112.25903656345203,120.05167487620761],[112.41094005926679,120.00297155308729],[112.61627084014675,119.93833741019833],[113.64435553217862,119.34498011763421],[114.15067200980957,119.09422967716645],[114.95597356353562,118.70454579961296],[115.86380386954431,118.25628108467038],[115.8874256781179,118.24424578342425],[116.27403853335466,118.05606646067056],[117.20216508565835,117.61173052796664],[117.65743679579127,117.39688123354026],[118.54437576471426,116.96859960835238],[118.82793226518217,116.84571598038625],[119.98101294179935,116.39590071536898],[120.28557478210695,116.2784614573532],[120.50286871126526,116.19613823136812],[120.60471196158466,116.16094589244803],[121.29559498943239,115.92669609563481],[121.52134280968772,115.85332595166486],[122.78363209405389,115.72984607681703],[124.69184011269283,115.54715923421696],[125.36713671958657,115.50249593043733],[126.03128062716496,115.46581714103658],[126.13454927506042,115.45964125167534],[126.3895357882814,115.4472474966728],[126.55658246030798,115.44490982343731],[128.28780354550878,115.43159948049197],[128.3476840904342,115.43138527985708],[129.56094944022033,115.46664030471015],[129.7667325266399,115.48293792964526],[130.42098100912366,115.5372250460225],[131.59641384818244,115.6740556432373],[132.08835797858183,115.75438011286853],[132.54624434244982,115.82977403716501],[133.14468928419424,115.94186283478273],[133.2442420869302,115.96134050355485],[134.00685185564268,116.11011963919158],[134.10704969894726,116.13130306377258],[134.23049532148426,116.16235191368226],[134.71878835551428,116.28262963794356],[135.3992968451575,116.47475191573052],[136.2665223567378,116.68526731108595],[136.91138750210047,116.84263586128387],[137.0403348287262,116.88260952602894],[137.426185326599,116.9830285072102],[137.94424342272217,117.16854971147694],[138.59292228734495,117.42495267558107],[138.60089571583168,117.42728979931513],[138.69695425425115,117.45544233541801],[139.0657189311912,117.56351873395414],[140.06610936862123,117.98192084542255],[140.71377719182388,118.17915024443835],[141.09314233827564,118.30629494437292],[141.5529403638717,118.52393248551118],[142.8908269295084,119.02065192899374],[142.95122389972678,119.05038943121264],[142.9866713579083,119.06781720945409],[143.02482257965067,119.078996607695],[143.8349816810195,119.50093446600619],[143.9741718047172,119.5791689797243],[144.19216300859182,119.7020858870556],[144.23138352215412,119.71772469891388],[144.5166882518112,119.83292324141257],[144.69180503045533,119.90484664751949],[145.3368679549489,120.30361839922236],[145.7073111017326,120.49244556319385],[146.1785934002415,120.73926375163788],[146.40428317754385,120.91202763843731],[146.65493306136318,121.05797866971554],[146.85098281045043,121.18114950715176],[146.99698116348736,121.27085036494081],[147.13419411871416,121.37202178485003],[147.34544287094207,121.52448948019085],[147.46812442803105,121.59979432083239],[148.16439415143412,122.13958425005737],[148.19376558048094,122.161065134432],[148.55617621406276,122.42984053420417],[149.10567424507306,122.88031455690049],[149.1133208509642,122.88654316367247],[149.62594250725755,123.40563792456335],[150.093446734649,123.78730097114371],[150.42107559599964,124.05798571732876],[150.9020349811264,124.47422483167533],[151.47788209775183,124.94821510563739],[152.05774617015174,125.46505538543937],[152.058516735652,125.46595050425996],[152.05875819680344,125.4662425477207],[152.13974016410458,125.57227466702923],[152.71567860159345,126.3273107745531],[153.5282673334346,127.51269827459761],[153.61634222629903,127.7481387436754],[153.97323743324895,128.70964797230602],[154.32340611664534,128.42384489939022],[154.83283659519074,128.03868181764585],[155.2176089923663,127.74440822588161],[155.7059140989017,127.37453737446084],[156.677321209487,127.09010496720971],[157.59410267752088,126.67218424131991],[157.77490293214902,126.61514980763805],[159.24331974385137,126.16003056245354],[160.00630693836243,125.81722456374268],[160.61210594075976,125.54570575661918],[161.7733264206662,125.0834173576298],[161.9021697523122,125.05997245177491],[162.13391472538714,125.01420366980933],[162.4445947622002,124.91629052220051],[164.58488992328552,124.40932467068419],[165.14749474569095,124.27734221437949],[166.0762733974173,123.92863054495474],[166.98213157529034,124.24561361061521],[167.91552428850247,124.54768243019859],[168.395540132399,124.70147204322805],[169.81925810391215,125.18800418457671],[170.33522248589964,125.31947326496073],[171.70241854030678,125.66453882512855],[172.38812444795366,125.90210622628919],[172.7120052576929,126.02374600090853],[175.0052210243295,126.67524496376593],[175.35796732407337,126.76880826201415],[175.8294000198003,126.88800857433165],[176.76943316464914,127.12997721206406],[177.98276305323992,127.44385582593597],[178.04394391653648,127.49599007344736],[178.27954194051142,127.71135707003725],[178.30576124418008,127.73566281250115],[178.3861029866847,127.79277686331932],[179.77724097471827,129.45221797927965],[180.1798194871071,129.93218210386715],[181.56324421366293,130.92723699918417],[182.16677016646855,131.61918077977109],[182.20885896839798,131.6659269624526],[183.0326377966012,132.58644473101424],[183.69806527774134,133.6443679295046],[183.7013251641958,133.64958697741568],[183.70710183515206,133.65885862435945],[183.89931214849602,133.9683196450575],[184.12631467296544,134.29886592297765],[184.55462374538706,134.88871004231646],[184.95875959160486,135.65099527803756],[185.12986041158615,135.97388380301146]],[[107.79526435562167,132.06590185166914],[107.57979999176037,133.35107303703148],[107.5191999246081,133.86654209468054],[107.43570559519198,134.4371596270349],[107.4115875326128,134.60211189299034],[107.21077582076668,135.83317302024005],[107.16108213659413,136.26514535165666],[106.92420681401629,138.17046093338496],[106.9168901628172,138.30548056482036],[106.9158619961051,138.3730661637735],[106.912586057905,138.63756987450807],[106.91363998837917,138.69047094867483],[106.95333630942905,140.7761034917473],[106.98066460828232,141.32150076210428],[107.02716749131565,142.24424868009092],[107.04102989745007,142.55559272389974],[107.06784207893187,143.249163807748],[107.1129482255856,143.9011848564304],[107.18053021709001,144.8607371169701],[107.22484262404947,145.7291698803631],[107.24660253841648,145.97297925344625],[107.33771821735755,146.44998790442153],[107.4628926027357,147.03043217409686],[107.46424560620909,147.0354440851025],[107.72657417791925,148.20553214771024],[107.75024202613119,148.28455377192407],[107.95696010081626,148.97473894928834],[108.28583279707088,150.3172828162595],[108.37703630389618,150.67102345860056],[108.45733307578344,150.90742285114797],[108.69359051569407,151.75163417398417],[109.14302705799561,153.11708066951985],[109.28353606791963,153.4868686600932],[109.63765548294005,154.09515570613283],[109.88428301440807,154.49481251948157],[110.05450973815383,154.83841716215778],[110.52531610071716,155.58734537360425],[110.85193771078073,156.00618936531376],[111.2617118433633,156.64615742156784],[111.87458784567849,157.40704497094845],[111.90832079438758,157.44551964411534],[112.10641110898108,157.7147488249958],[112.35610603457968,158.05240442162562],[113.05909228529224,158.8015227902505],[113.79047319886442,159.7740672840224],[113.86337870145525,159.83943542015658],[113.87519038846996,159.8476826994329],[114.26238188272143,160.1164864126107],[114.56764156843718,160.37421871021755],[114.73133524056793,160.5074020575903],[115.46795143294409,160.9898305501246],[115.75572363900429,161.1412925126117],[116.41796079951227,161.57303061375976],[117.36263779019188,162.04582075928744],[117.98905788210996,162.42914966085402],[118.92159718447179,162.98506763929115],[118.94451455967732,162.99597983787993],[118.95675944196137,163.00278219628836],[120.33319779426394,163.60694399924282],[120.69066965618055,163.69557621867222],[121.5402367181805,163.96578105607423],[121.54228146570001,163.9662546834731],[122.66774305082042,164.2243044558847],[122.80460581887124,164.2627427632875],[124.114492756634,164.50089391673947],[124.82562722422885,164.59551874591222],[125.27893263192598,164.66518024331455],[126.68289119311088,164.89323474261664],[127.37660690404962,164.978586832255],[128.11706437143468,164.9474207028933],[129.00500735701013,164.90747556962017],[129.23076570591655,164.89691636714454],[130.1640827031827,164.81245721018993],[131.44182981767537,164.6164825147674],[131.7721507722362,164.5703524664135],[133.5510603089125,164.23252099672948],[133.75480628448085,164.16738201194863],[134.22110012227623,164.0452094099139],[134.3223472590744,163.92035460529317],[134.91853072013592,163.07749862541849],[135.05527170249155,162.91361338586972],[135.64518720667363,162.32300333861596],[135.75646536145499,162.1870432162634],[136.17528926087041,161.48076526342163],[136.61933528512415,160.8467880994077],[137.24321742409043,160.1193995057728],[137.29588018330182,160.04402188299403],[137.33267011277783,159.99785761116658],[137.46719832950436,159.78987272347115],[138.20889313197307,158.63916565157032],[138.27445889510497,158.51015454585533],[138.50710589702177,158.13724208965002],[138.90949298879545,157.5572901589669],[139.38085490074175,156.81127498250856],[139.9387962634764,155.61960627180576],[139.9999065323277,155.49035441757584],[140.1030234489951,155.23793738624175],[140.14716454903441,155.1458781455678],[140.19394648379364,155.02568543212354],[140.5209275199818,154.18392516304021],[140.76198272429542,153.41494770804348],[141.02594155959886,152.72256331412655],[141.37322414902667,151.54001670559754],[141.41851976886352,151.41332940830895],[141.80450280733317,150.3034192879989],[141.98960069048243,149.6528706602807],[142.20173836063793,149.0150479068326],[142.45456436662738,147.89083628445823],[142.49354515009998,147.65361489127764],[142.4943867256547,147.6492165934772],[142.75801513665033,146.42908738391117],[142.89831713760526,145.62359579106797],[142.93182047333698,145.47010463349102],[143.10839746392844,144.45027935600868],[143.14901785670872,143.98204469030975],[143.1777995495222,143.79102570858336],[143.17799466114525,143.78971680651406],[143.19069702610489,143.49396842552957],[143.22192611185747,143.03539797461767],[143.29790370314143,141.16379634320953],[143.32592642575446,140.61850949756825],[143.331891338405,140.36069099465547],[143.46629418386306,138.95783907570143],[143.4828063111397,138.80379859454223],[143.5241978248184,138.2159775043823],[143.5549054014706,136.7547696397611],[143.55554769637607,136.74064734834224],[143.61358537935774,136.08016590958275],[143.6350936419316,135.83596167968935],[143.66551855995394,135.25565154245507],[143.69651259134298,134.65496300881225],[143.71647913631614,133.8528769678736],[143.74393313570772,133.43852789816123],[143.75216697225204,133.3271685046258],[143.8342041063372,132.2949200498822],[143.8446476262134,131.82030203951004],[143.8476789033196,131.00671793883714],[143.83236082517146,129.88884902104138],[143.84397006098172,129.08486242830205],[143.84449303044593,129.07630136949348],[143.8699970304842,128.59791675543073],[143.91313556570435,127.78729155554043],[143.9680104055237,126.701638440874],[143.96881027107014,126.68322221749494],[143.97147286709628,126.29455117616882],[143.97597412157324,126.22324878209801],[143.99364637685,125.76244491998219],[143.84534386009418,125.73563309761238],[142.74310368716883,125.57977804044359],[142.39649995083988,125.50474255827267],[142.24567689919843,125.44637515678139],[142.07683946469396,125.36694965312562],[141.63468866709317,125.22744201567679],[141.46727025483239,125.18297560383343],[140.3027929929979,124.8740911328757],[139.49839943508428,124.64185395679743],[139.36367599649617,124.5647174388699],[138.51495877758373,124.17427467614527],[136.9972319131715,123.40981330634845],[136.85867765985824,123.35323874239776],[136.53291733372103,123.21377834691586],[136.4349696903818,123.17923371497554],[136.39754388888792,123.16967047305658],[136.35662808154734,123.14887727695756],[136.24900139552136,123.10101505160249],[135.17595413278713,122.6252582112995],[134.50127454502723,122.26300161937664],[134.03075044146516,122.06854427191215],[133.52277000209665,121.85860703797313],[133.28050864612982,121.7411946802425],[132.3057637977243,121.02463715454783],[132.09632679052248,120.90485298429192],[131.93922304342362,120.79728416974595],[131.1914667933838,120.33315514928057],[131.0765137978131,120.38767762115003],[130.16372128790965,120.76004487741531],[129.66197389514497,120.9697541214051],[129.47728976544664,121.06004544784692],[129.45303534852812,121.07145799762284],[129.36026729659076,121.11509674798904],[128.47008746587008,121.55425112389258],[128.2482170418674,121.63467034608198],[127.80197417285308,121.79811131063974],[126.76218319982567,122.11264382138714],[126.00734407959982,122.42318164741273],[125.77945251442796,122.49465063968583],[125.68644852126053,122.53092887377954],[125.53348401082226,122.56919279333647],[124.58186914023105,122.97737733423708],[124.20208921819224,123.17727404613241],[123.7694456894175,123.43433583823145],[123.03355480489874,123.86560389124467],[122.75777169476815,123.98213586527292],[121.6928347797128,124.33242040075908],[121.31804981681347,124.50417040313951],[121.03222246170314,124.6769974719193],[120.29884882674088,125.03136275871117],[120.2206729717146,125.0564139889945],[119.65900452681367,125.2387784066205],[119.33713432353434,125.36963068304588],[119.2092525231972,125.41397605920831],[119.01496509581874,125.50191761087541],[118.68406792533597,125.65048648005765],[117.71600845195336,126.24721483456118],[117.09231349487484,126.56050709684949],[116.76540601137512,126.7083311573798],[116.09976183094055,127.09880690068746],[114.6909265199147,127.75781377806003],[114.54478122077529,127.8385234681802],[114.43450525937277,127.90565629679297],[114.32063592645726,127.9756155429665],[113.26517560760766,128.70785593278654],[112.92502459007613,128.91926644739374],[112.61537602916088,129.08015653935763],[112.19141340322996,129.30996642957686],[111.93301990675934,129.45161838067742],[111.33803557788804,129.86520197633507],[110.08634795982604,130.59981226753845],[110.07680955937883,130.6063908605935],[109.74225958570429,130.8236593574822],[109.56783989734963,130.92208366822487],[108.2187887425736,131.86200643437695],[108.14757216006657,131.90097595688232],[107.79526435562167,132.06590185166914]]]]}},{"type":"Feature","properties":{"Level":"ADM1","shapeGroup":"BEL","shapeID":"BEL-ADM1-95415949B15047719","shapeISO":"BE-WAL","shapeName":"Wallonia","shapeType":"ADM1"},"geometry":{"type":"MultiPolygon","coordinates":[[[[184.80850538239105,131.0472665077845],[184.86890964487208,131.6514412760171],[184.92880304923187,132.28093134123634],[184.97049099851745,132.94948622112796],[184.98143269046653,133.1172397433906],[184.99064248153005,133.34738324854752],[185.0064015021544,133.64670930749116],[185.08404513720475,135.0679834316549],[185.1132996989047,135.6504712594643],[185.12986041158615,135.97388380301146],[184.95875959160486,135.65099527803756],[184.55462374538706,134.88871004231646],[184.12631467296544,134.29886592297765],[183.89931214849602,133.9683196450575],[183.70710183515206,133.65885862435945],[183.7013251641958,133.64958697741568],[183.69806527774134,133.6443679295046],[183.0326377966012,132.58644473101424],[182.20885896839798,131.6659269624526],[182.16677016646855,131.61918077977109],[181.56324421366293,130.92723699918417],[180.1798194871071,129.93218210386715],[179.77724097471827,129.45221797927965],[178.3861029866847,127.79277686331932],[178.30576124418008,127.73566281250115],[178.27954194051142,127.71135707003725],[178.04394391653648,127.49599007344736],[177.98276305323992,127.44385582593597],[176.76943316464914,127.12997721206406],[175.8294000198003,126.88800857433165],[175.35796732407337,126.76880826201415],[175.0052210243295,126.67524496376593],[172.7120052576929,126.02374600090853],[172.38812444795366,125.90210622628919],[171.70241854030678,125.66453882512855],[170.33522248589964,125.31947326496073],[169.81925810391215,125.18800418457671],[168.395540132399,124.70147204322805],[167.91552428850247,124.54768243019859],[166.98213157529034,124.24561361061521],[166.0762733974173,123.92863054495474],[165.14749474569095,124.27734221437949],[164.58488992328552,124.40932467068419],[162.4445947622002,124.91629052220051],[162.13391472538714,125.01420366980933],[161.9021697523122,125.05997245177491],[161.7733264206662,125.0834173576298],[160.61210594075976,125.54570575661918],[160.00630693836243,125.81722456374268],[159.24331974385137,126.16003056245354],[157.77490293214902,126.61514980763805],[157.59410267752088,126.67218424131991],[156.677321209487,127.09010496720971],[155.7059140989017,127.37453737446084],[155.2176089923663,127.74440822588161],[154.83283659519074,128.03868181764585],[154.32340611664534,128.42384489939022],[153.97323743324895,128.70964797230602],[153.61634222629903,127.7481387436754],[153.5282673334346,127.51269827459761],[152.71567860159345,126.3273107745531],[152.13974016410458,125.57227466702923],[152.05875819680344,125.4662425477207],[152.058516735652,125.46595050425996],[152.05774617015174,125.46505538543937],[151.47788209775183,124.94821510563739],[150.9020349811264,124.47422483167533],[150.42107559599964,124.05798571732876],[150.093446734649,123.78730097114371],[149.62594250725755,123.40563792456335],[149.1133208509642,122.88654316367247],[149.10567424507306,122.88031455690049],[148.55617621406276,122.42984053420417],[148.19376558048094,122.161065134432],[148.16439415143412,122.13958425005737],[147.46812442803105,121.59979432083239],[147.34544287094207,121.52448948019085],[147.13419411871416,121.37202178485003],[146.99698116348736,121.27085036494081],[146.85098281045043,121.18114950715176],[146.65493306136318,121.05797866971554],[146.40428317754385,120.91202763843731],[146.1785934002415,120.73926375163788],[145.7073111017326,120.49244556319385],[145.3368679549489,120.30361839922236],[144.69180503045533,119.90484664751949],[144.5166882518112,119.83292324141257],[144.23138352215412,119.71772469891388],[144.19216300859182,119.7020858870556],[143.9741718047172,119.5791689797243],[143.8349816810195,119.50093446600619],[143.02482257965067,119.078996607695],[142.9866713579083,119.06781720945409],[142.95122389972678,119.05038943121264],[142.8908269295084,119.02065192899374],[141.5529403638717,118.52393248551118],[141.09314233827564,118.30629494437292],[140.71377719182388,118.17915024443835],[140.06610936862123,117.98192084542255],[139.0657189311912,117.56351873395414],[138.69695425425115,117.45544233541801],[138.60089571583168,117.42728979931513],[138.59292228734495,117.42495267558107],[137.94424342272217,117.16854971147694],[137.426185326599,116.9830285072102],[137.0403348287262,116.88260952602894],[136.91138750210047,116.84263586128387],[136.2665223567378,116.68526731108595],[135.3992968451575,116.47475191573052],[134.71878835551428,116.28262963794356],[134.23049532148426,116.16235191368226],[134.10704969894726,116.13130306377258],[134.00685185564268,116.11011963919158],[133.2442420869302,115.96134050355485],[133.14468928419424,115.94186283478273],[132.54624434244982,115.82977403716501],[132.08835797858183,115.75438011286853],[131.59641384818244,115.6740556432373],[130.42098100912366,115.5372250460225],[129.7667325266399,115.48293792964526],[129.56094944022033,115.46664030471015],[128.3476840904342,115.43138527985708],[128.28780354550878,115.43159948049197],[126.55658246030798,115.44490982343731],[126.3895357882814,115.4472474966728],[126.13454927506042,115.45964125167534],[126.03128062716496,115.46581714103658],[125.36713671958657,115.50249593043733],[124.69184011269283,115.54715923421696],[122.78363209405389,115.72984607681703],[121.52134280968772,115.85332595166486],[121.29559498943239,115.92669609563481],[120.60471196158466,116.16094589244803],[120.50286871126526,116.19613823136812],[120.28557478210695,116.2784614573532],[119.98101294179935,116.39590071536898],[118.82793226518217,116.84571598038625],[118.54437576471426,116.96859960835238],[117.65743679579127,117.39688123354026],[117.20216508565835,117.61173052796664],[116.27403853335466,118.05606646067056],[115.8874256781179,118.24424578342425],[115.86380386954431,118.25628108467038],[114.95597356353562,118.70454579961296],[114.15067200980957,119.09422967716645],[113.64435553217862,119.34498011763421],[112.61627084014675,119.93833741019833],[112.41094005926679,120.00297155308729],[112.25903656345203,120.05167487620761],[111.3866683092017,120.3359105444907],[111.11126612245133,120.4258379578108],[110.66311982011786,120.54861006430194],[110.37720027665077,120.63884961122088],[108.88551581947658,121.26896674335038],[107.3244172497036,121.92056976525848],[106.72962527475694,122.17141969477196],[105.54067436512562,122.51042636177755],[104.82971839651441,122.71366942908236],[104.27743785604821,122.91433670241577],[103.0764110312316,123.35174787329709],[102.90823356306798,123.40734801901223],[102.02823528792291,123.55542357446365],[101.51425307071494,123.63924542704979],[101.03873891751705,124.05993010520466],[100.56893865087221,124.49720340988638],[99.30036131639628,125.57354305384814],[98.49948295234125,126.24632440618512],[98.18874500836667,126.52126186675147],[97.7827664138758,126.90834645646962],[97.41152845164497,127.224810366796],[97.15846825167071,127.52333358208391],[96.75817076359266,128.0310842429224],[96.26461230765392,128.6735492254302],[95.2946966112311,129.95019743737038],[94.916160370934,130.4066301246401],[93.99753904298973,131.45960723949844],[93.53802485144831,131.97711844096034],[93.13067640210483,132.5062606551749],[92.82239661022619,132.20205657987378],[91.14502461279818,130.57453678898491],[91.0845072608066,130.50892430695905],[90.41836790731224,129.79100346652874],[89.89049427938531,129.58236981751728],[88.64718492492591,130.42786979076982],[88.33438585647679,130.71487557676585],[88.16437838369879,130.8709338118187],[87.94076549791414,131.06801278262964],[87.6221287218364,131.32787175115806],[86.4497837913073,132.2931060250282],[85.58216883397523,132.99882381407778],[84.2259388210118,133.87995831083657],[84.14847349560827,133.94517284184536],[83.05205216674791,134.87537277434893],[82.56648270556295,135.33327273563387],[81.29228592791901,133.36400810896072],[80.83132150404383,132.6667734141176],[80.39713569699433,132.388683628992],[80.1335791625466,132.2205979737736],[80.09109862588214,132.1937116288476],[79.97248019329012,132.11895548967686],[77.02978343763245,133.69500161559344],[76.62871755527632,133.97958096696436],[76.44779785646062,134.10837389540907],[76.40919254824571,134.13594936055244],[75.28067400952791,134.95470728605366],[75.27722344796695,134.95793372971397],[74.77171674513238,135.4206557978083],[74.41420005210021,135.64453809460792],[74.2438079408267,135.75309540774526],[73.76246230330489,136.05781839881615],[73.70197949442748,136.09791040308096],[72.8979527349965,136.6323037620473],[72.41858750730279,136.9606502849853],[72.33237572384874,137.01935587708596],[72.20582803831982,137.10599037811528],[71.73618571999029,137.42868996895743],[71.41647632579824,137.64713635192044],[71.28877712753928,137.73351765594612],[71.41950864686228,137.447010314995],[71.5237341866798,137.21647471220808],[71.56917053798018,137.11525036001905],[71.83514530276847,136.52473113810385],[72.0183514481876,136.12121857909227],[72.14019096753435,135.8521661327253],[72.44363341668107,135.21989984494869],[72.5950768987557,134.90398292623775],[72.93520470836806,134.13879022829408],[73.09266017673936,133.77868025316087],[73.3562683179847,133.19120951111682],[73.37457265823375,133.149339654626],[73.40103126186449,133.08704428773848],[73.46555384914168,132.93930469200558],[73.70072758783144,132.38931253633348],[73.80036249415667,132.1598354815664],[73.99887779139223,131.69221673211374],[74.22513736970802,131.17177544624542],[74.29921771662667,130.99659829460848],[74.47991795552238,130.58087785311167],[74.64935872334979,130.18422478848845],[75.49037255603656,128.21875859289182],[75.49331324724146,128.21191447770713],[75.62467894055828,127.90038089822806],[75.7763185890527,127.51194158690102],[75.88981504160064,127.22586562235463],[76.05381733326999,126.80189461613074],[76.27599631761383,126.24160842848843],[76.48159911899872,125.71264476309437],[76.63829072490219,125.30967843576298],[77.02325053224551,124.55830411837891],[77.17699264851169,124.27578911643359],[77.46688754586654,123.73791053492528],[77.60926739840154,123.47358977894032],[78.373444436356,123.38202377520959],[78.457811211159,123.37150693362969],[79.03382858430072,123.30011116073452],[79.45151387498136,123.24774614322165],[79.51307142276393,123.24016002398342],[80.38237476256279,123.1292694797846],[80.44550014567757,123.11868838386873],[81.00023575894714,123.02669823397848],[82.43493871372077,122.78299790600624],[82.84205159254643,122.71289300807913],[83.33466188908349,122.63034901875886],[84.220924764064,122.30958138542361],[84.29483912189811,122.28239020069817],[84.43259271169524,122.23752706678123],[85.1302779703319,122.00768131750506],[85.43023396626047,121.91137572494023],[85.88287137833046,121.7625052404211],[86.4287969034798,121.58661150818907],[86.63659503917842,121.51827520188652],[87.27662147397442,121.31079142910178],[87.39128244075026,121.27283986210762],[87.42876895122419,121.26076173413063],[88.14421878921587,121.02364747285648],[88.42756617015408,120.93221342807865],[90.34626320692243,120.30343814072093],[90.42921182746663,120.27613022058438],[91.1629381188922,120.03044202203425],[91.43029592645274,119.94338320073135],[91.53540427414782,119.90806685421049],[91.90584506113461,119.76783122790484],[92.14461832826828,119.67901432025485],[92.24341607310126,119.66041392467743],[92.43234483446952,119.57849733287836],[92.74157955522699,119.44190342020056],[92.94523921462968,119.35165745071959],[93.46254176606541,118.3282432125769],[93.47877866566684,118.29603697921614],[93.59058555055859,118.07003873757051],[93.82344027525622,117.67265563966846],[94.0434145658173,117.30330419409168],[94.19387100413292,117.04436381148702],[94.45834852274778,116.60063529634692],[94.46323214235062,116.59233016354813],[94.61520744293713,116.31214353440453],[94.90849010889563,115.76463148970473],[95.15066676111294,115.32148448905002],[95.2583704036278,115.11907884488514],[95.46444864211506,114.74208179745096],[95.6083474663947,114.47396528594327],[95.68548421821241,114.33192012680107],[95.95393141540856,113.82742457120732],[96.21720997921396,113.34296924082538],[96.46340823401292,112.8853384988411],[96.64419265257177,112.54749683157807],[96.74076490219801,112.3546596007904],[96.93634771278204,111.9636748752016],[97.03975897688665,111.7812731962618],[97.07103350784128,111.7258142350225],[97.22984351075083,111.36722409496862],[97.45221845813697,110.86508678444822],[97.66584475515882,110.37964600149236],[97.83518934140919,109.9904616414078],[98.09566900251656,109.38961762916519],[98.3612795509325,108.77552569704011],[98.4244830683134,108.86825611027885],[98.63863987767355,109.1787345176857],[98.78496746428871,109.3937947004436],[99.04548131659386,109.76923066823095],[99.26405785261733,110.08627013737642],[99.4207827818083,110.25963219813826],[99.48297072433415,110.32745590185985],[99.53912984859942,110.38916407420749],[99.98448080709876,110.87191362801413],[100.41587459320128,110.74110869804869],[100.68744676921288,110.65653509836294],[101.11885949394747,110.5246235338347],[101.69384720139543,110.38763446250705],[102.17678982272176,110.26997652457128],[102.41094757313785,110.21432697276225],[103.07357076006028,110.05226613184078],[103.40708009217477,109.97262884241738],[103.81879368732888,109.87220827653434],[103.87855842119947,109.86078360523257],[104.14917582786862,109.81016601135619],[104.40348878567724,109.78227956615297],[104.75785881094535,109.74203567938045],[105.40101243996386,109.67088879086633],[105.50771372423044,109.65870635802783],[105.64972185571133,109.63412577042692],[106.4005438724994,109.50622965113513],[106.50461319564752,109.48813814011976],[107.11942249621947,109.38259628992617],[107.36016706893471,109.3404518989073],[107.40106408865178,109.33350579414767],[108.2149055904201,109.19066496257432],[108.40085879040835,109.15906948015945],[109.05906544174907,109.04602265768557],[110.4004038023665,108.81061183778058],[110.77972006883998,108.74379445159849],[112.40677629907876,108.46451591460766],[112.49596000882515,108.4486835531709],[112.89198682671204,108.37906528105992],[113.02377107940616,108.35585255958333],[114.41660378057178,108.10831160405621],[114.56745940792891,108.08097442042742],[114.90540550256155,107.82834223485574],[115.42697070766803,107.44402144025824],[115.482496245725,107.4026346510116],[115.5561077871927,107.3481124557467],[116.05561947523961,106.97178663813602],[116.43566575748847,106.6915599984209],[116.89002038721951,106.35320712329909],[117.20384624885716,106.11580706255891],[117.44301865881931,105.9393503099672],[117.77713800631292,105.6876923277671],[118.22168738090862,105.35825577219622],[118.35091536479236,105.26023423698582],[118.44945736214231,105.18738673519158],[118.5604462809241,105.10396249839717],[119.66294661089458,104.35966031207616],[120.45558136428448,103.82619634287919],[120.60203798857484,103.72665973933996],[120.71148258213813,103.61709719853286],[120.94908164579769,103.38152043761202],[120.97375038362706,103.36395666213582],[121.25446014531649,103.16016305925396],[121.4271873161137,103.03674848208922],[121.45747266842285,103.01027561715696],[121.55610605322923,102.92294525274411],[122.16563411821696,103.0671873730529],[122.29445276481121,103.09765898347065],[122.4488436328678,103.11611211058828],[122.65224323853468,103.13997717663224],[123.91561365685251,103.28442124295617],[124.42570072898562,103.34600880341165],[124.76982629531248,103.38769454844065],[124.43097738904763,102.93584606283642],[123.98158154630207,102.33602448523251],[123.84658351017167,102.15415460650608],[123.4626103721609,101.46578852896356],[123.39745374375012,101.34942877203734],[123.31081162041056,101.19497807839004],[122.84049673691023,100.36169185297247],[122.48465893551312,99.73310069910922],[122.27994412223403,99.37459731921717],[122.00854247932006,98.90054566661564],[121.71496725940366,98.3897700127581],[121.63440325250171,98.25020745288991],[121.52751538911042,98.0651958112043],[121.49269800501642,98.0165985319189],[121.23329448782404,97.66011059393763],[121.18541455444144,97.59354353887483],[121.39871312953657,97.49857958543356],[121.49182363755664,97.45686252725372],[121.53479823217396,97.43749173943894],[121.58808846160726,97.40799973003378],[122.48471591127775,96.910144774825],[123.35034599907634,96.42593805404904],[123.47534664555748,96.35545718946528],[124.06122664625465,96.02135607386747],[124.42194835311764,95.81855175820598],[124.46232395388925,95.79317594516482],[124.7789414807048,95.59193189603239],[125.74575673543538,94.97948605688853],[125.5781188257298,94.87184585579178],[124.91613778730785,94.43762397985155],[124.45913331720801,94.1404351699475],[124.03277153466688,93.86551149216747],[123.48488274213356,93.50645589484233],[123.46818205302166,93.4933800290265],[123.43321224534418,93.46650815250516],[123.38779479740285,93.43125423979492],[122.8667263701095,93.03501035129445],[122.47108230397336,92.72838979347118],[122.08527396098465,92.4339792472162],[121.94567220560222,92.32875906069559],[121.73001184958855,92.17625009396556],[121.47016149868452,91.98949724594442],[121.2878008036518,91.86163943135529],[121.46860281912136,91.54422801547854],[121.52330361220065,91.44718257789818],[121.59183092611148,91.32473361199284],[122.06940459757743,90.47052097776348],[122.44491160809628,89.79137520661945],[123.15182243335803,88.50937257835017],[123.41037132743749,88.03379069239324],[123.46451584277673,87.93378893554066],[123.7957478726529,87.99050373809074],[123.91489670677838,88.01081693960408],[124.39553244256126,88.09198055501221],[124.76930944388718,88.15415883863949],[125.38195906381891,88.25703987946966],[125.62394636997402,88.29665699364128],[126.37003059920332,88.42147420765905],[127.18917309760559,88.55614530404377],[128.19483368316017,88.71899862712365],[128.3498515719989,88.74414839363529],[129.57684203375382,88.93874322813332],[129.90365975214337,88.99738650116083],[130.32952156862194,89.074693953087],[131.87556215873917,89.35660151174551],[132.31013223130452,89.4343379550201],[132.43041071904474,89.45560438736807],[133.11414459716585,89.57947775923351],[133.27433404071323,89.60798043828059],[133.30243642136548,89.61299575679242],[134.11926155281793,89.7569430276248],[134.29554387834128,89.78825262921168],[134.9638430273049,89.9052437440809],[135.28840342443954,89.96265910233377],[135.80833992778292,90.05327928079214],[136.28117186849698,90.13671121527918],[136.32855845504477,90.14494604960299],[136.6763381798691,90.17781000476029],[137.27378320816024,90.23555006626557],[137.58238823157438,90.26450397083431],[138.26644315698175,90.33039856498615],[140.12104906699867,90.5071510968046],[140.25327476535492,90.5190651869917],[140.81281904501654,90.5713571387728],[142.24211655953053,90.70172529050572],[142.5786679267948,90.73191583624329],[142.69290813404484,90.74187997105689],[144.22776733099647,90.87950698906505],[144.59294924412302,90.91136506744716],[145.22147383253915,90.96389736984358],[145.34256750898447,90.97384410897585],[145.43404091924987,91.52251307756745],[145.47764641612775,91.78364362393425],[145.60019880425216,92.50303149685871],[145.80577891901044,93.70132852574247],[145.8648149748858,94.03831696430055],[145.92847447176723,94.46825796025549],[145.96276230211137,94.69391503540308],[146.02275595192881,95.08678437118999],[146.1661577055783,96.08423866885882],[146.16808998450557,96.09510145106958],[146.19524555234918,96.10228030285174],[147.47838625052216,96.43473533710323],[148.12972925197525,96.60179684867309],[148.19519621378763,96.62508378240231],[149.63962076986766,97.1334865019959],[150.19220921394307,97.32685647671647],[150.3963109365045,97.39816008102554],[151.1897774970385,97.67304066640455],[151.6435099858023,97.83118595644414],[152.1834838283619,98.0172803987812],[152.43652365414727,98.10617174615763],[153.0669565589398,98.34466600392042],[153.46385119905642,98.49423062392302],[153.40140803738072,98.34060309172872],[153.21321211415085,97.87113429937219],[152.8733871005797,97.02800111567748],[152.61937261537204,96.38040473783762],[152.4850604915592,96.04259029173333],[152.41545128826928,95.8446039114398],[152.22021381092782,95.36906120597928],[151.82292435268488,94.40788233504105],[151.74598560205774,94.22186048880631],[151.5162207800765,93.79752492706882],[151.4361229985931,93.61006898975654],[151.3556296024579,93.4231737159398],[151.25167175424406,93.18102346830997],[150.93015140442674,92.43995903027496],[150.2751621143794,90.92682376740044],[150.07938591558593,90.47733616460675],[149.9283729920958,90.13115780361335],[149.74233793111446,89.70733708801129],[149.64786090582425,89.49868678424801],[149.48109851786413,89.13106373537798],[149.72518046646834,88.94542579127815],[150.29097517636052,88.51823299761392],[150.29359795109394,88.5162225353661],[150.85270082936339,88.08366512247846],[151.28796537621483,87.75179929154326],[151.41651056694877,87.65214327943367],[151.58359830557953,87.52317454416267],[151.97663142282371,87.21569988556797],[152.28278633476572,86.98015651699897],[152.86970518730894,86.52208680753766],[153.0972424979498,86.34239560620637],[153.27357107197628,86.20503972810084],[153.39420768741655,86.1097945050867],[153.27744548998427,85.76465726358805],[153.19541019685636,85.52369629860145],[153.1503300439778,85.39212263021349],[152.85269822402898,84.52767487100402],[152.29957426501957,82.93982076575001],[152.27562636985908,82.87170686832951],[152.15599817859808,82.53970061551726],[151.92748715746484,81.91720549620383],[151.79462131689598,81.54811094690066],[151.66231808956854,81.18902199973877],[151.4327377053201,80.5582242921442],[151.39682950265637,80.46107818283937],[151.29716060956181,80.1907983436356],[151.12591231714438,79.73358411157187],[151.06465824403227,79.56753271223893],[150.92408276799534,79.19499930273588],[151.28558716657335,79.12390333266228],[151.85120538650887,79.01269791098869],[152.27332846545258,78.92875045870701],[153.85407704577,78.60765753711924],[154.24681690669408,78.52713422553225],[154.3517013842389,78.50563253781601],[154.45006618425768,78.48507081816817],[155.23295082326734,78.30714009478791],[155.62830080952574,78.21822920787542],[156.21891482025765,78.08346172114634],[156.9076979562438,77.92753639460663],[157.20597284143207,77.85925767582192],[157.39315389680726,77.81610931111382],[158.19436385665043,77.63358001080377],[158.19789864294046,77.63276126465581],[158.21337732504426,77.62919987326293],[159.00147247332274,77.44481405675506],[159.1823156273203,77.40379151701734],[159.8051912770963,77.25775128274753],[160.17007415689343,77.17451781329754],[160.40105931494452,77.12080437153597],[161.01492251013235,76.89744278101294],[161.74991293749017,76.62830641579708],[162.1486626347031,76.48140278503709],[162.7675543304023,76.25061315326703],[163.13754020861523,76.11598346323501],[163.4933928662972,75.98347302413552],[164.1271014554044,75.75127343753952],[164.2201092240051,75.7166309027291],[164.47733919799379,75.62153342905444],[164.47995037912068,75.62055101271213],[164.95573775017635,75.45491942862684],[165.11688868889965,75.40040507515718],[165.68915270767056,75.20057663876472],[165.69648682592265,75.19791354742605],[166.10658496857187,75.05221514946948],[166.69166949150008,74.84067610193073],[166.8391354540326,74.6049831757785],[166.9390275827016,74.44221922657073],[167.0225439845269,74.30935404249928],[167.10211246970377,74.18624839429164],[167.32928786473516,73.8291400231139],[167.47495028523605,73.60231742924393],[167.71753276137287,73.21613712039941],[168.10230968726046,72.61767006667468],[168.11361247422303,72.59986495302567],[168.4945373210076,71.99251611891628],[168.7481022411464,71.59621238938064],[168.8821422283325,71.381267120445],[169.09567473546036,71.047807418335],[169.2700111780358,70.76986646377067],[169.3823326224479,70.59338604491509],[169.65431401826947,70.15703969382123],[170.01549905830032,69.5914409720266],[170.04281247667691,69.54751965665778],[170.08634817217404,69.47930443399775],[170.64630624562616,68.5879603722372],[170.81116072235017,68.32226866280547],[170.89276091516672,68.19410275015628],[171.07396455130913,67.87081673175926],[171.17449718127148,67.68797031573864],[171.23140770129947,67.58577813809049],[171.52674141253772,67.04470066322445],[171.78419589323764,66.58342632252952],[172.05714185855882,66.08642326622946],[172.48011724936686,65.3178781948953],[172.87712912686732,64.57952992840514],[173.03761907576416,64.28009361194171],[173.27860159106987,63.82488449420303],[173.4120132151109,63.5768959290247],[173.8668629140347,62.72170284760961],[173.94448004400522,62.574890114035966],[174.00826594592732,62.45389187800726],[174.2960494886417,61.904531052508716],[174.552392230743,62.010199255438906],[174.9779494295572,62.18544416338568],[175.25079589539322,62.29597155780881],[175.9432308103734,62.57999987298527],[175.94976086405316,62.58263660004748],[175.97363287549047,62.59221776037441],[177.89947714620368,63.363305455973425],[178.42929131274022,63.57520119808672],[178.876327423069,63.752178214651295],[179.16484179008341,63.8664570765699],[179.8540177440224,64.1375993300953],[180.92278899673434,64.55842291852545],[181.8117333347375,64.9068271878006],[182.38582853703832,65.13147838618622],[182.6510689514817,65.23435175313136],[182.79135139998817,65.28661268139282],[183.4499630282756,65.53375074420589],[183.7717178632395,65.65340067498343],[183.96645640917706,65.72581902984795],[184.75265332622655,66.01611928554242],[185.54128109913685,66.30840528631948],[185.73308219266448,66.37873973854272],[186.0502154852909,66.49423605640033],[187.69856750454835,67.09138986697428],[187.7306222567888,67.10288039855018],[187.72175953110633,67.38411864815828],[187.73137002457187,68.38864948983125],[187.7319031242985,68.4443714066069],[187.73293056602492,68.50350667587632],[187.74937104605206,69.48352747065277],[187.75579113792148,72.00555938284974],[187.75421620080073,72.39908468259635],[187.75210969511224,74.30535476483311],[187.7523543048338,74.51202959376921],[187.75403784757344,75.34175998385126],[187.60654770110017,75.52793857029353],[186.96578352703727,76.35253765459373],[186.81021336477747,76.55542273138566],[186.60523515903128,76.81666721119083],[186.37493411440428,77.1173070830937],[186.19531278095542,77.34824295991582],[185.94113974086406,77.6815768099052],[185.60569538179752,78.11051697116751],[185.42467942543408,78.34589100787223],[185.0718727672628,78.81020160122426],[184.65444671519057,79.34627619052387],[184.63376275112174,79.37348595557113],[184.60654010587876,79.40850769383272],[184.2024018068243,79.94184814785385],[183.88638876461033,80.35037440339818],[183.6096428684928,80.71309894984418],[183.09887454101732,81.38334522675096],[183.01411457865598,81.49512903498959],[182.51211416817216,82.15931022171888],[182.4008124817964,82.30687317960621],[182.40644255530702,82.36627249031102],[182.43614362893442,82.67036190556689],[182.48754754782985,83.24988329690373],[182.49799132033576,83.36743342154622],[182.58909074410087,84.36301810896366],[182.58962116886806,84.36881011723948],[182.59447369085746,84.42061456036724],[182.68466283470545,85.36869662536341],[182.6946243667417,85.47470401468533],[182.78047204244132,86.36703042030989],[182.82718083937135,86.85701600054614],[182.9757311338968,88.36131291005994],[183.12595774412003,89.9130580004787],[183.1813326265081,90.46689841704753],[183.25874824159916,90.66675812510807],[183.56347893237137,91.45363198275588],[183.91574885683758,92.35357533404327],[184.09720436618767,92.8128359694733],[184.3057746096673,93.3501626288987],[184.3758792400632,93.52768556627176],[184.5522235429588,93.97870874704827],[184.65730657291707,94.24222101692656],[184.6979096606526,94.34674182886626],[185.19920536387062,95.61577040661007],[185.547784697563,96.21772223432575],[185.6180373493193,96.33892199455087],[185.707391462438,96.49105740373868],[185.97621539688134,96.90719594348178],[186.2465374039087,97.33430175388597],[186.2646347606628,97.36240912067109],[186.36192764086064,97.5162322116968],[186.54392103071132,97.8069860014269],[186.74795722067836,98.12665509910423],[186.8739114249931,98.32903555558724],[187.54509425007393,99.38804783835215],[187.74529117202633,99.70463158343082],[188.12456954111803,100.31633352334637],[188.28649497053019,100.57440759929912],[188.30353567112303,100.60183323732609],[188.54700338651423,100.88965270806474],[188.74268933198206,101.11653514664174],[188.9059282194105,101.31010562458638],[189.20288904481856,101.65509852403105],[189.55263595965323,102.06573646504722],[189.75648589525625,102.30187812069455],[190.47161045848492,103.12249247712181],[190.83169106731057,103.02609870283366],[191.00598899758822,102.97899151144446],[191.55977409090156,102.81888122130442],[193.26406405882045,102.32054452794652],[193.558757905498,102.23309699908432],[194.25565468564113,102.02214725013093],[194.55542852081135,101.93306594366675],[195.02007484310656,101.79184651134445],[195.54992551412144,101.63303020582748],[195.7839051957435,101.56173123572798],[196.54385871073575,101.33162715162946],[196.54773632328371,101.33043949723276],[196.56059784331967,101.3264876358329],[197.30867049524747,101.0932720692366],[197.53559584568654,101.02350585751628],[198.06989375942015,100.85566053893405],[198.38051907480622,100.75835578466825],[198.5216470778168,101.10008205645023],[198.60786942930687,101.30777210187475],[198.67228360847872,101.46214497725767],[199.0209361682184,102.2912607644648],[199.49219661894318,103.40126407982333],[199.60281231489424,103.6610472433935],[199.717425882096,104.25950256349958],[199.77243042681616,104.54385364456942],[199.91062283942875,105.24493255439512],[200.00506034720362,105.7155581947795],[200.106869687302,106.22973708213092],[200.1203730156453,106.29636851588296],[200.38167414303433,106.42759681771093],[200.98758552061327,106.73231908563392],[201.17466567650496,106.8257651865559],[201.47865177407527,106.99027973508406],[201.90036013232321,107.21817564627871],[202.27442105866635,107.41834725142134],[202.47778807850295,107.5285012650844],[203.1738389069094,107.90299055069474],[203.4759309584081,108.06444070034732],[203.72628879395154,108.1979808775667],[205.47305093644778,109.13124202880985],[205.55164094410225,109.17316238344038],[206.47268848150483,109.66083308377671],[207.37810507735048,110.1413523485272],[207.47095911654975,110.19038146122583],[207.58298985254822,110.2494353019793],[208.47080756481898,110.71500217804268],[209.2070594828499,111.09983580460177],[209.47223168805482,111.23797370004583],[209.5013848472332,111.25302544341756],[209.4713289218676,111.32945878268825],[209.2609518885911,111.87356268973005],[209.1848813885835,112.07137540504208],[209.0404488967294,112.45320379608152],[208.89198525350753,112.91620070061701],[208.53192916059865,114.01985104460003],[208.5124333246225,114.08138422676296],[208.4482535308657,114.2796833834765],[208.27419909808773,114.82787085928513],[208.22017079908298,114.99681180600001],[208.0384471207126,115.57440993168154],[207.91083804878073,115.97365140464923],[207.67007145350254,116.73093713883904],[207.60109697843316,116.95061355590701],[207.4454970145689,117.44177748878423],[207.29318234975256,117.928582325109],[207.04740814530444,118.71384084882911],[206.88059413135971,119.25102888854312],[206.68845954346787,119.881131420748],[206.46294154800736,120.62755997848576],[206.44571277724845,120.68474991123328],[206.44450071795407,120.69627305728577],[205.5076887783857,120.8526668113096],[205.46429060638542,120.85997664816108],[205.45491915065426,120.86156720142566],[204.46663015149443,121.03275744155307],[204.24178113578546,121.07177774452518],[203.810373533382,121.1477634305281],[203.46935564274844,121.18794933263027],[202.5755820985388,121.29643646993588],[202.47996607442957,121.30819422418142],[201.47700347732382,121.55202467890426],[201.23899139664294,121.60945614414804],[200.59102598998908,121.76704298809395],[200.6334712179696,121.84754553843754],[201.05658022722284,122.65884070064686],[201.4716766269397,123.56382121335362],[201.59283820711624,123.82668606419901],[201.87181390116842,124.41958178697729],[202.055430281109,124.81716824400007],[202.18755654988158,125.0971676234704],[202.47133132626456,125.7049114042381],[202.5044491346177,125.77445598281257],[202.51958107728177,125.80684171337803],[202.93124378517643,126.6720876308592],[203.0209711519003,126.87556610666819],[203.4208333923384,127.78067479807721],[203.4882261876127,127.9321801307391],[203.75132287392043,128.51427679261283],[203.86282149299734,128.76502958439693],[204.0622437197302,129.20502793658255],[204.23140255700326,129.58030008587127],[203.55820504830874,129.69685242396096],[203.51548425851658,129.7043544579123],[203.34092704172556,129.73558437117396],[201.53039903859778,130.0617888496377],[201.091350835291,130.14148683836348],[200.53934711151348,130.2429436897893],[199.85946588611998,130.36764555167673],[199.54772884695092,130.425424517238],[198.62658281307108,130.59628281129875],[198.5551259026844,130.60964698127583],[198.2601935526219,130.6649863945701],[197.56307796746327,130.7974378308533],[197.11667857270527,130.88161058449182],[195.58229312755554,131.1762351123577],[195.30895315398294,131.2284995021923],[194.11246759487656,131.63632632905572],[193.60208431934484,131.81252211804787],[193.33292705078003,131.90560799421218],[193.2371561116211,131.93894547331314],[192.61673474223895,132.2852977141879],[192.00573496862512,132.62649648197765],[191.65930746896134,132.8223909758987],[191.65049444023816,132.77076331784372],[191.6303709575109,132.6485180903296],[191.62704397459967,132.6284643109839],[191.62643401738487,132.6248066483376],[191.45979666215655,131.6355055257519],[191.4377199208786,131.50765451344407],[191.272320383348,130.14761515568554],[191.2463827354156,130.044036307528],[191.0880054066435,129.40359722485672],[191.07435596671897,129.3492794602512],[191.009113210585,129.36467018189072],[189.11336662325294,129.81717606780808],[188.79361570256287,129.95607253348822],[187.69798941298617,130.42721500825618],[187.6544612273509,130.44564952499664],[187.1224642637667,130.6740108897623],[186.1254130036212,130.73840187199974],[186.10094146649044,130.73990717994687],[185.30738949837774,130.9265366311597],[184.80850538239105,131.0472665077845]]],[[[56.51347976205059,136.99758118910992],[56.54204349686545,137.01160604453025],[56.894229963436395,137.18633446093577],[57.21141514585097,137.34170469441597],[57.366044333711905,137.41728886209523],[57.88114904343775,137.66751996450944],[58.001209459947844,137.7268185149892],[58.359850820252774,137.93611916432027],[58.79139516622699,138.1842865528802],[60.34856878797562,139.079554458756],[60.51517831241253,139.1748026167475],[61.04294153301234,139.4722715295671],[61.345733817980765,139.6454278456996],[62.24557045090189,140.15505184686089],[62.344508724669836,140.21080609754551],[62.480004437055236,140.28703462901177],[63.42198578995467,140.81419516709857],[63.149621320592274,140.9394943991072],[62.34584367145102,141.30563950297255],[62.01260895604322,141.4588468989821],[60.59222365334624,142.1085320842066],[60.56713286263267,142.12012957572057],[60.35376701894213,142.22038275537105],[59.31330506440651,142.71392479626388],[59.27952970738428,142.6436048797758],[58.55435431557761,141.12502343168995],[58.229684643256896,140.42621086668655],[58.099961130153865,140.14663890661404],[57.26853224203268,138.38137416126347],[57.173587024392106,138.17753847866152],[57.0048219133955,137.8186186489996],[56.902938244765494,137.64919720262588],[56.62430313752806,137.18479193400208],[56.529452001843694,137.02428359758338],[56.51347976205059,136.99758118910992]]]]}}]}
