{"type":"FeatureCollection","bbox":[142.61094478031734,938.9614426211128,1360.313623220652,1660.1007567804218],"crs":{"type":"name","properties":{"name":"EPSG:cartesian"}},"properties":{"note":"Created using cartogram-cpp / go-cart.io with custom projection, not in EPSG:4326"},"features":[{"type":"Feature","properties":{"Level":"ADM2","shapeGroup":"SGP","shapeID":"SGP-ADM2-91842731B16705465","shapeName":"Ang Mo Kio","shapeType":"ADM2"},"geometry":{"type":"MultiPolygon","coordinates":[[[[684.0488762729613,1419.5274593730076],[702.7505986585419,1463.2603465589214],[689.8684895337535,1461.3118502865468],[656.8657629545328,1441.2214753501012],[527.3680102607482,1453.2949035939394],[432.5283745405566,1472.2158345796859],[429.6473626962421,1473.8649865775],[431.31615777311504,1472.9481280712334],[431.27668407414484,1472.9728467650295],[431.6525022718844,1472.732808436821],[432.37044777394254,1472.253607575648],[433.52280509656714,1471.3838377010175],[435.8431036923333,1469.1544499343004],[437.5595177796257,1467.1087949930006],[438.5786095524151,1465.7815392559157],[438.3069921751073,1466.1477077121078],[439.2186531568317,1464.9043406599192],[441.81365964115344,1461.0293716672634],[443.20698471473463,1458.7747187230507],[447.92443734860154,1450.4462249039393],[450.6354422707851,1445.2628310912885],[451.09036546654505,1444.3772570324104],[539.4448568303881,1350.125757834381],[639.7999181985998,1291.3673447187261],[663.096859258229,1333.0634994619718],[654.0537107880157,1364.2559382866648],[684.0488762729613,1419.5274593730076]]]]}},{"type":"Feature","properties":{"Level":"ADM2","shapeGroup":"SGP","shapeID":"SGP-ADM2-91842731B15087516","shapeName":"Bedok","shapeType":"ADM2"},"geometry":{"type":"MultiPolygon","coordinates":[[[[991.518046563405,1106.4284794795667],[998.8238799909452,1105.2585422661093],[1039.7217626444703,1124.9998567002992],[1117.7294414873288,1151.734119270615],[1167.1310916701948,1178.2153525338356],[1161.5972010789262,1201.2906905643206],[1124.674366217913,1214.2047192842965],[1094.3466966901278,1244.2756897857068],[1011.6492191163887,1260.1916271856053],[964.7946387712126,1300.1520857932069],[955.5044106095979,1292.7042983979159],[945.2301802914322,1283.9371821591826],[946.6071422888972,1285.3208946028267],[930.3744806683246,1272.9840223117167],[922.0936722155658,1267.2983586772314],[916.0538442198197,1262.8232201683115],[884.4962620022445,1237.08796846922],[884.1733786879657,1205.0279008792986],[864.5100918985565,1151.8298033286562],[866.5040521411509,1126.391749889989],[877.9712450802497,1095.2674544471506],[919.9617802086725,1105.4906904955099],[924.6682288609079,1085.782104730777],[991.518046563405,1106.4284794795667]]]]}},{"type":"Feature","properties":{"Level":"ADM2","shapeGroup":"SGP","shapeID":"SGP-ADM2-91842731B69392651","shapeName":"Bishan","shapeType":"ADM2"},"geometry":{"type":"MultiPolygon","coordinates":[[[[450.6354422707851,1445.2628310912885],[459.98864452621405,1425.5916226074253],[470.1535665715462,1402.3380542330542],[465.1835063126743,1413.8114262375364],[474.59845693390866,1391.6665803807987],[475.9748588916983,1388.2567361110798],[487.7455915970182,1357.78723412782],[505.6796668620912,1301.5584331864432],[508.4546138835246,1290.5593953199314],[505.9240177326708,1300.7222924229466],[508.31578441543513,1291.255954195296],[509.0918430532786,1287.9423579935285],[509.88669742514617,1284.5378220545867],[511.3506070563731,1278.1212336279755],[512.4116962450299,1272.2442791602816],[512.5209164686171,1271.7234349975804],[512.6424119087711,1277.972209933865],[660.530424521735,1241.3154974989943],[639.7999181985998,1291.3673447187261],[539.4448568303881,1350.125757834381],[451.09036546654505,1444.3772570324104],[450.6354422707851,1445.2628310912885]]]]}},{"type":"Feature","properties":{"Level":"ADM2","shapeGroup":"SGP","shapeID":"SGP-ADM2-91842731B95017104","shapeName":"Boon Lay","shapeType":"ADM2"},"geometry":{"type":"MultiPolygon","coordinates":[[[[207.52525155593543,1226.596312077912],[208.47549142616077,1225.1801768795835],[208.71042061695763,1224.8244432577224],[209.52698734021453,1223.5929413104982],[209.08976681544522,1224.2779047234603],[209.31238716422575,1223.9450943230258],[209.30825387506462,1223.9514325542088],[208.607025660999,1225.0247086994686],[210.23552254979234,1222.6463431475959],[214.40197534376972,1217.039883557512],[241.33048174526908,1193.190733962369],[198.983509932373,1240.3636672492491],[189.66468268631672,1257.0263988478632],[206.2245101876152,1228.5356210780901],[205.11752975187176,1230.199155638847],[204.64091835699728,1230.9246900332223],[205.0603094025913,1230.2758352354933],[207.13143726471515,1227.166775531374],[207.87309003394097,1226.0705996950308],[207.35363504074155,1226.8439526679763],[207.222621328395,1227.0414543413617],[207.4932451561805,1226.6376979478446],[208.08787515454378,1225.7490032706087],[208.5866024869575,1225.0060596383505],[208.1782879693634,1225.621967345298],[207.24019232156297,1227.01567542498],[207.52525155593543,1226.596312077912]]]]}},{"type":"Feature","properties":{"Level":"ADM2","shapeGroup":"SGP","shapeID":"SGP-ADM2-91842731B11718063","shapeName":"Bukit Batok","shapeType":"ADM2"},"geometry":{"type":"MultiPolygon","coordinates":[[[[398.4539798058263,1306.0038256142668],[381.76108423113845,1382.2507284744452],[414.16257898883987,1438.949655335536],[407.8807421495839,1472.9074668444819],[409.2045132390669,1484.26566239443],[200.06740981251164,1442.0508789073954],[173.58429181979938,1578.372020385788],[173.46885001484193,1578.5206487062574],[173.46396929789097,1578.4525943237265],[167.18983405734514,1560.5161289504904],[211.5938868398409,1428.9404424261297],[229.12496077375283,1419.6048555547832],[243.23355892616487,1412.6490768845786],[258.0978543224156,1406.0911018837746],[290.53986133988144,1392.0930170114584],[336.1110225067096,1346.4584296994801],[338.5933733908016,1341.8999339656275],[350.0021029774591,1317.0627513690222],[388.56832949232756,1256.5320104606387],[392.9963445971896,1251.8585445282267],[390.3117540128118,1266.176621515658],[381.2594179993645,1285.9551481359726],[382.44249007449906,1293.0126838586787],[390.185861305051,1287.2223409695941],[369.0551644231286,1322.929614503391],[398.4539798058263,1306.0038256142668]]]]}},{"type":"Feature","properties":{"Level":"ADM2","shapeGroup":"SGP","shapeID":"SGP-ADM2-91842731B75613840","shapeName":"Bukit Merah","shapeType":"ADM2"},"geometry":{"type":"MultiPolygon","coordinates":[[[[563.6782720293419,971.545077883793],[563.3109161643425,971.514078617349],[564.215293656763,971.2687757148739],[565.3308231873576,970.698550299251],[565.6590674002076,971.0504481995382],[576.3223193034206,965.373796474827],[586.0163224860589,960.7476734098074],[599.6958328661101,953.769007074032],[612.3342636273698,950.7598604998382],[606.3440639199187,958.7975925838358],[587.528110821167,963.8038419616892],[566.6607744719481,970.6317431899795],[565.9615055059999,972.6159359001094],[595.6666241404901,971.6021052946207],[625.2219560911366,974.7071199365143],[628.3813029471418,957.7524041269952],[634.4731184486277,961.6453516979406],[638.5637193815611,971.3270416644696],[650.8317066330333,978.8441000345565],[646.3055011683393,965.4120770900556],[680.9512333719383,992.6673713833876],[678.8293843940228,994.0498345682792],[659.4249864962019,990.6275471891744],[659.0520637076581,993.9859461426704],[645.6422117880695,1057.1117970923074],[618.4807453524247,1074.1202429091786],[607.3465733601722,1081.4282993086922],[563.4540064283776,1115.192489674413],[557.6220584421528,1120.2918037095055],[557.586224811648,1120.3214864488477],[557.1728080161728,1120.6041324511416],[539.9800339726152,1127.9795530606268],[513.9015849310684,1132.2945826855394],[513.961523888452,1123.6382589150696],[495.8317057037847,1121.7886680255967],[481.7869464917353,1094.278071109857],[480.2038158515005,1078.305519224182],[488.27319258844415,1060.4937635105234],[488.98439628562573,1036.844178991359],[481.18624817917134,1026.12740697072],[506.83334087706464,1001.3460294493574],[511.613456450464,1006.9892650276158],[523.2331203992414,999.1907341873157],[527.16099096204,1001.3124497668829],[538.7616885377905,990.7704885136047],[533.6483937650605,992.0925058903022],[528.2168457109362,996.8127462983343],[524.521487333116,995.9721045759474],[528.8936565472261,992.0229230837754],[539.1242704640372,990.3453009135048],[552.2789085588585,979.9319294287739],[548.3255934089285,981.0915542111787],[563.1557870493044,973.8696087257961],[562.8757152857165,971.9595478936994],[563.6782720293419,971.545077883793]]]]}},{"type":"Feature","properties":{"Level":"ADM2","shapeGroup":"SGP","shapeID":"SGP-ADM2-91842731B44469853","shapeName":"Bukit Panjang","shapeType":"ADM2"},"geometry":{"type":"MultiPolygon","coordinates":[[[[398.4539798058263,1306.0038256142668],[451.8468564268641,1240.9970734340284],[511.78917720458026,1271.9111202236306],[511.4558041973009,1275.4878758486582],[509.0657360926282,1287.2008649024879],[508.9267661408687,1288.0870039834972],[510.1046108594712,1282.7445347155324],[509.01230186108353,1287.797033797882],[485.6252095413047,1363.246047669362],[456.62158678782316,1432.8178654566264],[430.0328647043808,1473.658701759016],[422.7455105169608,1476.9616119086863],[386.6405800132027,1500.2336258317187],[223.9757967012431,1583.6466302095525],[409.2045132390669,1484.26566239443],[407.8807421495839,1472.9074668444819],[414.16257898883987,1438.949655335536],[381.76108423113845,1382.2507284744452],[398.4539798058263,1306.0038256142668]]]]}},{"type":"Feature","properties":{"Level":"ADM2","shapeGroup":"SGP","shapeID":"SGP-ADM2-91842731B90456756","shapeName":"Bukit Timah","shapeType":"ADM2"},"geometry":{"type":"MultiPolygon","coordinates":[[[[388.56832949232756,1256.5320104606387],[434.49250259763136,1205.9924122597167],[418.13992695935303,1198.7649069553804],[418.05928381395574,1186.9330253561309],[439.5570971259561,1163.4822323875137],[451.8689887955269,1156.0626399552482],[454.0284935977818,1166.288035086081],[458.06666735978456,1168.3290841676617],[463.6789053792404,1156.336694855951],[469.34112603704443,1164.5033218457343],[470.3134292235153,1157.7620328807482],[476.64726985797853,1153.9681555798693],[478.2841642177839,1157.964971381044],[481.75530996358884,1153.7866003116173],[489.6465916668467,1172.6470407116253],[498.6374131949455,1185.597933206345],[500.9519167613209,1195.6301959609784],[505.5875597325089,1215.472582326995],[513.2039604298186,1258.8524278846303],[513.1211926314396,1259.518023089134],[512.9362630856627,1263.5122799173432],[512.8221204657184,1264.6110223686758],[512.5428158656993,1268.985624607818],[512.5418461196584,1268.028859736151],[512.4706085198164,1268.8765648556266],[510.4679001590889,1281.4603543352123],[509.75232043285894,1284.7184173426285],[509.44080596940216,1286.0657028939108],[509.02271601627734,1287.8284122511118],[509.01230186108353,1287.797033797882],[510.1046108594712,1282.7445347155324],[508.9267661408687,1288.0870039834972],[509.0657360926282,1287.2008649024879],[511.4558041973009,1275.4878758486582],[511.78917720458026,1271.9111202236306],[451.8468564268641,1240.9970734340284],[398.4539798058263,1306.0038256142668],[369.0551644231286,1322.929614503391],[390.185861305051,1287.2223409695941],[382.44249007449906,1293.0126838586787],[381.2594179993645,1285.9551481359726],[390.3117540128118,1266.176621515658],[392.9963445971896,1251.8585445282267],[388.56832949232756,1256.5320104606387]]]]}},{"type":"Feature","properties":{"Level":"ADM2","shapeGroup":"SGP","shapeID":"SGP-ADM2-91842731B39071774","shapeName":"Central Water Catchment","shapeType":"ADM2"},"geometry":{"type":"MultiPolygon","coordinates":[[[[429.6473626962421,1473.8649865775],[428.8446796065615,1474.2663579209325],[427.92129761754137,1474.6932340485378],[427.9654943906767,1474.6755649381564],[427.7957215840793,1474.7496440454972],[426.5617111047558,1475.2767562545982],[233.2528445452631,1581.6183101206211],[215.4809710678528,1584.9788434166915],[181.4463854474372,1582.600894325144],[220.91115633490983,1584.1838321271491],[430.0328647043808,1473.658701759016],[456.62158678782316,1432.8178654566264],[485.6252095413047,1363.246047669362],[509.01230186108353,1287.797033797882],[509.02271601627734,1287.8284122511118],[509.44080596940216,1286.0657028939108],[509.75232043285894,1284.7184173426285],[510.4679001590889,1281.4603543352123],[512.4706085198164,1268.8765648556266],[512.5418461196584,1268.028859736151],[512.5428158656993,1268.985624607818],[512.8221204657184,1264.6110223686758],[512.9362630856627,1263.5122799173432],[513.1211926314396,1259.518023089134],[513.2039604298186,1258.8524278846303],[512.8618416917698,1267.1206869592468],[512.6767608887931,1269.6409738798004],[512.7629214375929,1269.4118497338368],[512.7667054678385,1269.4551906788245],[512.742292008006,1269.62738049793],[512.6891759889623,1270.0134582240614],[512.5578967690067,1271.2188303118971],[512.5209164686171,1271.7234349975804],[512.4116962450299,1272.2442791602816],[511.3506070563731,1278.1212336279755],[509.88669742514617,1284.5378220545867],[509.0918430532786,1287.9423579935285],[508.31578441543513,1291.255954195296],[505.9240177326708,1300.7222924229466],[508.4546138835246,1290.5593953199314],[505.6796668620912,1301.5584331864432],[487.7455915970182,1357.78723412782],[475.9748588916983,1388.2567361110798],[474.59845693390866,1391.6665803807987],[465.1835063126743,1413.8114262375364],[470.1535665715462,1402.3380542330542],[459.98864452621405,1425.5916226074253],[450.6354422707851,1445.2628310912885],[447.92443734860154,1450.4462249039393],[443.20698471473463,1458.7747187230507],[441.81365964115344,1461.0293716672634],[439.2186531568317,1464.9043406599192],[438.3069921751073,1466.1477077121078],[438.5786095524151,1465.7815392559157],[437.5595177796257,1467.1087949930006],[435.8431036923333,1469.1544499343004],[433.52280509656714,1471.3838377010175],[432.37044777394254,1472.253607575648],[431.6525022718844,1472.732808436821],[431.27668407414484,1472.9728467650295],[431.31615777311504,1472.9481280712334],[429.6473626962421,1473.8649865775]]]]}},{"type":"Feature","properties":{"Level":"ADM2","shapeGroup":"SGP","shapeID":"SGP-ADM2-91842731B90623709","shapeName":"Changi","shapeType":"ADM2"},"geometry":{"type":"MultiPolygon","coordinates":[[[[1303.6544887587652,1275.1399515997723],[1287.7534669772208,1250.1308685876627],[1274.3029485692805,1233.4079327007285],[1315.7555258165962,1287.5852895855396],[1310.7868866179836,1271.0607122304255],[1318.151575062512,1283.703154355855],[1326.1725143249432,1303.4570158051147],[1326.3008084291014,1302.8189579756577],[1322.0074581094914,1325.5693809467357],[1321.774502620466,1325.7746447608574],[1321.6062082248632,1326.027681960428],[1318.7955323054155,1328.6266436386118],[1318.9899142141253,1328.4086966815291],[1318.7319777870657,1328.6175741243694],[1318.0782620642726,1329.2352107876843],[1317.8703394538552,1329.443250174211],[1317.595840554313,1329.6716135055135],[1311.5056315647978,1334.3650581247384],[1309.827554106254,1335.541496881638],[1299.435911876276,1342.9317717560216],[1290.6369324016143,1348.6791660273884],[1287.2743646242293,1350.6778084199466],[1310.6760196024911,1334.6585892334635],[1312.361129694154,1333.309504242341],[1315.7531369038625,1331.027247065559],[1316.6816209404271,1330.263800431331],[1318.0635226166928,1328.9393017351063],[1319.561798905004,1327.4376013135573],[1320.4231416420141,1326.3951653741392],[1322.4804360170729,1324.16470837406],[1322.8917708492509,1321.5715285996262],[1325.6938033181414,1319.192674909346],[1325.1871087494496,1321.3932958151163],[1310.9179260214657,1290.975712344481],[1319.4526777749857,1297.86460699059],[1303.6544887587652,1275.1399515997723]]]]}},{"type":"Feature","properties":{"Level":"ADM2","shapeGroup":"SGP","shapeID":"SGP-ADM2-91842731B22047646","shapeName":"Changi Bay","shapeType":"ADM2"},"geometry":{"type":"MultiPolygon","coordinates":[[[[1326.3008084291014,1302.8189579756577],[1326.552960062484,1299.9134361453273],[1327.3758354617119,1308.6198570896481],[1327.6631765468803,1306.477401260193],[1327.0967982372156,1295.6444140173355],[1328.703327353252,1291.203974739171],[1328.259850490006,1310.8212053005332],[1327.751580026106,1313.9074404267283],[1327.6884199344656,1315.1458716638465],[1322.0074581094914,1325.5693809467357],[1326.3008084291014,1302.8189579756577]]],[[[1321.6062082248632,1326.027681960428],[1321.7951507431649,1325.8086691285632],[1323.3912435519728,1324.4136817250242],[1323.9869331638606,1323.8553540228336],[1324.5449262351026,1323.2639895364755],[1324.849069233428,1323.0163620279372],[1323.4975292935892,1324.3241592409126],[1321.9157390683133,1325.7417344712821],[1321.6062082248632,1326.027681960428]]]]}},{"type":"Feature","properties":{"Level":"ADM2","shapeGroup":"SGP","shapeID":"SGP-ADM2-91842731B37820439","shapeName":"Choa Chu Kang","shapeType":"ADM2"},"geometry":{"type":"MultiPolygon","coordinates":[[[[409.2045132390669,1484.26566239443],[223.9757967012431,1583.6466302095525],[211.16279846066973,1585.459772683307],[173.94740073543926,1578.8311123310339],[173.50142388239834,1578.551264793462],[173.5010558734834,1578.5510077683314],[173.4973972225017,1578.5484544365486],[173.49814824816025,1578.5489815899916],[173.48286639342405,1578.537316136065],[173.47354488713626,1578.5297685826401],[173.47923892305968,1578.534379025375],[173.47455755951538,1578.527517020402],[173.58429181979938,1578.372020385788],[200.06740981251164,1442.0508789073954],[409.2045132390669,1484.26566239443]]]]}},{"type":"Feature","properties":{"Level":"ADM2","shapeGroup":"SGP","shapeID":"SGP-ADM2-91842731B65220759","shapeName":"Clementi","shapeType":"ADM2"},"geometry":{"type":"MultiPolygon","coordinates":[[[[350.0021029774591,1317.0627513690222],[340.070322469776,1206.8038378634515],[342.0959849853055,1191.889368322708],[340.2990015244212,1189.442719640341],[311.48245129249824,1165.4175120136172],[310.213665774746,1160.0212550871017],[332.5223555864907,1152.0635883646294],[351.6480243057408,1127.6861800163858],[357.16085397231734,1126.3446436886509],[357.5285482020863,1126.0166453767147],[372.8674286476308,1125.807442028095],[389.5113568141374,1099.6563309826906],[398.0181386589047,1101.5578573426424],[417.5653123833765,1164.2988948044676],[418.05928381395574,1186.9330253561309],[418.13992695935303,1198.7649069553804],[434.49250259763136,1205.9924122597167],[388.56832949232756,1256.5320104606387],[350.0021029774591,1317.0627513690222]]]]}},{"type":"Feature","properties":{"Level":"ADM2","shapeGroup":"SGP","shapeID":"SGP-ADM2-91842731B10931458","shapeName":"Downtown Core","shapeType":"ADM2"},"geometry":{"type":"MultiPolygon","coordinates":[[[[680.9512333719383,992.6673713833876],[680.9635218306353,992.1343123699183],[692.4526648034694,1007.0499520556691],[693.1945956840409,1008.1286095792179],[694.6367929203944,1010.4825735670089],[696.8215282436106,1015.3897782643362],[698.5237568499142,1019.4098628510554],[700.1004691108801,1025.1141922636039],[700.5223714155267,1024.8433593933828],[700.6482314576981,1025.071151706859],[700.6540479832759,1025.0900131029834],[700.7713040547824,1025.4836948780949],[701.1089682895949,1028.3760915193293],[701.1472625817627,1029.0188344015269],[701.1547807677517,1029.2918007604067],[701.1595796318168,1029.7835386845331],[701.1642181078226,1030.6273368076581],[700.192070573759,1033.8169441284558],[688.0877452268105,1053.8508360991696],[658.9248724074405,1073.3574651945319],[668.3500232101118,1068.9048803070475],[667.3620373751509,1068.7856456050154],[670.6697525515898,1066.1789080726114],[697.2414098300659,1034.4833591898766],[689.3726873246717,1047.4267362219775],[697.2508966368121,1031.8536702988463],[696.7516142652702,1027.8061837892592],[693.9923102366574,1019.9039608874659],[692.1898276598733,1037.5404326286746],[683.7499917403575,1001.2832671742972],[659.0520637076581,993.9859461426704],[659.4249864962019,990.6275471891744],[678.8293843940228,994.0498345682792],[680.9512333719383,992.6673713833876]]]]}},{"type":"Feature","properties":{"Level":"ADM2","shapeGroup":"SGP","shapeID":"SGP-ADM2-91842731B16549460","shapeName":"Geylang","shapeType":"ADM2"},"geometry":{"type":"MultiPolygon","coordinates":[[[[884.4962620022445,1237.08796846922],[812.8941703465199,1199.958295558187],[704.3834063497659,1172.8174365255613],[738.2588655434669,1137.842975502217],[731.7569001407146,1118.980316614438],[728.4006178569388,1082.2387607480646],[755.1600191150488,1075.056586707336],[784.0202624195199,1089.1311260461678],[787.4991618671212,1098.0049831782292],[841.2725537840306,1106.6776971439135],[866.5040521411509,1126.391749889989],[864.5100918985565,1151.8298033286562],[884.1733786879657,1205.0279008792986],[884.4962620022445,1237.08796846922]]]]}},{"type":"Feature","properties":{"Level":"ADM2","shapeGroup":"SGP","shapeID":"SGP-ADM2-91842731B68340411","shapeName":"Hougang","shapeType":"ADM2"},"geometry":{"type":"MultiPolygon","coordinates":[[[[916.0538442198197,1262.8232201683115],[926.6504712387913,1271.2425344735907],[930.3391452169276,1273.6588471404998],[925.7850330210316,1271.0135434879867],[921.9890464078183,1269.1456350585395],[931.9476134021895,1275.2084840767893],[933.9986054723709,1276.8619921239742],[939.9069971542499,1281.1401718267011],[950.3833608552331,1288.8976548068135],[981.6019422639386,1313.8227178082052],[977.3907389024118,1315.6833703170014],[920.7255106531636,1328.191318535918],[851.931209830078,1356.5221801710436],[765.2448343356415,1446.6099751723852],[736.9075680769271,1427.33958027039],[743.5348560852369,1396.222213627401],[740.3787127195196,1329.840681657256],[724.4813568284713,1303.2165884026128],[728.996420521916,1291.2515640743609],[752.3590047881526,1271.9161912204117],[743.114895844948,1267.9805831802032],[760.3718945539146,1261.3979838858859],[798.5344159534365,1227.8126637102414],[812.8941703465199,1199.958295558187],[884.4962620022445,1237.08796846922],[916.0538442198197,1262.8232201683115]]]]}},{"type":"Feature","properties":{"Level":"ADM2","shapeGroup":"SGP","shapeID":"SGP-ADM2-91842731B57983807","shapeName":"Jurong East","shapeType":"ADM2"},"geometry":{"type":"MultiPolygon","coordinates":[[[[209.30825387506462,1223.9514325542088],[209.3781738080407,1223.8503762008147],[209.5844589871247,1223.5332787823304],[210.63218039643465,1221.9145390228173],[210.74266202318262,1221.750722224192],[210.54929706782679,1222.0454133497792],[211.67746498295827,1220.447533547533],[213.58104959007787,1217.8249350910419],[211.64505618760268,1220.4957516280435],[211.9445752464379,1220.0843723032633],[210.25495203730026,1222.5319011494796],[209.83062740630172,1223.1606057304805],[209.59631944283205,1223.522141684997],[210.03272322436823,1222.8849277079214],[220.03280973539103,1209.184367453567],[224.04328174146764,1204.079176053874],[257.4037318333741,1172.5715063322434],[280.4209509426304,1161.557123181917],[288.6804397630552,1158.2153217731188],[280.7749073139091,1159.896846455389],[308.72809999827496,1146.7852306388315],[351.6480243057408,1127.6861800163858],[332.5223555864907,1152.0635883646294],[310.213665774746,1160.0212550871017],[311.48245129249824,1165.4175120136172],[340.2990015244212,1189.442719640341],[342.0959849853055,1191.889368322708],[340.070322469776,1206.8038378634515],[350.0021029774591,1317.0627513690222],[338.5933733908016,1341.8999339656275],[336.1110225067096,1346.4584296994801],[290.53986133988144,1392.0930170114584],[245.2916979496636,1411.6443016073372],[173.45690263683554,1578.4882874608056],[173.45984824093347,1578.4637475213665],[173.74914641608,1578.137248407903],[171.55388122962424,1570.0737002505148],[267.82496119423126,1401.135422185666],[177.66324001930718,1452.634836154315],[273.8349326119634,1395.314435786493],[320.7903889909933,1238.9680120372889],[235.03463809000175,1194.6768845883903],[229.69688959870325,1198.607186316555],[214.40197534376972,1217.039883557512],[210.23552254979234,1222.6463431475959],[208.607025660999,1225.0247086994686],[209.30825387506462,1223.9514325542088]]]]}},{"type":"Feature","properties":{"Level":"ADM2","shapeGroup":"SGP","shapeID":"SGP-ADM2-91842731B44472798","shapeName":"Jurong West","shapeType":"ADM2"},"geometry":{"type":"MultiPolygon","coordinates":[[[[214.40197534376972,1217.039883557512],[229.69688959870325,1198.607186316555],[235.03463809000175,1194.6768845883903],[320.7903889909933,1238.9680120372889],[273.8349326119634,1395.314435786493],[177.66324001930718,1452.634836154315],[267.82496119423126,1401.135422185666],[171.55388122962424,1570.0737002505148],[173.74914641608,1578.137248407903],[173.45984824093347,1578.4637475213665],[173.45690263683554,1578.4882874608056],[173.4705729279656,1578.523193516627],[173.48465847816288,1578.538201242081],[173.48712565583747,1578.5404238141273],[173.48892937472675,1578.5420396184982],[173.48871052234057,1578.5419073972937],[173.48245570155862,1578.5369719973241],[173.48034208170793,1578.5352732499935],[173.47278497492874,1578.5291495328297],[173.47144934232736,1578.5280727420034],[173.30404957816032,1578.3700233704285],[158.4490072442282,1554.259786511407],[153.6055092971435,1367.7431940083995],[162.35256772645343,1327.1395419516589],[166.84037751874513,1311.792941990332],[169.84626255929356,1302.807754199889],[174.70095748783456,1289.728945279562],[175.48503249766173,1287.7799187275332],[172.97979864994167,1294.1045368102955],[183.41067334099992,1269.7231865082836],[189.66468268631672,1257.0263988478632],[198.983509932373,1240.3636672492491],[241.33048174526908,1193.190733962369],[214.40197534376972,1217.039883557512]]]]}},{"type":"Feature","properties":{"Level":"ADM2","shapeGroup":"SGP","shapeID":"SGP-ADM2-91842731B92965426","shapeName":"Kallang","shapeType":"ADM2"},"geometry":{"type":"MultiPolygon","coordinates":[[[[701.1642181078226,1030.6273368076581],[701.3330161384234,1030.3500964790255],[701.4566611547202,1030.1465402614745],[701.7350795544436,1030.0916434661117],[702.3629759498577,1030.4949679761035],[702.9820842175837,1031.2513761746372],[707.9997069256111,1034.8161188275212],[745.6817404969646,1046.0131854198046],[757.7769180618184,1065.1103427016096],[755.1600191150488,1075.056586707336],[728.4006178569388,1082.2387607480646],[731.7569001407146,1118.980316614438],[738.2588655434669,1137.842975502217],[704.3834063497659,1172.8174365255613],[668.7011079952805,1185.8101622087806],[666.0609953039277,1186.6163850447574],[666.3136678778783,1183.0876843928786],[665.8902586041477,1179.3839926908288],[660.8183957619462,1172.3210877581114],[625.7976740064981,1161.4770626814377],[562.4871567733375,1156.46675703228],[561.0488056258605,1148.1985859576946],[582.2463004458389,1137.8321598661087],[612.9981540611834,1104.5657226151072],[631.0327401212421,1135.5423572964405],[633.7268505750911,1132.9200874469736],[651.0730170560212,1112.2860892537508],[645.6365268752755,1100.475813282156],[690.5016314418918,1052.9323320162566],[688.0877452268105,1053.8508360991696],[700.192070573759,1033.8169441284558],[701.1642181078226,1030.6273368076581]]]]}},{"type":"Feature","properties":{"Level":"ADM2","shapeGroup":"SGP","shapeID":"SGP-ADM2-91842731B84667478","shapeName":"Lim Chu Kang","shapeType":"ADM2"},"geometry":{"type":"MultiPolygon","coordinates":[[[[173.48371776227538,1578.538007022646],[173.49372041519993,1578.5457970939183],[173.4960854588485,1578.5475321963263],[173.49698836684072,1578.5481670244922],[173.49796371026517,1578.5488525778264],[173.49806508772156,1578.5489237190352],[173.4983740508032,1578.5491390073207],[173.49862740674487,1578.549315429665],[173.4989423521354,1578.5495353254255],[173.49966308654322,1578.5500370480602],[173.50092588995417,1578.5509170092457],[173.49970698412542,1578.5500676081442],[173.49889518883145,1578.5495024009185],[173.49882770017885,1578.5494552945302],[173.49882804710813,1578.5494555366251],[173.49885126708045,1578.5494717394017],[173.4989283079253,1578.549525521416],[173.4990054749575,1578.5495793416983],[173.49952917844166,1578.5499437730086],[173.49945245558814,1578.549890303947],[173.50158112886362,1578.5513745458738],[173.5066217322522,1578.5548164858226],[173.50884581674262,1578.5563051875051],[173.5100976711936,1578.5571522475125],[173.50836326515508,1578.555977843005],[173.5106554849828,1578.5575291317764],[173.5240767439626,1578.566483304372],[173.51296811565587,1578.5590864093124],[173.50837318631991,1578.5559846196777],[173.50398397131835,1578.55301237527],[173.4963650707513,1578.5477284609942],[173.49550474928694,1578.5471236396947],[173.4921951964817,1578.5446454222276],[173.4794263257235,1578.5345367511145],[173.47784297639444,1578.5332445866452],[173.4744350121115,1578.5304858709019],[173.47354997770333,1578.5297743706574],[173.47244432161705,1578.5288835025463],[173.46600227619967,1578.5236309229083],[173.4666743168209,1578.5241798672218],[173.47006600248704,1578.5269521080177],[173.46762648498276,1578.524959980085],[173.47437738022657,1578.5304393685342],[173.48371776227538,1578.538007022646]]]]}},{"type":"Feature","properties":{"Level":"ADM2","shapeGroup":"SGP","shapeID":"SGP-ADM2-91842731B62952515","shapeName":"Mandai","shapeType":"ADM2"},"geometry":{"type":"MultiPolygon","coordinates":[[[[427.9654943906767,1474.6755649381564],[428.52388643270353,1474.434287397119],[429.0689334978912,1474.2297339363768],[433.5960297958974,1474.4509956483057],[503.98716372195315,1503.1979814429646],[528.2527218652735,1524.796909633426],[514.0095474872612,1511.0122172125145],[516.9893867364633,1514.1088878036205],[515.4486404012624,1513.0690229910103],[492.97560014734375,1496.6346042670039],[427.4790233711369,1474.8868384402228],[424.1165481183823,1476.3408301926272],[383.6239035450004,1502.4680953085713],[208.0891804433632,1585.7192130207218],[178.84892348784632,1581.4753499398303],[181.4463854474372,1582.600894325144],[215.4809710678528,1584.9788434166915],[233.2528445452631,1581.6183101206211],[426.5617111047558,1475.2767562545982],[427.7957215840793,1474.7496440454972],[427.9654943906767,1474.6755649381564]]]]}},{"type":"Feature","properties":{"Level":"ADM2","shapeGroup":"SGP","shapeID":"SGP-ADM2-91842731B18600643","shapeName":"Marina East","shapeType":"ADM2"},"geometry":{"type":"MultiPolygon","coordinates":[[[[700.6540479832759,1025.0900131029834],[701.4454260620317,1020.409660956183],[702.7579726840573,1022.3972795137902],[704.6079271038407,1023.7340531043986],[705.7647454582797,1024.8066229989925],[704.4749506365599,1023.6881044569931],[711.1391918005021,1029.067150678005],[704.811553229788,1030.074513564718],[707.9997069256111,1034.8161188275212],[702.9820842175837,1031.2513761746372],[702.3629759498577,1030.4949679761035],[701.7350795544436,1030.0916434661117],[701.4566611547202,1030.1465402614745],[701.3330161384234,1030.3500964790255],[701.1642181078226,1030.6273368076581],[701.1595796318168,1029.7835386845331],[701.1547807677517,1029.2918007604067],[701.1472625817627,1029.0188344015269],[701.1089682895949,1028.3760915193293],[700.7713040547824,1025.4836948780949],[700.6540479832759,1025.0900131029834]]]]}},{"type":"Feature","properties":{"Level":"ADM2","shapeGroup":"SGP","shapeID":"SGP-ADM2-91842731B25785375","shapeName":"Marina South","shapeType":"ADM2"},"geometry":{"type":"MultiPolygon","coordinates":[[[[694.6367929203944,1010.4825735670089],[696.1841554305885,1008.9892691781637],[700.1205108138774,1016.4276068342808],[700.2745482224362,1018.6423619505581],[701.4454260620317,1020.409660956183],[700.6540479832759,1025.0900131029834],[700.6482314576981,1025.071151706859],[700.5223714155267,1024.8433593933828],[700.1004691108801,1025.1141922636039],[698.5237568499142,1019.4098628510554],[696.8215282436106,1015.3897782643362],[694.6367929203944,1010.4825735670089]]]]}},{"type":"Feature","properties":{"Level":"ADM2","shapeGroup":"SGP","shapeID":"SGP-ADM2-91842731B19705608","shapeName":"Marine Parade","shapeType":"ADM2"},"geometry":{"type":"MultiPolygon","coordinates":[[[[866.5040521411509,1126.391749889989],[841.2725537840306,1106.6776971439135],[787.4991618671212,1098.0049831782292],[784.0202624195199,1089.1311260461678],[755.1600191150488,1075.056586707336],[757.7769180618184,1065.1103427016096],[745.6817404969646,1046.0131854198046],[707.9997069256111,1034.8161188275212],[704.811553229788,1030.074513564718],[711.1527606354719,1029.123555993615],[787.7564836534262,1052.9782267861788],[924.6682288609079,1085.782104730777],[919.9617802086725,1105.4906904955099],[877.9712450802497,1095.2674544471506],[866.5040521411509,1126.391749889989]]]]}},{"type":"Feature","properties":{"Level":"ADM2","shapeGroup":"SGP","shapeID":"SGP-ADM2-91842731B65785162","shapeName":"Museum","shapeType":"ADM2"},"geometry":{"type":"MultiPolygon","coordinates":[[[[667.3620373751509,1068.7856456050154],[644.8079980830418,1077.914630231221],[617.2080435704263,1089.8757578224563],[618.0903667424459,1088.0445911721308],[604.5627127079327,1100.308009684532],[592.9545301005571,1111.2819817592535],[624.3051987668002,1084.3212111097635],[627.2989729015983,1082.7419797758241],[670.6697525515898,1066.1789080726114],[667.3620373751509,1068.7856456050154]]]]}},{"type":"Feature","properties":{"Level":"ADM2","shapeGroup":"SGP","shapeID":"SGP-ADM2-91842731B70623819","shapeName":"Newton","shapeType":"ADM2"},"geometry":{"type":"MultiPolygon","coordinates":[[[[561.0488056258605,1148.1985859576946],[544.0523540434249,1156.702449690452],[531.5049501588721,1168.7313775850907],[523.7803253095195,1163.7844757099654],[523.2901723078115,1161.092153900151],[526.1760562712548,1159.198540603225],[533.8292335428091,1157.0882392052806],[537.0317519812597,1157.8468629682022],[543.4280835265681,1153.148739808918],[540.6083714205633,1153.9828035656753],[544.2127739732621,1151.4162048398775],[548.3190444930094,1149.039900067814],[560.266576453707,1140.2023639147078],[558.2239086600129,1142.440695042578],[564.2853003268372,1139.077683360665],[564.358969024048,1139.0323122772647],[604.5627127079327,1100.308009684532],[618.0903667424459,1088.0445911721308],[617.2080435704263,1089.8757578224563],[591.98899512848,1123.9817583085608],[626.0560899374615,1085.778231626383],[582.2463004458389,1137.8321598661087],[561.0488056258605,1148.1985859576946]]]]}},{"type":"Feature","properties":{"Level":"ADM2","shapeGroup":"SGP","shapeID":"SGP-ADM2-91842731B72347899","shapeName":"North-Eastern Islands","shapeType":"ADM2"},"geometry":{"type":"MultiPolygon","coordinates":[[[[1314.342920896034,1332.8826163167275],[1313.7564272988518,1333.3720866689828],[1312.4353802823202,1334.2549364443498],[1308.6773065958819,1337.0703403903597],[1306.860309257745,1338.4147171215095],[1303.4985029934992,1340.5618255428283],[1302.1565722082553,1341.3165943877923],[1304.0750625224448,1339.9330391626036],[1306.8766437286063,1337.9015146913223],[1311.4752174844934,1334.6495866668022],[1312.8417624131753,1333.690080364294],[1315.3167675298978,1331.9291896865375],[1315.7625723998635,1331.5693640135876],[1316.0063997583543,1331.35505169602],[1316.0843537302844,1331.2818735236094],[1316.2604802958117,1331.1219317423001],[1316.2889535667846,1331.092563312225],[1314.2391041318735,1332.6740966145871],[1315.323052905578,1331.8394726088509],[1316.2892393391721,1331.0217574312142],[1353.45187269207,1305.683946545447],[1360.313623220652,1301.823137344489],[1356.5395923624192,1304.3886184087507],[1328.9667373067084,1320.3504740569576],[1324.7780027645667,1323.6381633304636],[1320.9443255945496,1327.0794716283333],[1320.7456376063453,1327.4168892913376],[1320.131416809451,1328.1480332422536],[1319.278801459318,1328.7854404478417],[1318.4131363017427,1329.4330280678628],[1318.5523046979358,1329.4182396881306],[1317.542644754425,1330.3880910796054],[1315.8063534973228,1331.7746649161656],[1314.342920896034,1332.8826163167275]]],[[[1080.893927188696,1441.1706286902104],[1092.7974012870382,1437.6561814501504],[1101.0331934268634,1434.8830553990747],[1105.9339143388552,1433.1724659722602],[1178.037516938917,1404.9175616058458],[1193.4774240267182,1397.9575125870442],[1209.5282053917358,1390.7403900561358],[1227.6010446326961,1382.0608944356584],[1277.4961246092098,1356.9692969103824],[1294.676204641227,1346.2287152007457],[1298.0213674553197,1343.993546013645],[1297.6495539766643,1344.2627535003448],[1308.849531064555,1336.3403167438803],[1309.1070556293084,1336.174566387935],[1299.385049247887,1343.1566663622036],[1281.1895990580979,1354.937669252965],[1246.8726900188597,1373.2489579447756],[1218.0012545385775,1386.7153000520175],[1177.659553866523,1405.1530523137865],[1170.1424165846895,1408.5028324006407],[1145.3438133087154,1418.9460123694394],[1124.2202662399825,1427.1591741123807],[1082.1448562581586,1441.2535814106902],[1064.0714466205907,1445.892014873993],[1080.893927188696,1441.1706286902104]]],[[[1175.251350849099,1406.157407839023],[1161.3805197417764,1412.2225402225736],[1214.0805990251317,1388.5133288053876],[1207.2248467936952,1391.7661642776857],[1192.3841502105631,1398.40746471105],[1175.251350849099,1406.157407839023]]]]}},{"type":"Feature","properties":{"Level":"ADM2","shapeGroup":"SGP","shapeID":"SGP-ADM2-91842731B32481655","shapeName":"Novena","shapeType":"ADM2"},"geometry":{"type":"MultiPolygon","coordinates":[[[[500.9519167613209,1195.6301959609784],[506.9701695796834,1194.0877247883116],[508.5421276485363,1192.4028244246274],[531.5049501588721,1168.7313775850907],[544.0523540434249,1156.702449690452],[561.0488056258605,1148.1985859576946],[562.4871567733375,1156.46675703228],[625.7976740064981,1161.4770626814377],[660.8183957619462,1172.3210877581114],[665.8902586041477,1179.3839926908288],[666.3136678778783,1183.0876843928786],[666.0609953039277,1186.6163850447574],[665.815706829219,1186.660388471239],[626.6689801845663,1187.2309419291641],[536.6884114881152,1209.3688368020714],[519.2402481686579,1249.7812403831012],[512.5578967690067,1271.2188303118971],[512.6891759889623,1270.0134582240614],[512.742292008006,1269.62738049793],[512.7667054678385,1269.4551906788245],[512.7629214375929,1269.4118497338368],[512.6767608887931,1269.6409738798004],[512.8618416917698,1267.1206869592468],[513.2039604298186,1258.8524278846303],[505.5875597325089,1215.472582326995],[500.9519167613209,1195.6301959609784]]]]}},{"type":"Feature","properties":{"Level":"ADM2","shapeGroup":"SGP","shapeID":"SGP-ADM2-91842731B65999064","shapeName":"Orchard","shapeType":"ADM2"},"geometry":{"type":"MultiPolygon","coordinates":[[[[604.5627127079327,1100.308009684532],[564.358969024048,1139.0323122772647],[564.2853003268372,1139.077683360665],[558.2239086600129,1142.440695042578],[560.266576453707,1140.2023639147078],[548.3190444930094,1149.039900067814],[544.2127739732621,1151.4162048398775],[540.6083714205633,1153.9828035656753],[543.4280835265681,1153.148739808918],[537.0317519812597,1157.8468629682022],[533.8292335428091,1157.0882392052806],[526.1760562712548,1159.198540603225],[519.0246430003782,1157.4918921069388],[522.563615256111,1154.8311923537735],[533.4544956484372,1155.3351988965987],[562.1928881035451,1136.4088504326414],[592.9545301005571,1111.2819817592535],[604.5627127079327,1100.308009684532]]]]}},{"type":"Feature","properties":{"Level":"ADM2","shapeGroup":"SGP","shapeID":"SGP-ADM2-91842731B94133817","shapeName":"Outram","shapeType":"ADM2"},"geometry":{"type":"MultiPolygon","coordinates":[[[[659.0520637076581,993.9859461426704],[683.7499917403575,1001.2832671742972],[692.1898276598733,1037.5404326286746],[693.9923102366574,1019.9039608874659],[696.7516142652702,1027.8061837892592],[697.2508966368121,1031.8536702988463],[689.3726873246717,1047.4267362219775],[635.3874219520372,1079.822582135229],[607.3465733601722,1081.4282993086922],[618.4807453524247,1074.1202429091786],[645.6422117880695,1057.1117970923074],[659.0520637076581,993.9859461426704]]]]}},{"type":"Feature","properties":{"Level":"ADM2","shapeGroup":"SGP","shapeID":"SGP-ADM2-91842731B8754104","shapeName":"Pasir Ris","shapeType":"ADM2"},"geometry":{"type":"MultiPolygon","coordinates":[[[[1287.2743646242293,1350.6778084199466],[1271.947063133635,1359.567946852006],[1276.5473508646926,1356.8153874008628],[1270.9684367195864,1359.881850284799],[1259.6078958591506,1366.0719166186072],[1204.0017332150398,1390.9429509303318],[1183.2327217079105,1399.0435510297953],[1158.2208935384972,1410.7588907267582],[1154.776912495757,1412.8234474369524],[1162.249429989257,1411.3048967105817],[1152.1371386559463,1415.6102870432715],[1128.9398021426132,1423.093119759283],[1143.2172918671658,1419.305039550958],[1124.3184240711098,1426.6245828437509],[1101.5561243390657,1433.582431160361],[1018.7078630993968,1408.2166043922891],[995.2728473527117,1333.7591713224224],[993.9975988895604,1325.188358000187],[993.6685484161977,1324.2431299746352],[1010.7197757457598,1334.4309907307756],[1121.8219072338086,1343.6800092445803],[1247.3926762984,1340.7708922373733],[1306.2686560726236,1326.9835281393166],[1322.8917708492509,1321.5715285996262],[1322.4804360170729,1324.16470837406],[1320.4231416420141,1326.3951653741392],[1319.561798905004,1327.4376013135573],[1318.0635226166928,1328.9393017351063],[1316.6816209404271,1330.263800431331],[1315.7531369038625,1331.027247065559],[1312.361129694154,1333.309504242341],[1310.6760196024911,1334.6585892334635],[1287.2743646242293,1350.6778084199466]]]]}},{"type":"Feature","properties":{"Level":"ADM2","shapeGroup":"SGP","shapeID":"SGP-ADM2-91842731B26204757","shapeName":"Paya Lebar","shapeType":"ADM2"},"geometry":{"type":"MultiPolygon","coordinates":[[[[964.7946387712126,1300.1520857932069],[984.6483493440672,1315.5913648576338],[995.6983945001634,1325.135512254424],[1010.7197757457598,1334.4309907307756],[993.6685484161977,1324.2431299746352],[993.9975988895604,1325.188358000187],[981.6019422639386,1313.8227178082052],[950.3833608552331,1288.8976548068135],[939.9069971542499,1281.1401718267011],[933.9986054723709,1276.8619921239742],[931.9476134021895,1275.2084840767893],[921.9890464078183,1269.1456350585395],[925.7850330210316,1271.0135434879867],[930.3391452169276,1273.6588471404998],[926.6504712387913,1271.2425344735907],[916.0538442198197,1262.8232201683115],[922.0936722155658,1267.2983586772314],[930.3744806683246,1272.9840223117167],[946.6071422888972,1285.3208946028267],[945.2301802914322,1283.9371821591826],[955.5044106095979,1292.7042983979159],[964.7946387712126,1300.1520857932069]]]]}},{"type":"Feature","properties":{"Level":"ADM2","shapeGroup":"SGP","shapeID":"SGP-ADM2-91842731B43721367","shapeName":"Pioneer","shapeType":"ADM2"},"geometry":{"type":"MultiPolygon","coordinates":[[[[189.66468268631672,1257.0263988478632],[183.41067334099992,1269.7231865082836],[172.97979864994167,1294.1045368102955],[175.48503249766173,1287.7799187275332],[178.8554954600248,1279.780067008435],[188.3893180316056,1259.4984527426982],[200.81509035390968,1237.0664637018713],[201.61193438567003,1235.7607022738507],[201.68791891114037,1235.6357155122987],[201.95226573527341,1235.208212342297],[202.47818897455414,1234.3525317146857],[203.16266205110776,1233.2440204388938],[203.12512133521108,1233.3076318826397],[204.35713823432806,1231.3535646713963],[204.64809196564696,1230.8925012762156],[204.56082789185714,1231.0313801595264],[205.02284459121788,1230.3136636032941],[206.16577799052294,1228.589044608871],[206.8140803707663,1227.6207946785996],[206.68783825519102,1227.8216252016327],[205.25832969083362,1229.9648106130267],[204.05941741307214,1231.8356744609082],[204.3957666921454,1231.3040554320364],[205.31450812577003,1229.8812900090925],[206.93075848005515,1227.4631611793989],[207.08233507787855,1227.2390876512416],[205.0603094025913,1230.2758352354933],[204.64091835699728,1230.9246900332223],[205.11752975187176,1230.199155638847],[206.2245101876152,1228.5356210780901],[189.66468268631672,1257.0263988478632]]]]}},{"type":"Feature","properties":{"Level":"ADM2","shapeGroup":"SGP","shapeID":"SGP-ADM2-91842731B10704061","shapeName":"PuunggolL","shapeType":"ADM2"},"geometry":{"type":"MultiPolygon","coordinates":[[[[1101.5561243390657,1433.582431160361],[1105.1787807636929,1433.006404460626],[988.8606597966516,1460.6019843517884],[968.5323249390301,1464.6583014764542],[943.5549651016423,1478.897040693114],[859.6470617644624,1504.40694977452],[785.9318932437807,1521.3057073460827],[785.5349275245773,1521.3975061233702],[763.4010756350385,1526.4121665632545],[749.1261745081056,1529.0532858686847],[749.6454956381351,1528.733987724495],[889.0808842759684,1452.5094645234733],[954.1886755329358,1411.9830095163582],[995.2728473527117,1333.7591713224224],[1018.7078630993968,1408.2166043922891],[1101.5561243390657,1433.582431160361]]]]}},{"type":"Feature","properties":{"Level":"ADM2","shapeGroup":"SGP","shapeID":"SGP-ADM2-91842731B39998411","shapeName":"Queenstown","shapeType":"ADM2"},"geometry":{"type":"MultiPolygon","coordinates":[[[[513.9015849310684,1132.2945826855394],[512.923507442451,1141.4392051836373],[497.6822025170234,1136.347799649814],[493.19615001371767,1143.8132346127716],[484.74282088514224,1140.3060253634478],[481.75530996358884,1153.7866003116173],[478.2841642177839,1157.964971381044],[476.64726985797853,1153.9681555798693],[470.3134292235153,1157.7620328807482],[469.34112603704443,1164.5033218457343],[463.6789053792404,1156.336694855951],[458.06666735978456,1168.3290841676617],[454.0284935977818,1166.288035086081],[451.8689887955269,1156.0626399552482],[439.5570971259561,1163.4822323875137],[418.05928381395574,1186.9330253561309],[417.5653123833765,1164.2988948044676],[398.0181386589047,1101.5578573426424],[389.5113568141374,1099.6563309826906],[372.8674286476308,1125.807442028095],[357.5285482020863,1126.0166453767147],[374.5334970771989,1109.2910006110205],[366.24669805528447,1106.934646677718],[408.73640390671517,1074.4596984081365],[402.8473317990287,1062.6377482035587],[351.9323056866333,1108.3284602102706],[330.8407140623358,1123.970231225359],[322.24904781425,1125.7861208703787],[410.5933046283578,1036.7431076462108],[421.372080150997,1061.5585455291236],[446.0364179060533,1047.144774407426],[426.6274468401027,1006.6125659106574],[441.5878907284971,999.2433543013973],[464.98913343880304,1033.9815884877653],[479.26618382484935,1022.4696786664168],[481.18624817917134,1026.12740697072],[488.98439628562573,1036.844178991359],[488.27319258844415,1060.4937635105234],[480.2038158515005,1078.305519224182],[481.7869464917353,1094.278071109857],[495.8317057037847,1121.7886680255967],[513.961523888452,1123.6382589150696],[513.9015849310684,1132.2945826855394]]]]}},{"type":"Feature","properties":{"Level":"ADM2","shapeGroup":"SGP","shapeID":"SGP-ADM2-91842731B46223595","shapeName":"River Valley","shapeType":"ADM2"},"geometry":{"type":"MultiPolygon","coordinates":[[[[592.9545301005571,1111.2819817592535],[562.1928881035451,1136.4088504326414],[533.4544956484372,1155.3351988965987],[522.563615256111,1154.8311923537735],[525.9200275938384,1152.0435581647748],[543.2716145684501,1147.1111177399157],[549.1805996101848,1138.55539710725],[553.0655310578679,1139.0175845462065],[567.0506261687744,1112.2781592579577],[586.9974372113122,1097.5043121067736],[617.7399330084312,1083.5433228759944],[627.2989729015983,1082.7419797758241],[624.3051987668002,1084.3212111097635],[592.9545301005571,1111.2819817592535]]]]}},{"type":"Feature","properties":{"Level":"ADM2","shapeGroup":"SGP","shapeID":"SGP-ADM2-91842731B7509188","shapeName":"Rochor","shapeType":"ADM2"},"geometry":{"type":"MultiPolygon","coordinates":[[[[688.0877452268105,1053.8508360991696],[690.5016314418918,1052.9323320162566],[645.6365268752755,1100.475813282156],[651.0730170560212,1112.2860892537508],[633.7268505750911,1132.9200874469736],[631.0327401212421,1135.5423572964405],[612.9981540611834,1104.5657226151072],[582.2463004458389,1137.8321598661087],[626.0560899374615,1085.778231626383],[591.98899512848,1123.9817583085608],[617.2080435704263,1089.8757578224563],[644.8079980830418,1077.914630231221],[667.3620373751509,1068.7856456050154],[668.3500232101118,1068.9048803070475],[658.9248724074405,1073.3574651945319],[688.0877452268105,1053.8508360991696]]]]}},{"type":"Feature","properties":{"Level":"ADM2","shapeGroup":"SGP","shapeID":"SGP-ADM2-91842731B82615982","shapeName":"Seletar","shapeType":"ADM2"},"geometry":{"type":"MultiPolygon","coordinates":[[[[785.5349275245773,1521.3975061233702],[781.3821621537849,1523.370976617648],[750.3734360201966,1529.4638031689715],[748.7706882255584,1529.6694227822882],[749.8523738383142,1529.5487975556825],[746.8165089534832,1530.344806209841],[746.0727027575565,1530.8992014932128],[745.5747862832573,1531.1261698864846],[745.4179332292937,1531.0062586113713],[746.1867437272912,1529.338656779037],[739.9717371175506,1521.7641955712184],[731.2717442399621,1510.9718915406493],[749.6454956381351,1528.733987724495],[749.1261745081056,1529.0532858686847],[763.4010756350385,1526.4121665632545],[785.5349275245773,1521.3975061233702]],[[745.8543202050957,1530.9023841631179],[745.6015964098416,1531.0934296682417],[745.6854409361814,1531.0903707058444],[745.8543202050957,1530.9023841631179]]]]}},{"type":"Feature","properties":{"Level":"ADM2","shapeGroup":"SGP","shapeID":"SGP-ADM2-91842731B81849311","shapeName":"Sembawang","shapeType":"ADM2"},"geometry":{"type":"MultiPolygon","coordinates":[[[[528.2527218652735,1524.796909633426],[580.3218205929837,1573.3663397899518],[612.7355961169219,1585.8558385880804],[682.2676197860526,1577.5443101666128],[657.3427188522664,1587.8705527068694],[710.0644972002816,1564.4728240553313],[665.5588380488099,1590.5760449296185],[656.5624160905724,1594.345746316213],[650.7376458504157,1594.6943722642905],[642.8325409986105,1597.2981201422224],[648.6245829876822,1598.102187043151],[606.4879208258187,1616.5858215384096],[590.4068166878324,1610.142491678092],[594.35117849761,1615.9128651778815],[585.9223099963107,1613.5126313519104],[586.9933172925209,1620.1416175385993],[572.788032382407,1620.3594956795746],[583.0050464158885,1623.5013393337695],[563.0639267504024,1633.674396460447],[504.7492045860653,1655.1904025266563],[419.2531061028738,1660.1007567804218],[502.258977920462,1616.2736742247423],[520.746172160708,1613.961686126369],[519.8395318868752,1521.812365916102],[515.4486404012624,1513.0690229910103],[516.9893867364633,1514.1088878036205],[514.0095474872612,1511.0122172125145],[528.2527218652735,1524.796909633426]]]]}},{"type":"Feature","properties":{"Level":"ADM2","shapeGroup":"SGP","shapeID":"SGP-ADM2-91842731B50862644","shapeName":"Sengkang","shapeType":"ADM2"},"geometry":{"type":"MultiPolygon","coordinates":[[[[684.0488762729613,1419.5274593730076],[736.9075680769271,1427.33958027039],[765.2448343356415,1446.6099751723852],[851.931209830078,1356.5221801710436],[920.7255106531636,1328.191318535918],[977.3907389024118,1315.6833703170014],[981.6019422639386,1313.8227178082052],[993.9975988895604,1325.188358000187],[995.2728473527117,1333.7591713224224],[954.1886755329358,1411.9830095163582],[889.0808842759684,1452.5094645234733],[749.6454956381351,1528.733987724495],[731.2717442399621,1510.9718915406493],[703.7649184932841,1479.8905995069483],[656.8657629545328,1441.2214753501012],[689.8684895337535,1461.3118502865468],[702.7505986585419,1463.2603465589214],[684.0488762729613,1419.5274593730076]]]]}},{"type":"Feature","properties":{"Level":"ADM2","shapeGroup":"SGP","shapeID":"SGP-ADM2-91842731B85682916","shapeName":"Serangoon","shapeType":"ADM2"},"geometry":{"type":"MultiPolygon","coordinates":[[[[639.7999181985998,1291.3673447187261],[660.530424521735,1241.3154974989943],[687.355065291179,1245.1560231351896],[711.5092714352813,1236.9752131697956],[746.2881926498565,1240.2142512524783],[798.5344159534365,1227.8126637102414],[760.3718945539146,1261.3979838858859],[743.114895844948,1267.9805831802032],[752.3590047881526,1271.9161912204117],[728.996420521916,1291.2515640743609],[724.4813568284713,1303.2165884026128],[740.3787127195196,1329.840681657256],[743.5348560852369,1396.222213627401],[736.9075680769271,1427.33958027039],[684.0488762729613,1419.5274593730076],[654.0537107880157,1364.2559382866648],[663.096859258229,1333.0634994619718],[639.7999181985998,1291.3673447187261]]]]}},{"type":"Feature","properties":{"Level":"ADM2","shapeGroup":"SGP","shapeID":"SGP-ADM2-91842731B49662430","shapeName":"Simpang","shapeType":"ADM2"},"geometry":{"type":"MultiPolygon","coordinates":[[[[745.6085505479898,1531.6423693027239],[736.6201437703452,1541.2004959487256],[732.7038041312604,1544.9770307698439],[739.7222380370008,1537.458283894216],[744.6166052811229,1532.3715508421128],[745.3017003372943,1531.726435960377],[745.6775999431363,1531.48542292286],[745.6085505479898,1531.6423693027239]]],[[[682.2676197860526,1577.5443101666128],[715.8056037465878,1558.7090979877646],[725.2783178919144,1550.74895839629],[739.3199346038484,1537.4308015447345],[741.4555223902394,1535.195779869292],[745.061530132094,1531.5598386101417],[743.7885764739882,1532.8813990766885],[744.7936192040273,1532.0619210215723],[744.7067931065459,1532.2287090193802],[744.2864284134898,1532.6378055602104],[743.7888663919275,1533.1828420331885],[738.6148528209688,1538.6556498536029],[728.8362827179636,1548.500085123584],[731.1817425829408,1546.6142902597776],[710.0644972002816,1564.4728240553313],[657.3427188522664,1587.8705527068694],[682.2676197860526,1577.5443101666128]]]]}},{"type":"Feature","properties":{"Level":"ADM2","shapeGroup":"SGP","shapeID":"SGP-ADM2-91842731B30699469","shapeName":"Singapore River","shapeType":"ADM2"},"geometry":{"type":"MultiPolygon","coordinates":[[[[607.3465733601722,1081.4282993086922],[635.3874219520372,1079.822582135229],[689.3726873246717,1047.4267362219775],[697.2414098300659,1034.4833591898766],[670.6697525515898,1066.1789080726114],[627.2989729015983,1082.7419797758241],[617.7399330084312,1083.5433228759944],[586.9974372113122,1097.5043121067736],[567.0506261687744,1112.2781592579577],[553.0655310578679,1139.0175845462065],[549.1805996101848,1138.55539710725],[555.7020611369294,1124.286344957314],[556.6162377252462,1122.2505152605922],[557.0190683911537,1121.4321309544564],[557.586224811648,1120.3214864488477],[557.6220584421528,1120.2918037095055],[563.4540064283776,1115.192489674413],[607.3465733601722,1081.4282993086922]]]]}},{"type":"Feature","properties":{"Level":"ADM2","shapeGroup":"SGP","shapeID":"SGP-ADM2-91842731B37609929","shapeName":"Southern Islands","shapeType":"ADM2"},"geometry":{"type":"MultiPolygon","coordinates":[[[[608.8392764344493,944.9017452943821],[608.1089844887036,943.764347819849],[609.495686424885,942.9831235629221],[611.0230687988517,944.0227799457012],[608.8392764344493,944.9017452943821]]],[[[605.3356782792828,946.0877225382578],[606.5366782180457,944.5616383205631],[607.1599586616996,945.4101432125944],[605.3356782792828,946.0877225382578]]],[[[628.8671935073334,941.6493200335211],[624.3227174743719,942.9155742809705],[628.3565365648147,941.6356484505219],[627.2962334039635,941.8311994410493],[628.1342731471608,941.5542337636109],[628.3984973906047,941.406131653608],[629.3394994134484,941.062324591849],[628.5838502127697,941.3461557105024],[628.823954540263,941.3049144449483],[628.9297445677882,941.2233979234252],[630.4056927724034,940.7862625375346],[634.9901147657957,939.2811846515822],[635.6531781925876,939.1317462831662],[634.0986282717839,939.4496343717103],[633.4798251917888,939.5838986959536],[631.7528310287695,940.1353012315305],[633.5836690419112,939.5424222439373],[634.2257381559057,939.4016197987587],[636.5137330904331,938.9614426211128],[636.1785397898872,939.16003321344],[628.8671935073334,941.6493200335211]]],[[[614.7501029954082,946.1077708622698],[611.6896603839839,947.1654710068101],[615.4143213140917,945.8224854109535],[613.5903417312684,946.1171610106314],[615.930958713748,945.6771519802687],[616.2074022865199,945.52634330109],[617.8842621924846,945.0534540365154],[618.0731935217053,944.8788989064102],[616.5367279885066,945.2949506050061],[618.6292347887091,944.5353608711189],[619.0080779689549,944.0303027733153],[613.67702880837,945.7456386569974],[612.5957231619917,945.7920365864219],[624.7977621222569,940.0863271470257],[619.3214511001863,943.741553345583],[620.1661178858175,943.4062586447852],[619.3149250169454,944.134692145239],[627.1346751906478,940.8044343585084],[628.3216761343435,940.9634666970865],[621.4551680283618,943.8452957110698],[619.8602720056849,944.2902421032085],[618.8906006544701,944.7238256102975],[619.6069113395666,944.6291277767743],[623.2436062262027,943.5927897543075],[625.4444472518534,943.492582276946],[617.0950282100073,945.5090786097907],[615.515964507502,945.8062941952317],[614.7501029954082,946.1077708622698]]],[[[608.3096630983766,947.958147083052],[606.1472049216909,949.0149964297673],[602.22127059224,950.7306785512118],[602.0193895726735,950.6727688274738],[605.1808925783411,949.0682287675108],[607.9933504889824,947.9126934324516],[608.3096630983766,947.958147083052]]],[[[622.4534258639012,945.1888752949886],[621.5821876675601,945.8305008064688],[618.7992234529744,946.3917337848231],[610.7818746066797,947.949930507353],[612.1626027152764,947.448529535083],[616.0881415446431,946.4426187730044],[619.6489558392764,945.3104575364086],[622.4534258639012,945.1888752949886]]],[[[562.8757152857165,971.9595478936994],[557.3736166002622,974.351391580965],[548.0176073203528,979.6503084866957],[540.204218522361,983.2989456897528],[514.5707342019609,993.3271326215281],[530.0046346707865,984.5913943318659],[528.9246236420607,985.6137379374188],[550.7565613730277,975.3200609040937],[557.0919170333646,972.7916792606554],[559.6249983768575,971.8520931036455],[567.7885721825306,967.6898727631118],[568.1602104908702,967.302266831367],[595.7403186969038,953.6561143258666],[604.724288817753,950.1513703253927],[614.8300228013427,947.794837241868],[613.7024569313083,948.5168518009111],[607.5345637056416,949.9831721853498],[607.20036056467,950.4767836879803],[596.4045058194703,954.8029713791937],[571.4528995149751,967.1791203083338],[565.5230002072719,970.2342419161137],[565.3308231873576,970.698550299251],[564.215293656763,971.2687757148739],[563.3109161643425,971.514078617349],[563.6782720293419,971.545077883793],[562.8757152857165,971.9595478936994]]]]}},{"type":"Feature","properties":{"Level":"ADM2","shapeGroup":"SGP","shapeID":"SGP-ADM2-91842731B80067240","shapeName":"Straits View","shapeType":"ADM2"},"geometry":{"type":"MultiPolygon","coordinates":[[[[680.9512333719383,992.6673713833876],[678.3780292243348,989.8452978907915],[679.5382489662328,988.356300780132],[685.4488691027524,994.2015249771497],[685.199541154461,992.4819823366495],[687.3455104662913,994.9518949153884],[687.2745644782782,996.5716299748752],[696.1841554305885,1008.9892691781637],[694.6367929203944,1010.4825735670089],[693.1945956840409,1008.1286095792179],[692.4526648034694,1007.0499520556691],[680.9635218306353,992.1343123699183],[680.9512333719383,992.6673713833876]]]]}},{"type":"Feature","properties":{"Level":"ADM2","shapeGroup":"SGP","shapeID":"SGP-ADM2-91842731B83761023","shapeName":"Sungei Kadut","shapeType":"ADM2"},"geometry":{"type":"MultiPolygon","coordinates":[[[[422.7455105169608,1476.9616119086863],[181.4463854474372,1582.600894325144],[178.84892348784632,1581.4753499398303],[181.52214302613427,1582.6312928159432],[192.55620126202405,1585.437077281079],[184.12288826043653,1583.5497565588182],[180.4840434688005,1582.209488322573],[175.68301893909546,1579.838956240704],[173.5498933452668,1578.5837229813667],[173.50317073277174,1578.5524613230964],[173.50055181592225,1578.550655704811],[173.50352120849016,1578.5526978692828],[173.50185547561563,1578.5515660077863],[173.49952917844166,1578.5499437730086],[173.4990054749575,1578.5495793416983],[173.4989283079253,1578.549525521416],[173.49885126708045,1578.5494717394017],[173.49970698412542,1578.5500676081442],[173.50092588995417,1578.5509170092457],[173.49966308654322,1578.5500370480602],[173.4989423521354,1578.5495353254255],[173.49862740674487,1578.549315429665],[173.4983740508032,1578.5491390073207],[173.49806508772156,1578.5489237190352],[173.49796371026517,1578.5488525778264],[173.49698836684072,1578.5481670244922],[173.4960854588485,1578.5475321963263],[173.49372041519993,1578.5457970939183],[173.48371776227538,1578.538007022646],[173.49186790023492,1578.5443964987346],[173.49391798307008,1578.5459452818127],[173.49428177235342,1578.5462187129033],[173.49447885536597,1578.5463667376694],[173.49503144080836,1578.5467818026018],[173.49795628595632,1578.5488473526034],[173.50142388239834,1578.551264793462],[173.94740073543926,1578.8311123310339],[211.16279846066973,1585.459772683307],[223.9757967012431,1583.6466302095525],[386.6405800132027,1500.2336258317187],[422.7455105169608,1476.9616119086863]]]]}},{"type":"Feature","properties":{"Level":"ADM2","shapeGroup":"SGP","shapeID":"SGP-ADM2-91842731B36527330","shapeName":"Tampines","shapeType":"ADM2"},"geometry":{"type":"MultiPolygon","coordinates":[[[[1167.1310916701948,1178.2153525338356],[1303.6544887587652,1275.1399515997723],[1319.4526777749857,1297.86460699059],[1310.9179260214657,1290.975712344481],[1325.1871087494496,1321.3932958151163],[1325.6938033181414,1319.192674909346],[1322.8917708492509,1321.5715285996262],[1306.2686560726236,1326.9835281393166],[1247.3926762984,1340.7708922373733],[1121.8219072338086,1343.6800092445803],[1010.7197757457598,1334.4309907307756],[995.6983945001634,1325.135512254424],[984.6483493440672,1315.5913648576338],[964.7946387712126,1300.1520857932069],[1011.6492191163887,1260.1916271856053],[1094.3466966901278,1244.2756897857068],[1124.674366217913,1214.2047192842965],[1161.5972010789262,1201.2906905643206],[1167.1310916701948,1178.2153525338356]]]]}},{"type":"Feature","properties":{"Level":"ADM2","shapeGroup":"SGP","shapeID":"SGP-ADM2-91842731B68539058","shapeName":"Tanglin","shapeType":"ADM2"},"geometry":{"type":"MultiPolygon","coordinates":[[[[557.586224811648,1120.3214864488477],[557.0190683911537,1121.4321309544564],[556.6162377252462,1122.2505152605922],[555.7020611369294,1124.286344957314],[549.1805996101848,1138.55539710725],[543.2716145684501,1147.1111177399157],[525.9200275938384,1152.0435581647748],[522.563615256111,1154.8311923537735],[519.0246430003782,1157.4918921069388],[526.1760562712548,1159.198540603225],[523.2901723078115,1161.092153900151],[523.7803253095195,1163.7844757099654],[531.5049501588721,1168.7313775850907],[508.5421276485363,1192.4028244246274],[506.9701695796834,1194.0877247883116],[500.9519167613209,1195.6301959609784],[498.6374131949455,1185.597933206345],[489.6465916668467,1172.6470407116253],[481.75530996358884,1153.7866003116173],[484.74282088514224,1140.3060253634478],[493.19615001371767,1143.8132346127716],[497.6822025170234,1136.347799649814],[512.923507442451,1141.4392051836373],[513.9015849310684,1132.2945826855394],[539.9800339726152,1127.9795530606268],[557.1728080161728,1120.6041324511416],[557.586224811648,1120.3214864488477]]]]}},{"type":"Feature","properties":{"Level":"ADM2","shapeGroup":"SGP","shapeID":"SGP-ADM2-91842731B47131171","shapeName":"Tengah","shapeType":"ADM2"},"geometry":{"type":"MultiPolygon","coordinates":[[[[173.58429181979938,1578.372020385788],[173.47455755951538,1578.527517020402],[173.47923892305968,1578.534379025375],[173.47354488713626,1578.5297685826401],[173.46292066650284,1578.5211212418071],[173.40030020996267,1578.4648173707535],[173.30404957816032,1578.3700233704285],[173.47144934232736,1578.5280727420034],[173.47278497492874,1578.5291495328297],[173.48034208170793,1578.5352732499935],[173.48245570155862,1578.5369719973241],[173.48871052234057,1578.5419073972937],[173.48892937472675,1578.5420396184982],[173.48712565583747,1578.5404238141273],[173.48465847816288,1578.538201242081],[173.4705729279656,1578.523193516627],[173.45690263683554,1578.4882874608056],[173.4573453213152,1578.4788723801507],[174.23578106446172,1576.8244593977931],[245.2916979496636,1411.6443016073372],[290.53986133988144,1392.0930170114584],[258.0978543224156,1406.0911018837746],[243.23355892616487,1412.6490768845786],[229.12496077375283,1419.6048555547832],[211.5938868398409,1428.9404424261297],[167.18983405734514,1560.5161289504904],[173.46396929789097,1578.4525943237265],[173.46885001484193,1578.5206487062574],[173.58429181979938,1578.372020385788]]]]}},{"type":"Feature","properties":{"Level":"ADM2","shapeGroup":"SGP","shapeID":"SGP-ADM2-91842731B95029368","shapeName":"Toa Payoh","shapeType":"ADM2"},"geometry":{"type":"MultiPolygon","coordinates":[[[[512.5209164686171,1271.7234349975804],[512.5578967690067,1271.2188303118971],[519.2402481686579,1249.7812403831012],[536.6884114881152,1209.3688368020714],[626.6689801845663,1187.2309419291641],[665.815706829219,1186.660388471239],[666.0609953039277,1186.6163850447574],[668.7011079952805,1185.8101622087806],[704.3834063497659,1172.8174365255613],[812.8941703465199,1199.958295558187],[798.5344159534365,1227.8126637102414],[746.2881926498565,1240.2142512524783],[711.5092714352813,1236.9752131697956],[687.355065291179,1245.1560231351896],[660.530424521735,1241.3154974989943],[512.6424119087711,1277.972209933865],[512.5209164686171,1271.7234349975804]]]]}},{"type":"Feature","properties":{"Level":"ADM2","shapeGroup":"SGP","shapeID":"SGP-ADM2-91842731B80812605","shapeName":"Tuas","shapeType":"ADM2"},"geometry":{"type":"MultiPolygon","coordinates":[[[[188.3893180316056,1259.4984527426982],[178.47243925136422,1280.6737358267803],[176.47664176017895,1285.3549290331189],[169.19064002924534,1304.6907855252825],[168.28127318752686,1307.3778165003494],[166.80088799940074,1311.9182649605254],[146.01802799868705,1427.7185445561377],[149.21618044791626,1398.4070634676837],[146.72073241455612,1421.0306006849144],[147.45003484505105,1414.0247137571025],[145.75437847289467,1430.3860885895488],[153.53930477271786,1368.095860784833],[157.36711228676927,1348.213936643309],[195.3176981927877,1246.3561901906749],[203.77052943768655,1232.2215210018644],[202.98760552407916,1233.4504554985133],[201.12221563772783,1236.4253211866207],[209.1254979200213,1223.8261030634044],[209.58569941928496,1223.1031555734892],[208.31812112089779,1225.1168182948597],[210.06073959849377,1222.4181134878086],[209.83229783711337,1222.7873828978386],[210.3048522632037,1222.0427156398443],[210.33610324340873,1221.9679147684217],[211.13860809397482,1220.7434918490858],[210.98732917202614,1220.987047096071],[211.28110977518386,1220.5454475630036],[210.93487350960527,1220.8824951000843],[219.15949028787455,1207.7554138675705],[220.3917796655129,1205.5437129008042],[218.59215580435804,1209.4578992470465],[218.84016960823138,1209.407150832759],[215.3191588156029,1214.7483077593592],[213.63726118238588,1217.0196933389213],[212.69669689789464,1218.4486525413922],[213.12669189048378,1217.9647171962897],[212.1914134122674,1219.386473972124],[211.75971520375094,1219.846755067339],[211.0224261852473,1220.9601028289999],[211.16582098909373,1220.856793352576],[210.65345042892733,1221.641606004653],[209.10812492750023,1224.0411437573578],[209.48547210178677,1223.3482410607674],[207.61032224647556,1226.2388778625502],[208.12706714257502,1225.5568620769],[207.27871342094653,1226.8631057086866],[207.1102622138812,1227.1097564235745],[206.33390747203683,1228.2957482226366],[206.75500552023433,1227.676693454603],[206.33656431360487,1228.31045859466],[204.67574144242616,1230.8363270509792],[202.24502939433506,1234.724480669862],[196.05984782389635,1245.0991928177152],[192.1085374193567,1252.2708003910204],[199.89939269150534,1238.589024682501],[198.40517852191317,1241.1153985922329],[200.20995428878652,1238.074306961787],[200.65319129116642,1237.3294820379938],[201.79059870192788,1235.461681446402],[201.45982264233936,1236.0066573180688],[201.68791891114037,1235.6357155122987],[201.61193438567003,1235.7607022738507],[200.81509035390968,1237.0664637018713],[188.3893180316056,1259.4984527426982]]]]}},{"type":"Feature","properties":{"Level":"ADM2","shapeGroup":"SGP","shapeID":"SGP-ADM2-91842731B84058945","shapeName":"Western Islands","shapeType":"ADM2"},"geometry":{"type":"MultiPolygon","coordinates":[[[[408.18848718174513,973.5989956505357],[407.49238903537434,974.1852234422222],[407.9360918798119,972.7882921941473],[408.6355759502169,971.6605185252297],[411.23668693853006,964.4436700163844],[412.4715742664738,962.3483885797635],[410.487036576675,969.1897559558546],[410.102688348224,969.7778362067851],[410.664905529484,969.0539802170002],[410.7313135705784,969.817713929815],[409.3983081495737,971.793678151459],[409.38263509314766,971.2947973983048],[409.2227289748102,971.9621352903887],[408.9089028186685,972.1479549698639],[408.18848718174513,973.5989956505357]]],[[[406.5978319581771,978.5860380535521],[406.44459094156775,979.0408397240668],[406.0437366781334,979.1072062463693],[406.5978319581771,978.5860380535521]]],[[[403.07923201468105,982.1712152327182],[402.5290747221927,982.579201602405],[402.90917933656806,981.813013498382],[401.85878968372344,982.6557406449931],[403.5878940126207,980.2549557630775],[404.08279278056614,980.2301234423873],[404.901886093267,979.3156064258242],[404.3885471825656,980.2123466127784],[403.78326793110466,980.9465757113167],[404.13106353751965,980.5876412201696],[404.4892410327369,980.0698097568393],[403.88963570474516,980.992266675457],[404.5607535657264,980.0065221687234],[405.096905301221,979.5999303202514],[403.899662718296,981.2305026573351],[403.45374307859356,981.6363354617641],[403.67019138406965,981.508341794512],[403.07923201468105,982.1712152327182]]],[[[415.2670803141893,976.080486534734],[414.822078542228,976.1829313990257],[415.7374676095101,975.7536528780219],[415.2670803141893,976.080486534734]]],[[[475.2004161508519,950.8090048143413],[471.8812197797363,952.0211295335655],[473.49909440719154,950.9131854971089],[478.6327150568301,948.5100982844044],[497.83050738344036,940.0954731566167],[483.5061311712424,947.4533873823641],[475.2004161508519,950.8090048143413]]],[[[398.775093903659,986.5847376559739],[390.6746397551651,992.4411473324642],[383.4091455383249,996.4483253877598],[398.4951808244398,986.3147915401255],[400.67831984695255,984.7941895600843],[401.676815238969,984.0804740647036],[402.5259728135125,983.512798238046],[402.273600047314,983.6828596141821],[402.1449820075751,983.8780101080613],[403.1528468074538,983.085110751662],[402.55813854358246,983.7048644050385],[401.2438807500032,984.6156256596503],[401.5727030558733,984.528748298934],[402.07463686831784,984.1012868120142],[401.5147002506427,984.6454644314439],[401.0785569267087,984.957444382568],[400.397464409618,985.2880794192644],[398.9149296970549,986.4289295247743],[399.6729712335545,985.9127315204132],[398.775093903659,986.5847376559739]]],[[[411.8932568277324,978.7597541441215],[410.53502139394845,979.7547413683913],[413.8272374337747,977.2466556328981],[414.5880684130819,976.709538524085],[414.44317863376534,976.8723613378291],[414.8517791179112,976.5911199027502],[414.8760335150048,976.614001632043],[414.32322057574464,976.9910612128381],[414.79587519552484,976.7010307314877],[415.51272470235494,976.1758437955826],[416.6061711306309,975.1624132674139],[421.42531442944795,971.9514020167206],[424.33441016415134,970.2264560856397],[425.73978983556066,969.5078335288848],[423.84088477046475,970.8004899306907],[432.1222718610908,966.7622384320753],[421.60797068908744,972.6151181117464],[417.92943463538165,974.8927507242673],[416.27918063010696,975.8431720584524],[414.6508605915629,976.9091949724227],[414.26084686251056,977.10475490734],[413.860208930368,977.409386674515],[413.27379182241077,977.7585379849893],[413.7417557687616,977.4918349370814],[413.3365811861332,977.796480411016],[412.8489197165446,978.0854565905325],[412.32182860831193,978.4996485099234],[411.8932568277324,978.7597541441215]]],[[[407.0356253749469,982.2582732459389],[405.81315426868844,983.0643176244241],[406.70214834879675,982.482155385024],[407.26239507034506,982.0562677678884],[407.0514910696792,982.178885579199],[407.25347996236866,982.0481163447516],[407.67881993202616,981.7770370313763],[407.47053473218136,981.9131113400363],[407.3125794828949,982.0360712632078],[407.27651118861723,982.0775526375276],[407.58014285100245,981.8563448401742],[407.0356253749469,982.2582732459389]]],[[[405.191434720454,983.4568784822897],[405.4266781423581,983.1738538132444],[405.95866401226164,982.8470143017303],[405.59581105116405,983.045615726448],[406.7853709411082,982.3358225929862],[406.3916843855936,982.5874649854584],[406.38113260336286,982.6575859639179],[405.39164847479253,983.2604029784952],[405.191434720454,983.4568784822897]]],[[[404.2681981903449,984.3764840116962],[402.42541851247586,986.0002260989855],[400.94114825228496,987.1159632189816],[402.82869511605895,985.1444513499268],[406.13648454970877,982.9463904255869],[409.07494091021636,980.9019768004864],[411.6833432502056,979.2117041615527],[411.80383742314336,979.2039669522962],[410.2372565859225,980.3358698644681],[407.90439272126906,981.7851259794552],[406.4464612236315,982.9598314933829],[405.950923758847,983.2125538807311],[404.2681981903449,984.3764840116962]]],[[[407.27948395924454,982.5673928324109],[406.7917696285241,982.8177221877327],[407.9539291150371,981.786939359964],[411.4261803798727,979.5052879468105],[413.23230530144156,978.2191205815272],[416.2359056779056,976.3247351859825],[412.2793007430833,979.0661268264013],[408.52069568537325,981.7503115302861],[407.27948395924454,982.5673928324109]]],[[[210.63218039643465,1221.9145390228173],[210.5683681070831,1221.994837284065],[210.0468899365268,1222.7805108772852],[209.4541165627033,1223.6781258854244],[209.43494071433406,1223.681245217882],[209.53443242482547,1223.5204367708702],[209.36048117272102,1223.783651343589],[209.27148226452044,1223.9196108928777],[209.1993643372128,1224.0212807334592],[208.94356416469515,1224.4119763495714],[209.07535458881102,1224.2271169124408],[208.9925586663014,1224.3764046549636],[208.0225132036537,1225.8233972762753],[208.18617155678828,1225.5419825863999],[207.91858943709403,1225.943380480778],[207.80063125018665,1226.1077898485366],[208.1226968259573,1225.6127953165208],[210.59810897264487,1221.8097913465533],[212.54326936823114,1218.987803046342],[213.27413007767026,1217.9928112014386],[215.92183631187046,1214.2058122596527],[216.38377630660563,1213.3930526263155],[214.33109272774806,1216.4061905434742],[217.0414043974383,1212.4242756151507],[217.49205715072276,1211.8288676166715],[213.29280496575765,1218.0526260587042],[210.0658334055104,1222.6756889851033],[209.47463819459992,1223.5834359021167],[209.2541188874509,1223.933461888797],[209.99251749253511,1222.8052618884053],[211.94869073990066,1219.9425923895983],[213.91340299853354,1217.250124164766],[214.77313585665453,1216.0752867697674],[210.980817090732,1221.3537995622858],[210.6264598146641,1221.8724561936426],[211.1115585795144,1221.1692458434568],[210.7351335532602,1221.7129341496543],[211.3969435694092,1220.7626493735431],[226.4541157407129,1200.6396288042054],[237.61514248657457,1187.5698267902103],[233.3295528047966,1192.3809826068566],[225.68928248761148,1201.6946456293015],[216.22479097617457,1214.157854577989],[213.85142367425428,1217.3676397223953],[214.40475964618778,1216.608181762223],[225.7248633477253,1201.6508356732581],[229.8553018921299,1196.4590666693744],[251.91053965926957,1173.9127802066519],[228.877220646967,1197.7557992893667],[220.11045189166563,1208.9700869914752],[215.92758831043415,1214.5763890616695],[212.6537456974609,1219.0391878017726],[212.144185877141,1219.7453148388422],[211.6587404706669,1220.4256984463177],[211.94552990423813,1220.0236633280172],[211.68566465364782,1220.3921357074043],[211.45592279033957,1220.7136659119374],[210.68214450921153,1221.8260424567648],[210.74266202318262,1221.750722224192],[210.63218039643465,1221.9145390228173]]]]}},{"type":"Feature","properties":{"Level":"ADM2","shapeGroup":"SGP","shapeID":"SGP-ADM2-91842731B8759017","shapeName":"Western Water Catchment","shapeType":"ADM2"},"geometry":{"type":"MultiPolygon","coordinates":[[[[173.50142388239834,1578.551264793462],[173.49795628595632,1578.5488473526034],[173.49503144080836,1578.5467818026018],[173.49447885536597,1578.5463667376694],[173.49428177235342,1578.5462187129033],[173.49391798307008,1578.5459452818127],[173.49186790023492,1578.5443964987346],[173.48371776227538,1578.538007022646],[173.47437738022657,1578.5304393685342],[173.46762648498276,1578.524959980085],[173.47006600248704,1578.5269521080177],[173.4666743168209,1578.5241798672218],[173.46600227619967,1578.5236309229083],[173.47244432161705,1578.5288835025463],[173.47354997770333,1578.5297743706574],[173.4744350121115,1578.5304858709019],[173.47784297639444,1578.5332445866452],[173.4794263257235,1578.5345367511145],[173.4921951964817,1578.5446454222276],[173.49550474928694,1578.5471236396947],[173.4951529379596,1578.5468727365978],[173.49317822666765,1578.5453900891935],[173.49543687838116,1578.5470759237576],[173.4937590222167,1578.5458262635757],[173.4952096121834,1578.546914043302],[173.4917774323086,1578.544328271942],[173.49190695808576,1578.544426718001],[173.4857103919518,1578.5395996021564],[173.48024908775233,1578.5352107174845],[173.48165148960751,1578.5363452502638],[173.4789154295452,1578.5341195572762],[173.4772557448553,1578.5327686751848],[173.4749743138527,1578.530921165369],[173.4749619515171,1578.5309113070698],[173.46993273182295,1578.5268449083133],[173.47069753610873,1578.5274723643593],[173.46493470901444,1578.5227668979487],[173.4614477867611,1578.5199225597005],[173.4422200078791,1578.5039855118466],[173.4096116069634,1578.4741907705356],[173.22397290884112,1578.28444631133],[172.96818239703654,1577.9824229820906],[172.8563184411359,1577.8477384916773],[172.78097335726767,1577.757965654508],[170.985583497591,1575.6441139165686],[171.5858737385248,1576.3791030967905],[170.9492714113634,1575.5969954906936],[142.61094478031734,1473.9783816127701],[143.2753564627326,1458.930728973403],[146.01802799868705,1427.7185445561377],[166.80088799940074,1311.9182649605254],[168.28127318752686,1307.3778165003494],[169.19064002924534,1304.6907855252825],[176.47664176017895,1285.3549290331189],[178.47243925136422,1280.6737358267803],[188.3893180316056,1259.4984527426982],[178.8554954600248,1279.780067008435],[175.48503249766173,1287.7799187275332],[174.70095748783456,1289.728945279562],[169.84626255929356,1302.807754199889],[166.84037751874513,1311.792941990332],[162.35256772645343,1327.1395419516589],[153.6055092971435,1367.7431940083995],[158.4490072442282,1554.259786511407],[173.30404957816032,1578.3700233704285],[173.40030020996267,1578.4648173707535],[173.46292066650284,1578.5211212418071],[173.47354488713626,1578.5297685826401],[173.48286639342405,1578.537316136065],[173.49814824816025,1578.5489815899916],[173.4973972225017,1578.5484544365486],[173.5010558734834,1578.5510077683314],[173.50142388239834,1578.551264793462]]],[[[173.4972159623027,1578.5483273710208],[173.49799061125728,1578.5488714937762],[173.49779114461103,1578.5487313977092],[173.4972159623027,1578.5483273710208]]]]}},{"type":"Feature","properties":{"Level":"ADM2","shapeGroup":"SGP","shapeID":"SGP-ADM2-91842731B34010756","shapeName":"Woodlands","shapeType":"ADM2"},"geometry":{"type":"MultiPolygon","coordinates":[[[[515.4486404012624,1513.0690229910103],[519.8395318868752,1521.812365916102],[520.746172160708,1613.961686126369],[502.258977920462,1616.2736742247423],[419.2531061028738,1660.1007567804218],[237.62979603909776,1582.4259037130919],[215.4532027051249,1585.0988813442873],[216.85891987243357,1585.084378805516],[212.51257467563318,1585.3910185761308],[194.2894626564683,1585.6414883807324],[184.12288826043653,1583.5497565588182],[192.55620126202405,1585.437077281079],[181.52214302613427,1582.6312928159432],[178.84892348784632,1581.4753499398303],[208.0891804433632,1585.7192130207218],[383.6239035450004,1502.4680953085713],[424.1165481183823,1476.3408301926272],[427.4790233711369,1474.8868384402228],[492.97560014734375,1496.6346042670039],[515.4486404012624,1513.0690229910103]]]]}},{"type":"Feature","properties":{"Level":"ADM2","shapeGroup":"SGP","shapeID":"SGP-ADM2-91842731B71564682","shapeName":"Yishun","shapeType":"ADM2"},"geometry":{"type":"MultiPolygon","coordinates":[[[[656.8657629545328,1441.2214753501012],[703.7649184932841,1479.8905995069483],[731.2717442399621,1510.9718915406493],[739.9717371175506,1521.7641955712184],[746.1867437272912,1529.338656779037],[745.4179332292937,1531.0062586113713],[745.5747862832573,1531.1261698864846],[745.338051163697,1531.2705439988995],[745.061530132094,1531.5598386101417],[741.4555223902394,1535.195779869292],[739.3199346038484,1537.4308015447345],[725.2783178919144,1550.74895839629],[715.8056037465878,1558.7090979877646],[682.2676197860526,1577.5443101666128],[612.7355961169219,1585.8558385880804],[580.3218205929837,1573.3663397899518],[528.2527218652735,1524.796909633426],[503.98716372195315,1503.1979814429646],[433.5960297958974,1474.4509956483057],[429.0689334978912,1474.2297339363768],[428.52388643270353,1474.434287397119],[427.9654943906767,1474.6755649381564],[427.92129761754137,1474.6932340485378],[428.8446796065615,1474.2663579209325],[429.6473626962421,1473.8649865775],[432.5283745405566,1472.2158345796859],[527.3680102607482,1453.2949035939394],[656.8657629545328,1441.2214753501012]]]]}}]}
