{"type":"FeatureCollection","bbox":[-0.004209849709802407,-0.0026499327977802523,0.004209577667735652,0.002649967688483912],"crs":{"type":"name","properties":{"name":"EPSG:cartesian"}},"properties":{"note":"Created using cartogram-cpp / go-cart.io with custom projection, not in EPSG:4326"},"features":[{"type":"Feature","properties":{"Level":"ADM2","shapeGroup":"SGP","shapeID":"SGP-ADM2-91842731B16705465","shapeName":"Ang Mo Kio","shapeType":"ADM2"},"geometry":{"type":"MultiPolygon","coordinates":[[[[0.00019448538405770723,0.001259582600269482],[0.0001787094469102461,0.0013542769654009135],[0.00014336610537358938,0.0013745739916046773],[9.46244144150738e-05,0.0013638820216428371],[-7.474256266786451e-05,0.001352528036484557],[-0.0003418590812547934,0.001291629298336261],[-0.0004910340293416309,0.0013159444257269115],[-0.0005169066444514629,0.001203177396668309],[-0.0005218660123974195,0.0012002590618394038],[-0.0005246384852096553,0.0011806012153527945],[-0.0004923686615940532,0.0011837332855932914],[-0.00048005070652583413,0.001159021138775529],[-0.0005093169198645437,0.0010710341846333904],[-0.0004311117191397238,0.0010597540551415818],[-0.0003975286642709641,0.0010424588984179195],[-0.0003708078273585311,0.0010614107399433692],[-0.0003378480686602592,0.0010419700618271577],[-0.0003555862687915532,0.0009682462773739076],[-0.0003400737064834401,0.0009414882406275638],[-0.0003408512286300207,0.0008731197248650346],[-0.00032567203697033564,0.0008469864538867],[-0.0002622396839984534,0.0008504171723728859],[1.1367858736971573e-05,0.0007791595019952524],[0.00017270217573743096,0.0006382563846258904],[0.000243569122531251,0.000871997282892778],[0.00019874927837052733,0.0010248641283467919],[0.00019448538405770723,0.001259582600269482]]]]}},{"type":"Feature","properties":{"Level":"ADM2","shapeGroup":"SGP","shapeID":"SGP-ADM2-91842731B15087516","shapeName":"Bedok","shapeType":"ADM2"},"geometry":{"type":"MultiPolygon","coordinates":[[[[0.001485152766124842,-0.00023376775648387138],[0.0015108941175456642,-0.0002454999809629044],[0.001644653894784745,-0.00018310009854616283],[0.0018980861388210061,-0.00013502935685494322],[0.002035720842935987,-7.890130008547658e-05],[0.0019792044659737267,4.235333980773248e-05],[0.0018706089123976832,0.0001337437609336689],[0.0017799313166821254,0.0002686662814355145],[0.001599758654466213,0.00030630212152260583],[0.0013610746193876324,0.0005173733957164472],[0.0012611884483418616,0.0004673318473678023],[0.001202733812854229,0.00040723850442958565],[0.0011521282206069501,0.00044541950810383923],[0.0010578321444284422,0.00035295155750247886],[0.0009619846109410044,0.00034484214185681594],[0.0008894326402666777,0.00037374968925263374],[0.0008586622630957129,0.00032907731372233684],[0.0010208408183900238,0.00016665290731054938],[0.0010116267308202954,6.239912238470424e-06],[0.0010424059455028303,-9.806635694786792e-05],[0.00109958951719677,-0.00023378470661583606],[0.001244003324819559,-0.0002002034318380197],[0.001265800804216849,-0.0002958223281694927],[0.001485152766124842,-0.00023376775648387138]]]]}},{"type":"Feature","properties":{"Level":"ADM2","shapeGroup":"SGP","shapeID":"SGP-ADM2-91842731B69392651","shapeName":"Bishan","shapeType":"ADM2"},"geometry":{"type":"MultiPolygon","coordinates":[[[[-0.00032567203697033564,0.0008469864538867],[-0.0003432593848249749,0.000798073413847078],[-0.00034653150646668,0.0007635345670635729],[-0.00038229147072019713,0.0007775468487380977],[-0.0003946985156620519,0.0007475740715392476],[-0.00045839363910624414,0.0007375470580228694],[-0.0004729077669248819,0.0007014931166793303],[-0.0004873055163007268,0.0006150196217333814],[-0.00040861550265352333,0.0005825876895144688],[-0.00035293132510096,0.0006152551935016959],[-0.00028681078897667054,0.0005841606803755894],[-0.00026932576304496684,0.0005663027315208069],[-0.00025991060761241554,0.0005435381499836467],[-0.00017773389025415554,0.00047846771803250476],[-0.0001886938887235711,0.0004083796648473026],[-0.00018224824783507446,0.0004023503679491114],[-9.755635902829486e-05,0.00045621432202125334],[0.00023506524927343025,0.00042691606407885274],[0.00017270217573743096,0.0006382563846258904],[1.1367858736971573e-05,0.0007791595019952524],[-0.0002622396839984534,0.0008504171723728859],[-0.00032567203697033564,0.0008469864538867]]]]}},{"type":"Feature","properties":{"Level":"ADM2","shapeGroup":"SGP","shapeID":"SGP-ADM2-91842731B95017104","shapeName":"Boon Lay","shapeType":"ADM2"},"geometry":{"type":"MultiPolygon","coordinates":[[[[-0.0026116214133259513,-0.0001988730084008239],[-0.0025240598542546062,-0.000260630787046523],[-0.002522319160677957,-0.0002984782632893257],[-0.0024286072939698334,-0.0002945532967686404],[-0.002417970882607982,-0.0001975486805889659],[-0.0023928720026671246,-0.0001952871929162825],[-0.0023928673107854047,-0.0001946422380427748],[-0.002393137484629955,-8.462312414536655e-05],[-0.002224492677206017,-8.084137373032263e-05],[-0.0022223625864569653,8.113713803936662e-05],[-0.002196830245124017,0.00022189611080136729],[-0.0024474907880657473,0.00015407060988081867],[-0.002625257738750707,0.00015401755391053484],[-0.002636326209285329,-6.486052033949363e-05],[-0.0027468145512594172,-7.46747804498682e-05],[-0.0028940666318658676,-0.00014510628697905759],[-0.0028861159268583755,-0.00017004350386429223],[-0.0028456042748620223,-0.00034631292555786786],[-0.002673405518229807,-0.00031411975200512643],[-0.002676927167264451,-0.00024166869781794276],[-0.002650533890968536,-0.00019327672439573007],[-0.002662612006018557,-0.00024489812916073106],[-0.002640911667633313,-0.00032193692865689627],[-0.0025746546999850985,-0.00033880995088253485],[-0.0025751840372548423,-0.00027182379804457923],[-0.0026471587140678,-0.0001917931000008366],[-0.0026116214133259513,-0.0001988730084008239]]]]}},{"type":"Feature","properties":{"Level":"ADM2","shapeGroup":"SGP","shapeID":"SGP-ADM2-91842731B11718063","shapeName":"Bukit Batok","shapeType":"ADM2"},"geometry":{"type":"MultiPolygon","coordinates":[[[[-0.001336218738974793,0.0005249015264539025],[-0.0013872375011589068,0.0006794082018828362],[-0.0013857843126835704,0.0007955486158905956],[-0.0014602138440357733,0.0009192815774881069],[-0.0014957441109763367,0.0010599031768023792],[-0.0016253944488184692,0.0010007249730819012],[-0.0017182892233305017,0.0008746089326976403],[-0.0018725318145933166,0.0007105366655437706],[-0.001922257128065069,0.0006492506809721021],[-0.0019124853466284323,0.0005796352462752452],[-0.001895528358081725,0.0005187571552625059],[-0.0018969486691129305,0.0005067451881188845],[-0.0018995139120307914,0.0004991959511642108],[-0.0019025032875397286,0.0004920881665455568],[-0.001914112182818222,0.00047232931562035674],[-0.0017832401790758624,0.00043612509684720635],[-0.0017738245440832032,0.00043113605298117363],[-0.0017020985008470689,0.00038966166579967876],[-0.0014370154118439865,0.0002421811182671263],[-0.0014189832350628713,0.00023581938764039023],[-0.0014196196597399268,0.00029394703246055087],[-0.001445049022030527,0.0003562926489024676],[-0.0014279901488363715,0.00040433708809217705],[-0.0013929182223608421,0.0004163021180119131],[-0.001461860109040638,0.00048469672876194636],[-0.001336218738974793,0.0005249015264539025]]]]}},{"type":"Feature","properties":{"Level":"ADM2","shapeGroup":"SGP","shapeID":"SGP-ADM2-91842731B75613840","shapeName":"Bukit Merah","shapeType":"ADM2"},"geometry":{"type":"MultiPolygon","coordinates":[[[[-0.0004100128492294141,-0.0010548009164850214],[-0.0004128635455971588,-0.0010731979940530323],[-0.0004069188885938796,-0.0010563660432083566],[-0.00040052280405263946,-0.0010596015938801884],[-0.0003992897167310985,-0.0010259911557071177],[-0.0003338598493100385,-0.0010825147490081122],[-0.00027747281466138535,-0.0010735163418900129],[-0.0001851253798803117,-0.0011193603100565497],[-7.830601781243793e-05,-0.0010660588250956948],[-0.00018981137044081937,-0.0009615505837743399],[-0.00028867048052585,-0.0009654273882517828],[-0.00039361402323841345,-0.0010253691183024216],[-0.00039865154665454523,-0.00097491245333714],[-0.0002597098386904401,-0.0008993460317938684],[-0.00013111329240925336,-0.0008957623082110899],[-1.782442441863024e-05,-0.0010018196458005946],[-4.033667787400926e-06,-0.0009863746084946001],[-4.679215973639332e-05,-0.0009320445339611183],[-2.2061689664748166e-05,-0.0009094204476980394],[7.493907921621645e-05,-0.0010159663644131456],[8.025525579986664e-05,-0.0008670776101240563],[-2.2481144680733936e-05,-0.0008094711361792406],[-8.393801139038207e-05,-0.0008090306343717657],[-9.759528716224879e-05,-0.0007817053308656341],[-0.00013476352145681817,-0.0006658606801366318],[-0.00020279277527532542,-0.0006086652201418019],[-0.0002087372017719431,-0.0005528091461997064],[-0.0002362090118568121,-0.00046379400841090046],[-0.0002642955968643181,-0.00046750639859993726],[-0.00026451505715579274,-0.0004675424957625296],[-0.0002676349208580575,-0.000468035638839126],[-0.0003939287944119385,-0.00047145915837631946],[-0.0005407102437501283,-0.00043348340111748485],[-0.0005514051153792588,-0.0004785719664184285],[-0.000663383912833895,-0.0004627415683344793],[-0.0007689432379180171,-0.0005670954798446814],[-0.0007974646948276197,-0.0006236054135371205],[-0.0007649107900598702,-0.0006983444375023851],[-0.0007809455023397572,-0.0008071878108992792],[-0.0008332758999297763,-0.0008855964976390851],[-0.0007297749796297144,-0.0009886212652503445],[-0.0006935482736886732,-0.000926092051408034],[-0.0006417426137595652,-0.0009415952164246733],[-0.0006181356224895172,-0.0009163646203020903],[-0.0005588288161885391,-0.0009499982465186463],[-0.0005922901390557082,-0.0009647638062588726],[-0.0006176580602185311,-0.0009439566651607834],[-0.0006401785029761028,-0.0009645259698274344],[-0.0006221578752621787,-0.000983744701386513],[-0.000556842357347933,-0.0009517919533621466],[-0.0004780191525866524,-0.0009722235695264203],[-0.0005043519009505553,-0.0009945664103057084],[-0.00041379454371320135,-0.0009751107593274355],[-0.00041464606066637564,-0.001052457148794872],[-0.0004100128492294141,-0.0010548009164850214]]]]}},{"type":"Feature","properties":{"Level":"ADM2","shapeGroup":"SGP","shapeID":"SGP-ADM2-91842731B44469853","shapeName":"Bukit Panjang","shapeType":"ADM2"},"geometry":{"type":"MultiPolygon","coordinates":[[[[-0.001336218738974793,0.0005249015264539025],[-0.0012063318809808071,0.0003999359420205906],[-0.00104361686636512,0.00044762796796504745],[-0.001023510028475477,0.0004668846506987734],[-0.0010606558963541042,0.0005171977888167589],[-0.0010067090447565294,0.0005266684508882236],[-0.001004478431592382,0.0005054930316106265],[-0.0009650539621081883,0.0005293200909051166],[-0.0011134384415312636,0.0006648024698918675],[-0.0011639326092619108,0.0007542321829703269],[-0.0012386202795835945,0.0010626680556313772],[-0.0012652482336368161,0.001245249719993069],[-0.001430900967515867,0.001253577013265783],[-0.0016023611430428467,0.001220415113273532],[-0.0014957441109763367,0.0010599031768023792],[-0.0014602138440357733,0.0009192815774881069],[-0.0013857843126835704,0.0007955486158905956],[-0.0013872375011589068,0.0006794082018828362],[-0.001336218738974793,0.0005249015264539025]]]]}},{"type":"Feature","properties":{"Level":"ADM2","shapeGroup":"SGP","shapeID":"SGP-ADM2-91842731B90456756","shapeName":"Bukit Timah","shapeType":"ADM2"},"geometry":{"type":"MultiPolygon","coordinates":[[[[-0.0014370154118439865,0.0002421811182671263],[-0.0012444334234815652,0.00013063379934408204],[-0.001323692347732399,5.141013011211726e-05],[-0.0013219781650855025,-3.6463827939314797e-06],[-0.0011874931337951438,-0.00010383126480206784],[-0.0010751476609834006,-0.00013709072078427198],[-0.001084850389003484,-6.859962692828958e-05],[-0.0010518446905108708,-5.48603814110038e-05],[-0.0009733651953527016,-0.0001504794730209369],[-0.0009393136355837207,-9.689510008570323e-05],[-0.0009163519885949931,-0.0001508489132859836],[-0.0008360725111728377,-0.0001909360032854579],[-0.0008236574875954596,-0.00016213684224197777],[-0.0007796272476136262,-0.00020421043961249552],[-0.0007332902866738474,-7.049766644939837e-05],[-0.000617322832605779,2.0911526377176415e-05],[-0.000586422916311696,7.595750560795977e-05],[-0.0005739862860551334,0.0001687400991485788],[-0.0004946074033767328,0.00029399345488201334],[-0.0005218630832986474,0.00030183058981947397],[-0.0005712087947454122,0.00033774854070145466],[-0.0006043450559751457,0.00034974656481523425],[-0.0006466863240221031,0.00039796995439189686],[-0.0007363001517700192,0.0003910843350851678],[-0.0007544612361825835,0.0003997318542374728],[-0.000860328640793692,0.0005093915452007991],[-0.0008816222221460781,0.0005225510687125734],[-0.0008946173173185567,0.0005276378117429203],[-0.0009236642744656234,0.0005338015240141658],[-0.0009650539621081883,0.0005293200909051166],[-0.001004478431592382,0.0005054930316106265],[-0.0010067090447565294,0.0005266684508882236],[-0.0010606558963541042,0.0005171977888167589],[-0.001023510028475477,0.0004668846506987734],[-0.00104361686636512,0.00044762796796504745],[-0.0012063318809808071,0.0003999359420205906],[-0.001336218738974793,0.0005249015264539025],[-0.001461860109040638,0.00048469672876194636],[-0.0013929182223608421,0.0004163021180119131],[-0.0014279901488363715,0.00040433708809217705],[-0.001445049022030527,0.0003562926489024676],[-0.0014196196597399268,0.00029394703246055087],[-0.0014189832350628713,0.00023581938764039023],[-0.0014370154118439865,0.0002421811182671263]]]]}},{"type":"Feature","properties":{"Level":"ADM2","shapeGroup":"SGP","shapeID":"SGP-ADM2-91842731B39071774","shapeName":"Central Water Catchment","shapeType":"ADM2"},"geometry":{"type":"MultiPolygon","coordinates":[[[[-0.0004910340293416309,0.0013159444257269115],[-0.000565920850919178,0.0013565839977616179],[-0.0006667043961886769,0.0015361899467265516],[-0.0007186548100875953,0.0016652601979814108],[-0.0007707493144925681,0.0016975832772558874],[-0.0008531043013882359,0.00168188193239871],[-0.0010818065795516162,0.001616834437939474],[-0.001112213802629698,0.0016050217569016922],[-0.0013135432980126555,0.0015891107679379957],[-0.001279802945484393,0.0014375695661001942],[-0.0012386202795835945,0.0010626680556313772],[-0.0011639326092619108,0.0007542321829703269],[-0.0011134384415312636,0.0006648024698918675],[-0.0009650539621081883,0.0005293200909051166],[-0.0009236642744656234,0.0005338015240141658],[-0.0008946173173185567,0.0005276378117429203],[-0.0008816222221460781,0.0005225510687125734],[-0.000860328640793692,0.0005093915452007991],[-0.0007544612361825835,0.0003997318542374728],[-0.0007363001517700192,0.0003910843350851678],[-0.0006466863240221031,0.00039796995439189686],[-0.0006043450559751457,0.00034974656481523425],[-0.0005712087947454122,0.00033774854070145466],[-0.0005218630832986474,0.00030183058981947397],[-0.0004946074033767328,0.00029399345488201334],[-0.0004580217107658029,0.00036276824643266536],[-0.00031343340061565773,0.00038280887063280034],[-0.00025737152906519297,0.00037538032262318666],[-0.000244163603398109,0.00037485678480209117],[-0.0002338304648132326,0.0003762156331248434],[-0.00022022904241679437,0.0003809181464546896],[-0.0001915285650851815,0.00039690084629029343],[-0.00018224824783507446,0.0004023503679491114],[-0.0001886938887235711,0.0004083796648473026],[-0.00017773389025415554,0.00047846771803250476],[-0.00025991060761241554,0.0005435381499836467],[-0.00026932576304496684,0.0005663027315208069],[-0.00028681078897667054,0.0005841606803755894],[-0.00035293132510096,0.0006152551935016959],[-0.00040861550265352333,0.0005825876895144688],[-0.0004873055163007268,0.0006150196217333814],[-0.0004729077669248819,0.0007014931166793303],[-0.00045839363910624414,0.0007375470580228694],[-0.0003946985156620519,0.0007475740715392476],[-0.00038229147072019713,0.0007775468487380977],[-0.00034653150646668,0.0007635345670635729],[-0.0003432593848249749,0.000798073413847078],[-0.00032567203697033564,0.0008469864538867],[-0.0003408512286300207,0.0008731197248650346],[-0.0003400737064834401,0.0009414882406275638],[-0.0003555862687915532,0.0009682462773739076],[-0.0003378480686602592,0.0010419700618271577],[-0.0003708078273585311,0.0010614107399433692],[-0.0003975286642709641,0.0010424588984179195],[-0.0004311117191397238,0.0010597540551415818],[-0.0005093169198645437,0.0010710341846333904],[-0.00048005070652583413,0.001159021138775529],[-0.0004923686615940532,0.0011837332855932914],[-0.0005246384852096553,0.0011806012153527945],[-0.0005218660123974195,0.0012002590618394038],[-0.0005169066444514629,0.001203177396668309],[-0.0004910340293416309,0.0013159444257269115]]]]}},{"type":"Feature","properties":{"Level":"ADM2","shapeGroup":"SGP","shapeID":"SGP-ADM2-91842731B90623709","shapeName":"Changi","shapeType":"ADM2"},"geometry":{"type":"MultiPolygon","coordinates":[[[[0.0023879310916621044,-3.942492275399445e-05],[0.002412121049830784,-9.66483267887952e-05],[0.0023895425209759114,-0.00012068388107877581],[0.002517996805718087,-8.23993261676037e-05],[0.0026869180433641113,-0.00014887893291160026],[0.0027490583810871184,-0.00013632806976460188],[0.00285765074864262,-6.4868286912656e-05],[0.0029362834215793587,-5.6196826662358035e-05],[0.003231981994709842,0.0006632040497294156],[0.003215920877822735,0.0006744338101256631],[0.0032572479370853893,0.0007236991265102688],[0.0029075867243982876,0.0008929164160278447],[0.002846630710030706,0.0008676650634811267],[0.0027691901879674983,0.0008829479935243967],[0.0027892639462786723,0.0009350771857512541],[0.002824822510820089,0.0009547788595369866],[0.002777752474458908,0.0009698622010958502],[0.002655028174326013,0.0012216319806768183],[0.0025841734956072236,0.0012647753900338898],[0.002360387548018576,0.0013051132370236473],[0.0022395843335219316,0.0012710342557866738],[0.002197370003876449,0.0012003752311500193],[0.0022958949101787,0.0010485771343908823],[0.00223226911693639,0.0009609769808633928],[0.0023096257615902805,0.0009315336305704136],[0.0023202853117096725,0.0009030824055429321],[0.0022485962870931273,0.0008364967668157419],[0.002220286359871222,0.0007678608293844036],[0.0021515934952361666,0.0007203672567754893],[0.0021168318928133714,0.0006135701835958685],[0.0020470835375643393,0.0005891973001013184],[0.002162844963568519,0.00038852303650571685],[0.0024040810305378042,0.00027144119255950727],[0.002314082219375927,5.70195304732124e-05],[0.0024053480762667935,1.055777929082069e-06],[0.0023879310916621044,-3.942492275399445e-05]]]]}},{"type":"Feature","properties":{"Level":"ADM2","shapeGroup":"SGP","shapeID":"SGP-ADM2-91842731B22047646","shapeName":"Changi Bay","shapeType":"ADM2"},"geometry":{"type":"MultiPolygon","coordinates":[[[[0.0029362834215793587,-5.6196826662358035e-05],[0.003067681988868267,-5.273235380798269e-05],[0.0030657205308679655,2.2207730609125065e-05],[0.0031754328438498495,2.51206444232821e-05],[0.003177376114753353,-4.982904031436419e-05],[0.003240741571726849,-4.8163260750300196e-05],[0.0032382000386700456,9.877952192027806e-05],[0.0030434483555342407,9.398197293108979e-05],[0.0030324394607630237,0.00011742343673404321],[0.003231981994709842,0.0006632040497294156],[0.0029362834215793587,-5.6196826662358035e-05]]],[[[0.0032572479370853893,0.0007236991265102688],[0.0032454340987788577,0.0006955102888284159],[0.0033916925085937686,0.0006150520512875346],[0.003415044958514039,0.0005661704006527657],[0.003399956029631685,0.0005264026574423042],[0.0034239594206018614,0.0005204196825587815],[0.0034068979212967094,0.0006084384274203103],[0.0032793082163110505,0.0007090677884704633],[0.0032572479370853893,0.0007236991265102688]]]]}},{"type":"Feature","properties":{"Level":"ADM2","shapeGroup":"SGP","shapeID":"SGP-ADM2-91842731B37820439","shapeName":"Choa Chu Kang","shapeType":"ADM2"},"geometry":{"type":"MultiPolygon","coordinates":[[[[-0.0014957441109763367,0.0010599031768023792],[-0.0016023611430428467,0.001220415113273532],[-0.0016339186534780961,0.0012227465085530298],[-0.0016484016667315236,0.0014815897794164812],[-0.0017613346743171137,0.001510530886029926],[-0.0017695570195756462,0.0015014592628332935],[-0.0018621878368955604,0.001262663233468686],[-0.0018389581327711508,0.0011810980423447859],[-0.001913535505212724,0.001117122780271984],[-0.0019943037804557085,0.0010470914767353179],[-0.0019005098189666502,0.00096139515816418],[-0.0017715511218113838,0.0009218446293246529],[-0.0017182892233305017,0.0008746089326976403],[-0.0016253944488184692,0.0010007249730819012],[-0.0014957441109763367,0.0010599031768023792]]]]}},{"type":"Feature","properties":{"Level":"ADM2","shapeGroup":"SGP","shapeID":"SGP-ADM2-91842731B65220759","shapeName":"Clementi","shapeType":"ADM2"},"geometry":{"type":"MultiPolygon","coordinates":[[[[-0.0017020985008470689,0.00038966166579967876],[-0.0016921425105508089,0.00014209919643803914],[-0.0016559462950706998,6.2327510839566e-05],[-0.001658881178728354,5.2307612868673914e-05],[-0.00173334907691156,-9.060164379093294e-05],[-0.0017310139706438845,-0.00016285417935080204],[-0.0016438898405771768,-0.0001977331722002873],[-0.0015648752326748504,-0.0003590090938629942],[-0.0015423723077781794,-0.0003429945054875816],[-0.0015407218861693418,-0.00034425276367500146],[-0.001476820080600686,-0.0003071275749846336],[-0.001399963987619768,-0.0004664459957908207],[-0.0013586138554508081,-0.0004375803634459885],[-0.0013035464445686992,-0.00011855563397489277],[-0.0013219781650855025,-3.6463827939314797e-06],[-0.001323692347732399,5.141013011211726e-05],[-0.0012444334234815652,0.00013063379934408204],[-0.0014370154118439865,0.0002421811182671263],[-0.0017020985008470689,0.00038966166579967876]]]]}},{"type":"Feature","properties":{"Level":"ADM2","shapeGroup":"SGP","shapeID":"SGP-ADM2-91842731B10931458","shapeName":"Downtown Core","shapeType":"ADM2"},"geometry":{"type":"MultiPolygon","coordinates":[[[[8.025525579986664e-05,-0.0008670776101240563],[9.641575270118849e-05,-0.0008765494343450086],[0.00017486355012560304,-0.0007529853281766918],[0.00018390205031536863,-0.0007398410418630874],[0.0001999855089237721,-0.0007138466123208786],[0.00022717600919128708,-0.0006722058663513053],[0.0002502957014720085,-0.0006190756554858012],[0.00025550448184205853,-0.0005303281376711766],[0.0003022287256435541,-0.0005305618320434746],[0.00030971488315719294,-0.0005256064205170219],[0.00030993762983097956,-0.0005252233560568698],[0.0003144186074950125,-0.0005171364945937285],[0.0003087193234547267,-0.00046234644542408887],[0.0003071745745068237,-0.00045156715420091587],[0.0003069863836172858,-0.0004488397145010481],[0.00030616101287081113,-0.00044401703542007454],[0.00030512853427890383,-0.0004351144828333986],[0.0002586092987432667,-0.0004241318569100372],[0.00021738393486965297,-0.00033443075790984267],[0.00012647575203607545,-0.0002774068646544947],[0.00015509823099649464,-0.0003195821089647666],[9.319791795430661e-05,-0.0003937287759612218],[2.271680691561155e-05,-0.0005037113365702339],[6.719571610317622e-05,-0.0005697327532345753],[3.8093034576299357e-06,-0.0005848255074099029],[4.6962918978772266e-05,-0.0006134353734452702],[3.878657615207362e-05,-0.0006480196302476315],[1.0774569294961462e-05,-0.0006879264982089239],[-3.832006393141647e-05,-0.0006562889783623405],[-4.2694316109227486e-05,-0.0007580343961137714],[-9.759528716224879e-05,-0.0007817053308656341],[-8.393801139038207e-05,-0.0008090306343717657],[-2.2481144680733936e-05,-0.0008094711361792406],[8.025525579986664e-05,-0.0008670776101240563]]]]}},{"type":"Feature","properties":{"Level":"ADM2","shapeGroup":"SGP","shapeID":"SGP-ADM2-91842731B16549460","shapeName":"Geylang","shapeType":"ADM2"},"geometry":{"type":"MultiPolygon","coordinates":[[[[0.0008586622630957129,0.00032907731372233684],[0.0007312163873254605,0.00025512413355954777],[0.00037999880710267835,0.00015492030586017336],[0.0005051983768913396,1.9748838411715042e-05],[0.00048399998979076355,-4.501537097922892e-05],[0.000506697154560065,-0.0001772202171324011],[0.0006419129634005535,-0.0002505397047940505],[0.0007441857569730865,-0.00022107541736460234],[0.0007460644063680917,-0.00018071711222233944],[0.0009516080377098334,-0.0001640910560141151],[0.0010424059455028303,-9.806635694786792e-05],[0.0010116267308202954,6.239912238470424e-06],[0.0010208408183900238,0.00016665290731054938],[0.0008586622630957129,0.00032907731372233684]]]]}},{"type":"Feature","properties":{"Level":"ADM2","shapeGroup":"SGP","shapeID":"SGP-ADM2-91842731B68340411","shapeName":"Hougang","shapeType":"ADM2"},"geometry":{"type":"MultiPolygon","coordinates":[[[[0.0008894326402666777,0.00037374968925263374],[0.0009107358120316061,0.0004280897296879971],[0.0008968119127514279,0.0004973226344446857],[0.0008589246817314119,0.0004857594403873122],[0.000811913673407292,0.0005204572170640631],[0.0008507939562432022,0.000612003718075016],[0.0008730572259612561,0.0006024061901896971],[0.0008990811739605093,0.0006503325051809838],[0.0009598199906612655,0.0006669628640096903],[0.001100640933421326,0.0009933362522431821],[0.0010136784612518293,0.0010718017867787921],[0.0008748091192204488,0.0010548306608200164],[0.0007664868780574945,0.0010708864266462115],[0.0005777576297069535,0.0012130410059398855],[0.00045617660864893836,0.001193670518539136],[0.0005224550538884563,0.0011084837967771932],[0.0005142950147012054,0.0008934429404945377],[0.00045939184318548695,0.0007593853821106222],[0.0004723262604439282,0.0006983518482286399],[0.0005427876552175412,0.0006097301690815016],[0.0005152229395469082,0.000584482368111594],[0.0005628909217267624,0.0005600556604932194],[0.000664734730363886,0.00038253883186456505],[0.0007312163873254605,0.00025512413355954777],[0.0008586622630957129,0.00032907731372233684],[0.0008894326402666777,0.00037374968925263374]]]]}},{"type":"Feature","properties":{"Level":"ADM2","shapeGroup":"SGP","shapeID":"SGP-ADM2-91842731B57983807","shapeName":"Jurong East","shapeType":"ADM2"},"geometry":{"type":"MultiPolygon","coordinates":[[[[-0.0023928673107854047,-0.0001946422380427748],[-0.002375702268283707,-0.000183743888214849],[-0.0023655989777420245,-0.00020426296878639505],[-0.0023665660507306355,-0.0003765748903106214],[-0.002357540967282197,-0.00037670255863986313],[-0.0023571130630579743,-0.0003373580357148853],[-0.0022085141028055475,-0.0003390029800840466],[-0.002167808900654192,-0.00033624456278857906],[-0.0022084231340751665,-0.0003338006906616897],[-0.0021993829209656117,-0.00030989710534612414],[-0.002296371247075885,-0.00022760317923342654],[-0.002343970593107605,-0.00021757510138087355],[-0.002351478868079883,-0.00018325798198759458],[-0.002287830526744552,-0.000183650238419375],[-0.002082633893143957,-0.00032583463616475683],[-0.002046929079414483,-0.0003021046025111218],[-0.0018514753427206557,-0.0003512808503884912],[-0.0018065442840158744,-0.00030750338081020345],[-0.0017821239229222569,-0.0003151799620439988],[-0.001793956528700018,-0.00036453335570030276],[-0.00170792984111141,-0.000391623604521385],[-0.0015648752326748504,-0.0003590090938629942],[-0.0016438898405771768,-0.0001977331722002873],[-0.0017310139706438845,-0.00016285417935080204],[-0.00173334907691156,-9.060164379093294e-05],[-0.001658881178728354,5.2307612868673914e-05],[-0.0016559462950706998,6.2327510839566e-05],[-0.0016921425105508089,0.00014209919643803914],[-0.0017020985008470689,0.00038966166579967876],[-0.0017738245440832032,0.00043113605298117363],[-0.0017832401790758624,0.00043612509684720635],[-0.001914112182818222,0.00047232931562035674],[-0.0019360859681786364,0.0004888589919289643],[-0.002073261480814473,0.0006050894707527732],[-0.002073428985615942,0.0005959087796014728],[-0.002073293841393636,0.0005682768282042616],[-0.0020742622405615987,0.0005349948121349257],[-0.0020729467574891807,0.00044374188470897025],[-0.0021830207797806354,0.0004533899320904311],[-0.0021909142670852783,0.0004161604042351996],[-0.002127425635553928,0.0003145652413962807],[-0.0021320210945411666,0.0001700239923181357],[-0.0021104122063506136,0.00010632982525748957],[-0.0022223625864569653,8.113713803936662e-05],[-0.002224492677206017,-8.084137373032263e-05],[-0.002393137484629955,-8.462312414536655e-05],[-0.0023928673107854047,-0.0001946422380427748]]]]}},{"type":"Feature","properties":{"Level":"ADM2","shapeGroup":"SGP","shapeID":"SGP-ADM2-91842731B44472798","shapeName":"Jurong West","shapeType":"ADM2"},"geometry":{"type":"MultiPolygon","coordinates":[[[[-0.0022223625864569653,8.113713803936662e-05],[-0.0021104122063506136,0.00010632982525748957],[-0.0021320210945411666,0.0001700239923181357],[-0.002127425635553928,0.0003145652413962807],[-0.0021909142670852783,0.0004161604042351996],[-0.0021830207797806354,0.0004533899320904311],[-0.0020729467574891807,0.00044374188470897025],[-0.0020742622405615987,0.0005349948121349257],[-0.002073293841393636,0.0005682768282042616],[-0.002073428985615942,0.0005959087796014728],[-0.002073261480814473,0.0006050894707527732],[-0.0020978268621299817,0.0006173292401427943],[-0.0021187862666519224,0.0006264983035038085],[-0.002127035820825406,0.0006293974213491538],[-0.002144803825749598,0.000634049766183864],[-0.0021574059017097427,0.0006368012087634156],[-0.0022422273676872624,0.0006417557009683605],[-0.0022596432813691996,0.0006454945040701432],[-0.002303925095512693,0.000663470473682537],[-0.002311714040089774,0.0006674148580358974],[-0.0024553168502259573,0.0007925453437920282],[-0.0027271213369014454,0.0004762007833036819],[-0.0028658119892026584,0.00036772021234554586],[-0.0029225871780324385,0.0003557812606800326],[-0.002954279082339754,0.00033418395297957204],[-0.00298531616337679,0.0002445117495213367],[-0.0029984230865056213,0.00021498467905445295],[-0.0030017312130226088,0.00021140702406796663],[-0.0029228377561027735,0.0001966295059006029],[-0.002924747120878401,0.0001542177590252436],[-0.002625257738750707,0.00015401755391053484],[-0.0024474907880657473,0.00015407060988081867],[-0.002196830245124017,0.00022189611080136729],[-0.0022223625864569653,8.113713803936662e-05]]]]}},{"type":"Feature","properties":{"Level":"ADM2","shapeGroup":"SGP","shapeID":"SGP-ADM2-91842731B92965426","shapeName":"Kallang","shapeType":"ADM2"},"geometry":{"type":"MultiPolygon","coordinates":[[[[0.00030512853427890383,-0.0004351144828333986],[0.00032030599695089825,-0.00043231167664004033],[0.00033148294073409806,-0.00043024764227794776],[0.0003534938444360824,-0.00042618291348617277],[0.0004042242592687391,-0.0004168145617029495],[0.00043011571644709437,-0.0004134424304993445],[0.0005357306456785427,-0.00040877179555565135],[0.0006694073123718206,-0.0004045565049963784],[0.0006727111412437668,-0.0003096431301372604],[0.0006419129634005535,-0.0002505397047940505],[0.000506697154560065,-0.0001772202171324011],[0.00048399998979076355,-4.501537097922892e-05],[0.0005051983768913396,1.9748838411715042e-05],[0.00037999880710267835,0.00015492030586017336],[0.0002757328738902206,0.00019820888271482318],[0.00026848649685883133,0.00020064521795148949],[0.00026811930055623234,0.00018538554989788736],[0.00026555853284813096,0.00016901812549008355],[0.00024792065376105955,0.0001340033098387039],[0.00015303862430371908,3.7534334097699684e-05],[-1.0963350498770512e-05,-6.029081259839586e-05],[-4.607452538845196e-05,-0.00014637683429441495],[1.3167661325421157e-06,-0.00018852628182486342],[3.1388021276190585e-05,-0.0002150164419418843],[0.00012912609556921736,-9.289812672363951e-05],[0.0001311019392812611,-9.767570124097347e-05],[0.00014741654592865467,-0.00012458516987123858],[0.00013099881654570262,-0.00014530067788598444],[0.00026718043582404835,-0.00030300182324793923],[0.00021738393486965297,-0.00033443075790984267],[0.0002586092987432667,-0.0004241318569100372],[0.00030512853427890383,-0.0004351144828333986]]]]}},{"type":"Feature","properties":{"Level":"ADM2","shapeGroup":"SGP","shapeID":"SGP-ADM2-91842731B84667478","shapeName":"Lim Chu Kang","shapeType":"ADM2"},"geometry":{"type":"MultiPolygon","coordinates":[[[[-0.0018780328412367543,0.0018036243717673983],[-0.001807429056867347,0.0018798995196718238],[-0.001806233552842995,0.001943245024186524],[-0.001810623312149382,0.001969683400488975],[-0.0018186978511335673,0.001997779095731289],[-0.0018205355032508061,0.002002455893268973],[-0.0018322159451528027,0.002019423826780553],[-0.0018382521606148576,0.0020322878536518374],[-0.001843817984800942,0.002047046000726027],[-0.0018491486554224577,0.002064960931889459],[-0.0018525972607548442,0.002082950753887758],[-0.0018927619888320665,0.0020834762465327117],[-0.0019068480356994968,0.002067407474676486],[-0.0019139455000622687,0.0020672609633649586],[-0.0019150017456559076,0.0020676482276584807],[-0.0019162142255593473,0.0020689897505334898],[-0.001917991205638353,0.002072564138074995],[-0.0019185034164505052,0.0020754539203764466],[-0.0019186849240714955,0.0020905203323664523],[-0.0019221543303283915,0.0020906804361260356],[-0.0019265244669355946,0.0021196713179207904],[-0.0019031626361700128,0.0021611072686482657],[-0.0020046140127682605,0.002221404354564527],[-0.001992706496901748,0.0022321037952224287],[-0.002018969712983187,0.00221990483791501],[-0.0019954119256845337,0.0022379511666272833],[-0.0020695693773625907,0.0023061139067053205],[-0.0022227714876032266,0.002306519088051573],[-0.002344902570142716,0.0022750298421456705],[-0.0024489187578267987,0.002215147620425739],[-0.002632333741535449,0.002025779537859762],[-0.0026861010112436247,0.0020025138896144767],[-0.002650863785610103,0.001965013428204543],[-0.002616387692490002,0.0018382087200521369],[-0.0025622983065447928,0.0018194801044302267],[-0.0025878508613188865,0.0017400496059778447],[-0.00253692689469929,0.0017298899428794812],[-0.0025472672964252075,0.0017075233658729871],[-0.002466584735887255,0.0016274385499457367],[-0.0023396076136316924,0.001639137102138477],[-0.00229229011305372,0.0016670622909344956],[-0.0022403870486533825,0.0016079433817495214],[-0.0020776439267277368,0.0016097954034322015],[-0.0018780328412367543,0.0018036243717673983]]]]}},{"type":"Feature","properties":{"Level":"ADM2","shapeGroup":"SGP","shapeID":"SGP-ADM2-91842731B62952515","shapeName":"Mandai","shapeType":"ADM2"},"geometry":{"type":"MultiPolygon","coordinates":[[[[-0.0007186548100875953,0.0016652601979814108],[-0.0006373192834928324,0.001683799717859813],[-0.000553336713625628,0.0016516934198946842],[-0.0004167509480943134,0.0016487806892868662],[-0.0003509885492819773,0.001907800789275882],[-0.0003678098761748929,0.0020319157627710638],[-0.00041517570640217454,0.0020339286691424263],[-0.0005069414864758302,0.0021298512747165432],[-0.0006152906837040629,0.002187508770660429],[-0.0006357597670906469,0.0021203339417326106],[-0.0009072189022174225,0.0018085767971669497],[-0.001019909957831042,0.001864202080355426],[-0.0011242490160358503,0.001878122715474717],[-0.0012343001651403456,0.0018510336036783315],[-0.0013207863679942414,0.001790110310196269],[-0.0013135432980126555,0.0015891107679379957],[-0.001112213802629698,0.0016050217569016922],[-0.0010818065795516162,0.001616834437939474],[-0.0008531043013882359,0.00168188193239871],[-0.0007707493144925681,0.0016975832772558874],[-0.0007186548100875953,0.0016652601979814108]]]]}},{"type":"Feature","properties":{"Level":"ADM2","shapeGroup":"SGP","shapeID":"SGP-ADM2-91842731B18600643","shapeName":"Marina East","shapeType":"ADM2"},"geometry":{"type":"MultiPolygon","coordinates":[[[[0.00030993762983097956,-0.0005252233560568698],[0.0004458435440004612,-0.0006572578590962053],[0.0004673764843333325,-0.0006413796173276864],[0.0005088094326185608,-0.0006699670118806011],[0.000531019510815951,-0.0006702311462802868],[0.000505658007182626,-0.0006659584684456377],[0.0005952447472998913,-0.0005973611296070658],[0.0004974840231934389,-0.0004828169142925276],[0.0005357306456785427,-0.00040877179555565135],[0.00043011571644709437,-0.0004134424304993445],[0.0004042242592687391,-0.0004168145617029495],[0.0003534938444360824,-0.00042618291348617277],[0.00033148294073409806,-0.00043024764227794776],[0.00032030599695089825,-0.00043231167664004033],[0.00030512853427890383,-0.0004351144828333986],[0.00030616101287081113,-0.00044401703542007454],[0.0003069863836172858,-0.0004488397145010481],[0.0003071745745068237,-0.00045156715420091587],[0.0003087193234547267,-0.00046234644542408887],[0.0003144186074950125,-0.0005171364945937285],[0.00030993762983097956,-0.0005252233560568698]]]]}},{"type":"Feature","properties":{"Level":"ADM2","shapeGroup":"SGP","shapeID":"SGP-ADM2-91842731B25785375","shapeName":"Marina South","shapeType":"ADM2"},"geometry":{"type":"MultiPolygon","coordinates":[[[[0.0001999855089237721,-0.0007138466123208786],[0.0003395921491049834,-0.0008046889580626271],[0.0004314278203136766,-0.0007337703122161088],[0.0004271208153016285,-0.0006710732056305346],[0.0004458435440004612,-0.0006572578590962053],[0.00030993762983097956,-0.0005252233560568698],[0.00030971488315719294,-0.0005256064205170219],[0.0003022287256435541,-0.0005305618320434746],[0.00025550448184205853,-0.0005303281376711766],[0.0002502957014720085,-0.0006190756554858012],[0.00022717600919128708,-0.0006722058663513053],[0.0001999855089237721,-0.0007138466123208786]]]]}},{"type":"Feature","properties":{"Level":"ADM2","shapeGroup":"SGP","shapeID":"SGP-ADM2-91842731B19705608","shapeName":"Marine Parade","shapeType":"ADM2"},"geometry":{"type":"MultiPolygon","coordinates":[[[[0.0010424059455028303,-9.806635694786792e-05],[0.0009516080377098334,-0.0001640910560141151],[0.0007460644063680917,-0.00018071711222233944],[0.0007441857569730865,-0.00022107541736460234],[0.0006419129634005535,-0.0002505397047940505],[0.0006727111412437668,-0.0003096431301372604],[0.0006694073123718206,-0.0004045565049963784],[0.0005357306456785427,-0.00040877179555565135],[0.0004974840231934389,-0.0004828169142925276],[0.0005952496964276674,-0.0005952198201555348],[0.0008089838424869303,-0.0004434161180739693],[0.001265800804216849,-0.0002958223281694927],[0.001244003324819559,-0.0002002034318380197],[0.00109958951719677,-0.00023378470661583606],[0.0010424059455028303,-9.806635694786792e-05]]]]}},{"type":"Feature","properties":{"Level":"ADM2","shapeGroup":"SGP","shapeID":"SGP-ADM2-91842731B65785162","shapeName":"Museum","shapeType":"ADM2"},"geometry":{"type":"MultiPolygon","coordinates":[[[[9.319791795430661e-05,-0.0003937287759612218],[3.398428124247094e-05,-0.00033067712994494514],[-2.6871009576777218e-05,-0.00030681576430424684],[-4.703992866982731e-05,-0.0003376928574638782],[-6.946522050559791e-05,-0.00033041478723561113],[-9.78415006428828e-05,-0.0003468029748532331],[-6.44098650335472e-05,-0.0003876737830097454],[-8.418070742591748e-05,-0.0004330643791305988],[2.271680691561155e-05,-0.0005037113365702339],[9.319791795430661e-05,-0.0003937287759612218]]]]}},{"type":"Feature","properties":{"Level":"ADM2","shapeGroup":"SGP","shapeID":"SGP-ADM2-91842731B70623819","shapeName":"Newton","shapeType":"ADM2"},"geometry":{"type":"MultiPolygon","coordinates":[[[[-4.607452538845196e-05,-0.00014637683429441495],[-0.00012973851285159145,-0.0001082954590430063],[-0.00020284377131146727,-2.747090196209001e-05],[-0.0003323807348008143,-0.00012121518006580345],[-0.0003530480313920024,-0.0001723076528890033],[-0.0003351497002989225,-0.0002005842139141123],[-0.00027341028089999085,-0.00020629341312883298],[-0.00022345627425821656,-0.00015970185728519937],[-0.00019351817750835765,-0.00021189891493378354],[-0.00023178699235460484,-0.00022558121692384248],[-0.00021724742289145403,-0.00025120629009478534],[-0.0001771312642351156,-0.0002478564487446988],[-0.00013161368836514054,-0.00030312359477591144],[-0.00012462577035737805,-0.0002738634376200366],[-9.975988638267051e-05,-0.0002818588325226301],[-9.959413398055356e-05,-0.0002820252142186064],[-6.946522050559791e-05,-0.00033041478723561113],[-4.703992866982731e-05,-0.0003376928574638782],[-2.6871009576777218e-05,-0.00030681576430424684],[-1.8861508329335003e-05,-0.0002477380798850959],[2.4823503285006423e-05,-0.0002647729262150733],[1.3167661325421157e-06,-0.00018852628182486342],[-4.607452538845196e-05,-0.00014637683429441495]]]]}},{"type":"Feature","properties":{"Level":"ADM2","shapeGroup":"SGP","shapeID":"SGP-ADM2-91842731B72347899","shapeName":"North-Eastern Islands","shapeType":"ADM2"},"geometry":{"type":"MultiPolygon","coordinates":[[[[0.00361370558665827,0.001978712788009318],[0.003605081671741292,0.002004123553795978],[0.003486539632556652,0.0020263898315278084],[0.003433352510716641,0.0021057784631111076],[0.0033746555510364698,0.0021228353979481085],[0.003097477638265771,0.00206281175252343],[0.0028579808856872995,0.001867444580042843],[0.0028288957977932305,0.001807017399166],[0.0028321151367223804,0.001740903788089554],[0.0028836717310001887,0.0016034224998122681],[0.0029208448164054594,0.0015718595897240561],[0.003061398740909006,0.0015654357434655708],[0.003140737649283306,0.0016234625084550203],[0.0031967733380258295,0.0016138282835171935],[0.0031646203856653277,0.0015564822711269244],[0.003187334676234012,0.0014969961485675753],[0.003167818320739648,0.0014696298182954592],[0.002941344878183645,0.0014362961333489466],[0.0029811137062873273,0.0013161186590835428],[0.0030467455900262375,0.0012181141413449836],[0.004075017855371481,0.0003334924150522056],[0.0041118053784279735,0.00032591376284329954],[0.004137251377877198,0.0003768243859667564],[0.003987716556522875,0.0006262902058438158],[0.003971893329386086,0.0007705297919855525],[0.0040578248956718915,0.0010858603611865192],[0.004200027299308266,0.0013488980044371601],[0.004209577667735652,0.0014834717113245688],[0.0041806129747577365,0.0015242289770540651],[0.004130873810617431,0.001540172867947831],[0.004154834584746991,0.0015918962973486828],[0.004074829480332202,0.0017463026382174007],[0.00388858409178562,0.00188764659677787],[0.00361370558665827,0.001978712788009318]]],[[[0.0014147640984322066,0.0017580069175409108],[0.0014602550981146862,0.0017145082547926904],[0.0015127727937167825,0.0017153958257623003],[0.0015259520835347582,0.001687986598390978],[0.001777800458567811,0.0015883775955884971],[0.001806394726909292,0.001511746522155022],[0.0018838460807622298,0.0015002324387580757],[0.0019450519762003395,0.0014053988649536109],[0.002289710984354891,0.0014875610877993495],[0.002443863918713778,0.0014865934055947605],[0.002462336722817385,0.0014625046026068844],[0.0024738603342335332,0.0014864051036838077],[0.0026968849103865375,0.001463661187166565],[0.00272503630813129,0.0014818120897857057],[0.002655983282815759,0.001687173652463514],[0.0025644889872797525,0.0017524189955011593],[0.0023004037840243185,0.001722475048396177],[0.0021541404346732238,0.001758420177978337],[0.0019032673974049019,0.0017236659415900135],[0.0018911050134083319,0.0017478229634022568],[0.0017882498354639025,0.001770118481715599],[0.0017237033659842473,0.0018312922003858034],[0.0015135429405694302,0.0019052189110411177],[0.0013860016250049727,0.0018275674041063894],[0.0014147640984322066,0.0017580069175409108]]],[[[0.0017457844602977778,0.001547194976318167],[0.001693253073228225,0.0015568155300726971],[0.0018694001281883972,0.0013902783722556933],[0.001860009954855209,0.0014662766528772408],[0.0017901053622102485,0.0014887977004036657],[0.0017457844602977778,0.001547194976318167]]]]}},{"type":"Feature","properties":{"Level":"ADM2","shapeGroup":"SGP","shapeID":"SGP-ADM2-91842731B32481655","shapeName":"Novena","shapeType":"ADM2"},"geometry":{"type":"MultiPolygon","coordinates":[[[[-0.000586422916311696,7.595750560795977e-05],[-0.0004684449088380741,5.965464597323944e-05],[-0.0004399632006388266,5.1785601165477146e-05],[-0.00020284377131146727,-2.747090196209001e-05],[-0.00012973851285159145,-0.0001082954590430063],[-4.607452538845196e-05,-0.00014637683429441495],[-1.0963350498770512e-05,-6.029081259839586e-05],[0.00015303862430371908,3.7534334097699684e-05],[0.00024792065376105955,0.0001340033098387039],[0.00026555853284813096,0.00016901812549008355],[0.00026811930055623234,0.00018538554989788736],[0.00026848649685883133,0.00020064521795148949],[0.0002678116629338968,0.00020078108121879268],[0.00016765291063580647,0.00017760498653274226],[-0.00011144993034175024,0.00017284286654728476],[-0.00016985018240011504,0.0002757579797219023],[-0.0001915285650851815,0.00039690084629029343],[-0.00022022904241679437,0.0003809181464546896],[-0.0002338304648132326,0.0003762156331248434],[-0.000244163603398109,0.00037485678480209117],[-0.00025737152906519297,0.00037538032262318666],[-0.00031343340061565773,0.00038280887063280034],[-0.0004580217107658029,0.00036276824643266536],[-0.0004946074033767328,0.00029399345488201334],[-0.0005739862860551334,0.0001687400991485788],[-0.000586422916311696,7.595750560795977e-05]]]]}},{"type":"Feature","properties":{"Level":"ADM2","shapeGroup":"SGP","shapeID":"SGP-ADM2-91842731B65999064","shapeName":"Orchard","shapeType":"ADM2"},"geometry":{"type":"MultiPolygon","coordinates":[[[[-6.946522050559791e-05,-0.00033041478723561113],[-9.959413398055356e-05,-0.0002820252142186064],[-9.975988638267051e-05,-0.0002818588325226301],[-0.00012462577035737805,-0.0002738634376200366],[-0.00013161368836514054,-0.00030312359477591144],[-0.0001771312642351156,-0.0002478564487446988],[-0.00021724742289145403,-0.00025120629009478534],[-0.00023178699235460484,-0.00022558121692384248],[-0.00019351817750835765,-0.00021189891493378354],[-0.00022345627425821656,-0.00015970185728519937],[-0.00027341028089999085,-0.00020629341312883298],[-0.0003351497002989225,-0.0002005842139141123],[-0.0004240229558091065,-0.00024240048553281213],[-0.00041095467030557927,-0.0002838814456254113],[-0.0003081777013951002,-0.00025038335844840276],[-0.0001607560867492785,-0.00035748274432023663],[-9.78415006428828e-05,-0.0003468029748532331],[-6.946522050559791e-05,-0.00033041478723561113]]]]}},{"type":"Feature","properties":{"Level":"ADM2","shapeGroup":"SGP","shapeID":"SGP-ADM2-91842731B94133817","shapeName":"Outram","shapeType":"ADM2"},"geometry":{"type":"MultiPolygon","coordinates":[[[[-9.759528716224879e-05,-0.0007817053308656341],[-4.2694316109227486e-05,-0.0007580343961137714],[-3.832006393141647e-05,-0.0006562889783623405],[1.0774569294961462e-05,-0.0006879264982089239],[3.878657615207362e-05,-0.0006480196302476315],[4.6962918978772266e-05,-0.0006134353734452702],[3.8093034576299357e-06,-0.0005848255074099029],[-0.00012001681424046375,-0.0005192680603443023],[-0.0002087372017719431,-0.0005528091461997064],[-0.00020279277527532542,-0.0006086652201418019],[-0.00013476352145681817,-0.0006658606801366318],[-9.759528716224879e-05,-0.0007817053308656341]]]]}},{"type":"Feature","properties":{"Level":"ADM2","shapeGroup":"SGP","shapeID":"SGP-ADM2-91842731B8754104","shapeName":"Pasir Ris","shapeType":"ADM2"},"geometry":{"type":"MultiPolygon","coordinates":[[[[0.002197370003876449,0.0012003752311500193],[0.0021007711011130133,0.0011219258220336314],[0.0021032326501561694,0.0010846719942350092],[0.0020808616200314474,0.0010763542004852411],[0.0020507761926867236,0.0011027563029273324],[0.0018589124113739018,0.0010994037168856607],[0.0017845271225004808,0.001117862249301993],[0.0016888103941871257,0.0011826607970988334],[0.0016690792124173192,0.0012103930142970398],[0.0016787504215824318,0.0012859218311476184],[0.0016347714749722216,0.001332764898300809],[0.001561242870441215,0.0012925608128853128],[0.0016003243312719309,0.0013631555326583111],[0.0015321875568034286,0.0014319858836415733],[0.0014519167009784534,0.0014250710233056907],[0.001272578472040948,0.0013155489415481725],[0.0011753241269979184,0.001169096844591877],[0.0012306835730853769,0.0011069391425948538],[0.0012942607283136524,0.0010560093825731087],[0.0014817520859090319,0.00099205488387355],[0.0017212941074306362,0.0008473776553543644],[0.0019373560467856185,0.0007759461861667205],[0.0020072795992030117,0.00069714681262667],[0.0020470835375643393,0.0005891973001013184],[0.0021168318928133714,0.0006135701835958685],[0.0021515934952361666,0.0007203672567754893],[0.002220286359871222,0.0007678608293844036],[0.0022485962870931273,0.0008364967668157419],[0.0023202853117096725,0.0009030824055429321],[0.0023096257615902805,0.0009315336305704136],[0.00223226911693639,0.0009609769808633928],[0.0022958949101787,0.0010485771343908823],[0.002197370003876449,0.0012003752311500193]]]]}},{"type":"Feature","properties":{"Level":"ADM2","shapeGroup":"SGP","shapeID":"SGP-ADM2-91842731B26204757","shapeName":"Paya Lebar","shapeType":"ADM2"},"geometry":{"type":"MultiPolygon","coordinates":[[[[0.0013610746193876324,0.0005173733957164472],[0.0014632343489215337,0.0007064933184608435],[0.0014558350263989986,0.0009235873149080476],[0.0014817520859090319,0.00099205488387355],[0.0012942607283136524,0.0010560093825731087],[0.0012306835730853769,0.0011069391425948538],[0.001100640933421326,0.0009933362522431821],[0.0009598199906612655,0.0006669628640096903],[0.0008990811739605093,0.0006503325051809838],[0.0008730572259612561,0.0006024061901896971],[0.0008507939562432022,0.000612003718075016],[0.000811913673407292,0.0005204572170640631],[0.0008589246817314119,0.0004857594403873122],[0.0008968119127514279,0.0004973226344446857],[0.0009107358120316061,0.0004280897296879971],[0.0008894326402666777,0.00037374968925263374],[0.0009619846109410044,0.00034484214185681594],[0.0010578321444284422,0.00035295155750247886],[0.0011521282206069501,0.00044541950810383923],[0.001202733812854229,0.00040723850442958565],[0.0012611884483418616,0.0004673318473678023],[0.0013610746193876324,0.0005173733957164472]]]]}},{"type":"Feature","properties":{"Level":"ADM2","shapeGroup":"SGP","shapeID":"SGP-ADM2-91842731B43721367","shapeName":"Pioneer","shapeType":"ADM2"},"geometry":{"type":"MultiPolygon","coordinates":[[[[-0.002625257738750707,0.00015401755391053484],[-0.002924747120878401,0.0001542177590252436],[-0.0029228377561027735,0.0001966295059006029],[-0.0030017312130226088,0.00021140702406796663],[-0.003022719364966552,0.00020014156955738827],[-0.0031275468192583852,0.00015797529110983533],[-0.003334364525591093,-7.68179819630177e-05],[-0.0032936409196138937,-0.00011551500149664662],[-0.0033130675052871874,-0.000136216855537441],[-0.0033061436635996124,-0.0001549452260576345],[-0.0034401517089046258,-0.0003010117392960865],[-0.0034057765446131928,-0.0003417343880656176],[-0.003371337766377269,-0.00031249312397818585],[-0.0033177164796420007,-0.0003741177009644048],[-0.0033215711977387713,-0.0004026524544897825],[-0.003302445620564757,-0.00038647524741008965],[-0.0032860608752381597,-0.00041918748146940743],[-0.0031796356932547562,-0.00047224342466734015],[-0.003147409938450062,-0.0005281499916662824],[-0.0030120721727173233,-0.0004100782677127768],[-0.0030965602969052243,-0.0003229246667331154],[-0.003108872354816102,-0.00022025141871750975],[-0.0030404364530129736,-0.00021163967344506318],[-0.0030351614006975483,-0.00028468528627456635],[-0.0029404989150275083,-0.0003896053138632283],[-0.0028801860509598777,-0.00036541386423039057],[-0.0028861159268583755,-0.00017004350386429223],[-0.0028940666318658676,-0.00014510628697905759],[-0.0027468145512594172,-7.46747804498682e-05],[-0.002636326209285329,-6.486052033949363e-05],[-0.002625257738750707,0.00015401755391053484]]]]}},{"type":"Feature","properties":{"Level":"ADM2","shapeGroup":"SGP","shapeID":"SGP-ADM2-91842731B10704061","shapeName":"PuunggolL","shapeType":"ADM2"},"geometry":{"type":"MultiPolygon","coordinates":[[[[0.0014519167009784534,0.0014250710233056907],[0.0014640638758500412,0.0014823327185027324],[0.0012097868766154016,0.0017155357817202344],[0.001171500777847667,0.0016983387061841881],[0.0011448102892108879,0.0017830973352630508],[0.0009924408516316862,0.0017664374095573976],[0.000881099834907726,0.001676779169081044],[0.0008802434444768083,0.0016748711765117719],[0.0008172607130987277,0.0015689766170225994],[0.0007091297234593422,0.0014863613195572611],[0.0006951746048331732,0.00143579225350976],[0.0009477769952703917,0.0013826991737602157],[0.0010542516932438588,0.0013073909899006253],[0.0011753241269979184,0.001169096844591877],[0.001272578472040948,0.0013155489415481725],[0.0014519167009784534,0.0014250710233056907]]]]}},{"type":"Feature","properties":{"Level":"ADM2","shapeGroup":"SGP","shapeID":"SGP-ADM2-91842731B39998411","shapeName":"Queenstown","shapeType":"ADM2"},"geometry":{"type":"MultiPolygon","coordinates":[[[[-0.0005407102437501283,-0.00043348340111748485],[-0.0005298650085991331,-0.00038703476301549244],[-0.0006364560565207133,-0.00038590653482373227],[-0.0006729234587920047,-0.00032518790732183334],[-0.0007356620965998169,-0.00032219242069686516],[-0.0007796272476136262,-0.00020421043961249552],[-0.0008236574875954596,-0.00016213684224197777],[-0.0008360725111728377,-0.0001909360032854579],[-0.0009163519885949931,-0.0001508489132859836],[-0.0009393136355837207,-9.689510008570323e-05],[-0.0009733651953527016,-0.0001504794730209369],[-0.0010518446905108708,-5.48603814110038e-05],[-0.001084850389003484,-6.859962692828958e-05],[-0.0010751476609834006,-0.00013709072078427198],[-0.0011874931337951438,-0.00010383126480206784],[-0.0013219781650855025,-3.6463827939314797e-06],[-0.0013035464445686992,-0.00011855563397489277],[-0.0013586138554508081,-0.0004375803634459885],[-0.001399963987619768,-0.0004664459957908207],[-0.001476820080600686,-0.0003071275749846336],[-0.0015407218861693418,-0.00034425276367500146],[-0.0014641134477092978,-0.0004273060084756253],[-0.0015046936262847403,-0.0004946830261189916],[-0.0013030472612371815,-0.0006160308425293692],[-0.0013581448157299729,-0.0007091813620618836],[-0.0015786189463471072,-0.0005775128735052704],[-0.0016393831046218408,-0.0005876819114689624],[-0.0016876943057892429,-0.0006710133505194449],[-0.0013312226590210256,-0.0008849017682450722],[-0.001223050932119538,-0.0007028823015886587],[-0.0010527375170824938,-0.0008054970129549588],[-0.0011934397336898113,-0.0010429870007655495],[-0.0010722701409331791,-0.001115786129652463],[-0.0009242947589767096,-0.0008680046142259812],[-0.0008489168838095084,-0.0009129808669783301],[-0.0008332758999297763,-0.0008855964976390851],[-0.0007809455023397572,-0.0008071878108992792],[-0.0007649107900598702,-0.0006983444375023851],[-0.0007974646948276197,-0.0006236054135371205],[-0.0007689432379180171,-0.0005670954798446814],[-0.000663383912833895,-0.0004627415683344793],[-0.0005514051153792588,-0.0004785719664184285],[-0.0005407102437501283,-0.00043348340111748485]]]]}},{"type":"Feature","properties":{"Level":"ADM2","shapeGroup":"SGP","shapeID":"SGP-ADM2-91842731B46223595","shapeName":"River Valley","shapeType":"ADM2"},"geometry":{"type":"MultiPolygon","coordinates":[[[[-9.78415006428828e-05,-0.0003468029748532331],[-0.0001607560867492785,-0.00035748274432023663],[-0.0003081777013951002,-0.00025038335844840276],[-0.00041095467030557927,-0.0002838814456254113],[-0.00040172670265939116,-0.0003235976532494078],[-0.0002968966791034809,-0.0003446452812383427],[-0.0002901189016973981,-0.0004072382591076007],[-0.00024511011681710513,-0.0003953442285080655],[-0.0002243892317552104,-0.00046198101018291027],[-0.00018566453332309978,-0.00045786027848748745],[-0.0001430042902947055,-0.0004882758230593254],[-8.418070742591748e-05,-0.0004330643791305988],[-6.44098650335472e-05,-0.0003876737830097454],[-9.78415006428828e-05,-0.0003468029748532331]]]]}},{"type":"Feature","properties":{"Level":"ADM2","shapeGroup":"SGP","shapeID":"SGP-ADM2-91842731B7509188","shapeName":"Rochor","shapeType":"ADM2"},"geometry":{"type":"MultiPolygon","coordinates":[[[[0.00021738393486965297,-0.00033443075790984267],[0.00026718043582404835,-0.00030300182324793923],[0.00013099881654570262,-0.00014530067788598444],[0.00014741654592865467,-0.00012458516987123858],[0.0001311019392812611,-9.767570124097347e-05],[0.00012912609556921736,-9.289812672363951e-05],[3.1388021276190585e-05,-0.0002150164419418843],[1.3167661325421157e-06,-0.00018852628182486342],[2.4823503285006423e-05,-0.0002647729262150733],[-1.8861508329335003e-05,-0.0002477380798850959],[-2.6871009576777218e-05,-0.00030681576430424684],[3.398428124247094e-05,-0.00033067712994494514],[9.319791795430661e-05,-0.0003937287759612218],[0.00015509823099649464,-0.0003195821089647666],[0.00012647575203607545,-0.0002774068646544947],[0.00021738393486965297,-0.00033443075790984267]]]]}},{"type":"Feature","properties":{"Level":"ADM2","shapeGroup":"SGP","shapeID":"SGP-ADM2-91842731B82615982","shapeName":"Seletar","shapeType":"ADM2"},"geometry":{"type":"MultiPolygon","coordinates":[[[[0.0008802434444768083,0.0016748711765117719],[0.0008706650692255622,0.001774531479007635],[0.0007278336479646574,0.0018586612113651313],[0.000690609809033587,0.001826521918957269],[0.0007181336782730954,0.0018644068558515414],[0.0005572727776825751,0.0019670943680267783],[0.00046552645867124374,0.001958682720321292],[0.0003538272096531382,0.001852393737891589],[0.0002633511114653421,0.0017390989472616525],[0.00024288927913495854,0.0015854884458050833],[0.00014118186039053441,0.0014997701775385508],[0.00015127854783729576,0.0014362115298993672],[0.0006951746048331732,0.00143579225350976],[0.0007091297234593422,0.0014863613195572611],[0.0008172607130987277,0.0015689766170225994],[0.0008802434444768083,0.0016748711765117719]],[[0.00040690241689478497,0.0018506119388916886],[0.0003558764635088793,0.0018461048608386932],[0.00039071760306209945,0.0018767653876849977],[0.00040690241689478497,0.0018506119388916886]]]]}},{"type":"Feature","properties":{"Level":"ADM2","shapeGroup":"SGP","shapeID":"SGP-ADM2-91842731B81849311","shapeName":"Sembawang","shapeType":"ADM2"},"geometry":{"type":"MultiPolygon","coordinates":[[[[-0.0003678098761748929,0.0020319157627710638],[-0.00031257366429189603,0.002077480003634946],[-0.0002905113491591343,0.002141231849144276],[-0.00017920344147759982,0.002210863904757332],[-0.00024254178952540616,0.0023115546265586318],[1.4811563761483017e-05,0.002471052228941062],[-0.00017076927163040922,0.002545961817368436],[-0.00020405320003401062,0.002534162327776812],[-0.0002454170936308451,0.0024611740988405018],[-0.000262039450185813,0.002470727508409709],[-0.0002210284808611208,0.0025440895061592528],[-0.00033894141826658027,0.0026117737047854916],[-0.0004243655661855668,0.0024796348548790093],[-0.000395570452755294,0.0025618508215430325],[-0.000441083167048769,0.002509448693380989],[-0.00042079023507069657,0.0025869200011712223],[-0.0004950613758324729,0.002548441200232787],[-0.00043264759998414747,0.0026126630598497513],[-0.0005176289084283412,0.002649967688483912],[-0.0007664236981691001,0.0026195952614216367],[-0.000962645291961264,0.002497604315777835],[-0.0008617707193190823,0.0023837375482003154],[-0.0008107626717349678,0.002403814597194298],[-0.0007396687355548246,0.002253891300078692],[-0.0006152906837040629,0.002187508770660429],[-0.0005069414864758302,0.0021298512747165432],[-0.00041517570640217454,0.0020339286691424263],[-0.0003678098761748929,0.0020319157627710638]]]]}},{"type":"Feature","properties":{"Level":"ADM2","shapeGroup":"SGP","shapeID":"SGP-ADM2-91842731B50862644","shapeName":"Sengkang","shapeType":"ADM2"},"geometry":{"type":"MultiPolygon","coordinates":[[[[0.00019448538405770723,0.001259582600269482],[0.00045617660864893836,0.001193670518539136],[0.0005777576297069535,0.0012130410059398855],[0.0007664868780574945,0.0010708864266462115],[0.0008748091192204488,0.0010548306608200164],[0.0010136784612518293,0.0010718017867787921],[0.001100640933421326,0.0009933362522431821],[0.0012306835730853769,0.0011069391425948538],[0.0011753241269979184,0.001169096844591877],[0.0010542516932438588,0.0013073909899006253],[0.0009477769952703917,0.0013826991737602157],[0.0006951746048331732,0.00143579225350976],[0.00015127854783729576,0.0014362115298993672],[0.00014419789890877138,0.0014010484994599892],[9.46244144150738e-05,0.0013638820216428371],[0.00014336610537358938,0.0013745739916046773],[0.0001787094469102461,0.0013542769654009135],[0.00019448538405770723,0.001259582600269482]]]]}},{"type":"Feature","properties":{"Level":"ADM2","shapeGroup":"SGP","shapeID":"SGP-ADM2-91842731B85682916","shapeName":"Serangoon","shapeType":"ADM2"},"geometry":{"type":"MultiPolygon","coordinates":[[[[0.00017270217573743096,0.0006382563846258904],[0.00023506524927343025,0.00042691606407885274],[0.00031701777494856767,0.0004430312528711511],[0.0003969239687162699,0.00041467147273976934],[0.000524075703665322,0.00044274292338997157],[0.000664734730363886,0.00038253883186456505],[0.0005628909217267624,0.0005600556604932194],[0.0005152229395469082,0.000584482368111594],[0.0005427876552175412,0.0006097301690815016],[0.0004723262604439282,0.0006983518482286399],[0.00045939184318548695,0.0007593853821106222],[0.0005142950147012054,0.0008934429404945377],[0.0005224550538884563,0.0011084837967771932],[0.00045617660864893836,0.001193670518539136],[0.00019448538405770723,0.001259582600269482],[0.00019874927837052733,0.0010248641283467919],[0.000243569122531251,0.000871997282892778],[0.00017270217573743096,0.0006382563846258904]]]]}},{"type":"Feature","properties":{"Level":"ADM2","shapeGroup":"SGP","shapeID":"SGP-ADM2-91842731B49662430","shapeName":"Simpang","shapeType":"ADM2"},"geometry":{"type":"MultiPolygon","coordinates":[[[[0.00044414116686230176,0.0021120550089790413],[0.00025392408462581015,0.0023309297382070326],[0.00018614217452653684,0.0023115618262110615],[0.00022584536141241046,0.002164905778798243],[0.0003256115765966804,0.002042936389372585],[0.0003933927758497309,0.002039137547292569],[0.00044111945350574746,0.0020769070738069217],[0.00044414116686230176,0.0021120550089790413]]],[[[-0.00017920344147759982,0.002210863904757332],[-4.918795272918475e-05,0.0021083612636445537],[-2.447460906183337e-06,0.002020902474214381],[0.00010215222613600445,0.0019201136270083907],[0.00013375088355818538,0.0018997297038936267],[0.00026460922522096087,0.0018445880399795556],[0.00018865958098379722,0.0018776671167799464],[0.00030572602604839573,0.0019703424697752325],[0.0003208120846019098,0.0020104564594376484],[0.0002903465574876875,0.002009973668720022],[0.00028625881306754093,0.0020507344573559294],[0.0002056247680768485,0.0021547338950327344],[0.00014081539622233708,0.002330815698854849],[0.00019806671249977627,0.0023694361268979947],[1.4811563761483017e-05,0.002471052228941062],[-0.00024254178952540616,0.0023115546265586318],[-0.00017920344147759982,0.002210863904757332]]]]}},{"type":"Feature","properties":{"Level":"ADM2","shapeGroup":"SGP","shapeID":"SGP-ADM2-91842731B30699469","shapeName":"Singapore River","shapeType":"ADM2"},"geometry":{"type":"MultiPolygon","coordinates":[[[[-0.0002087372017719431,-0.0005528091461997064],[-0.00012001681424046375,-0.0005192680603443023],[3.8093034576299357e-06,-0.0005848255074099029],[6.719571610317622e-05,-0.0005697327532345753],[2.271680691561155e-05,-0.0005037113365702339],[-8.418070742591748e-05,-0.0004330643791305988],[-0.0001430042902947055,-0.0004882758230593254],[-0.00018566453332309978,-0.00045786027848748745],[-0.0002243892317552104,-0.00046198101018291027],[-0.00024511011681710513,-0.0003953442285080655],[-0.0002901189016973981,-0.0004072382591076007],[-0.00027005691804365153,-0.00045856573141378476],[-0.00026749563977000854,-0.00046358266070711807],[-0.000266247921299607,-0.00046532280767763723],[-0.00026451505715579274,-0.0004675424957625296],[-0.0002642955968643181,-0.00046750639859993726],[-0.0002362090118568121,-0.00046379400841090046],[-0.0002087372017719431,-0.0005528091461997064]]]]}},{"type":"Feature","properties":{"Level":"ADM2","shapeGroup":"SGP","shapeID":"SGP-ADM2-91842731B37609929","shapeName":"Southern Islands","shapeType":"ADM2"},"geometry":{"type":"MultiPolygon","coordinates":[[[[-0.00020663572894920462,-0.0018043862519192544],[-0.00023625411523117392,-0.001840718658705498],[-0.00022038737607980467,-0.0018607330359117213],[-0.00018025216833364286,-0.0018309411606622916],[-0.00020663572894920462,-0.0018043862519192544]]],[[[-0.00025513215567160184,-0.0017784229671704566],[-0.00025182263438079504,-0.0018183862231140324],[-0.00023166379776564343,-0.0017921204167237192],[-0.00025513215567160184,-0.0017784229671704566]]],[[[0.0002399786477423367,-0.0016520766402976506],[0.0001920156140179014,-0.0016404286121627365],[0.0002341743275527172,-0.0016619754328317526],[0.00022078043724535126,-0.0016675108679251593],[0.0002287259766809347,-0.0016744230976826202],[0.0002299277023527231,-0.0016818992626141949],[0.0002377347886216345,-0.0016914116289754588],[0.0002317178725468017,-0.001683145429190347],[0.00023482301568519292,-0.0016814441659107615],[0.0002348272728259079,-0.0016864522060444642],[0.00024636148689509993,-0.0016872032070622822],[0.00026969623332808004,-0.001701918935815172],[0.00027233745791338754,-0.0016981010957124454],[0.0002653623400255051,-0.001708645343356352],[0.00026159618173324554,-0.0017120603826228376],[0.00025216367150292034,-0.001708833254681963],[0.00026199347290996935,-0.0017127416280402485],[0.00026580557035953394,-0.0017091007179246276],[0.0002756632099079917,-0.0016937783082937585],[0.00027515995231927007,-0.0016885714331351664],[0.0002399786477423367,-0.0016520766402976506]]],[[[3.037670085434477e-05,-0.0015369401498688262],[-2.5425445547023288e-05,-0.0015151077517927547],[4.289904764841081e-05,-0.0015605908311897565],[-3.0943265205883222e-06,-0.0016132768435141998],[5.28366221352254e-05,-0.001567193910716469],[5.712297277079679e-05,-0.0015903789640745458],[9.028404942075383e-05,-0.0015889885159694472],[9.176876113606502e-05,-0.0016175853061213274],[5.7025478124080465e-05,-0.0016262560886914912],[9.523542033733398e-05,-0.0016544106635976163],[7.38432966227434e-05,-0.001710141179600555],[-2.483693953421956e-05,-0.0016662500895776589],[-6.617374018754243e-05,-0.0016890342717559292],[8.044888379092743e-05,-0.0018428537545887025],[6.625579193896615e-05,-0.0017354337311275003],[8.056396161838765e-05,-0.0017434082984024712],[9.654993840711762e-05,-0.001680627564759618],[0.00017486459641982886,-0.0017690081433414662],[0.00021714151275324575,-0.0017312257511363782],[0.0001551516800910468,-0.0016237186592604758],[0.00012526796011426452,-0.0016296180257242554],[0.00010916408111063428,-0.0015962467441070771],[0.0001242427747306291,-0.0015675048374532707],[0.0001814586809926411,-0.0015625355282082865],[0.00019889163761570443,-0.0015185794826848564],[7.631417005208429e-05,-0.0015259116998223021],[4.491091522702163e-05,-0.0015579864572927704],[3.037670085434477e-05,-0.0015369401498688262]]],[[[-0.00011096060227690429,-0.0015762810213928447],[-0.000133553751676321,-0.0015133426890443502],[-0.00019202786133919663,-0.0014686737256752735],[-0.0002032497180110299,-0.0015015408856484669],[-0.0001712311489827022,-0.0015691834213669154],[-0.00012710974074222527,-0.0015952459187502654],[-0.00011096060227690429,-0.0015762810213928447]]],[[[0.00014738700065359303,-0.0013663546226609924],[0.00012616722744691647,-0.00130712735313665],[8.949133149859499e-05,-0.001281365966256942],[-3.899507630094874e-05,-0.0014049485966012298],[-1.6325449849288147e-05,-0.0014172684480655562],[5.712505238429512e-05,-0.0013687543350968667],[0.00012398089519870923,-0.00139767614339803],[0.00014738700065359303,-0.0013663546226609924]]],[[[-0.00041464606066637564,-0.001052457148794872],[-0.00044975741543085395,-0.0010680320108988894],[-0.0005073343720462219,-0.0010283715831178597],[-0.0005623710344266631,-0.001049209158829001],[-0.0007026146609069345,-0.0010380740106725739],[-0.0006366459561687061,-0.0011195764035250022],[-0.0006387940202428529,-0.0010926567251345887],[-0.0005108324687565603,-0.0012030381729601913],[-0.0004727051156410879,-0.0012242911521340716],[-0.00045264305411241184,-0.0012079833340692403],[-0.0004051363875771978,-0.001244789719748951],[-0.0004094460451441567,-0.0012758647427872916],[-0.00025096043240332197,-0.0014150801740910879],[-0.0001272938746643026,-0.0013712383011466045],[2.228627841021758e-05,-0.0011820090613312573],[-8.765185830507295e-06,-0.001147190953787458],[-8.186141107438819e-05,-0.0011649265882240911],[-9.587947629876771e-05,-0.001138328227860086],[-0.00020551224371634125,-0.0011468249882184978],[-0.0003632068981951997,-0.0011174644725500116],[-0.00040056417808436747,-0.0010924696146332735],[-0.00040052280405263946,-0.0010596015938801884],[-0.0004069188885938796,-0.0010563660432083566],[-0.0004128635455971588,-0.0010731979940530323],[-0.0004100128492294141,-0.0010548009164850214],[-0.00041464606066637564,-0.001052457148794872]]]]}},{"type":"Feature","properties":{"Level":"ADM2","shapeGroup":"SGP","shapeID":"SGP-ADM2-91842731B80067240","shapeName":"Straits View","shapeType":"ADM2"},"geometry":{"type":"MultiPolygon","coordinates":[[[[8.025525579986664e-05,-0.0008670776101240563],[8.027975134389904e-05,-0.000887283253426574],[0.00015526864905850572,-0.0009303663813398089],[0.00021167716815531366,-0.0009039327450821588],[0.0002423446675500507,-0.0009467292021838603],[0.00025755248445607994,-0.0009355773810710843],[0.00022693456020656604,-0.0008928741299172316],[0.0003395921491049834,-0.0008046889580626271],[0.0001999855089237721,-0.0007138466123208786],[0.00018390205031536863,-0.0007398410418630874],[0.00017486355012560304,-0.0007529853281766918],[9.641575270118849e-05,-0.0008765494343450086],[8.025525579986664e-05,-0.0008670776101240563]]]]}},{"type":"Feature","properties":{"Level":"ADM2","shapeGroup":"SGP","shapeID":"SGP-ADM2-91842731B83761023","shapeName":"Sungei Kadut","shapeType":"ADM2"},"geometry":{"type":"MultiPolygon","coordinates":[[[[-0.0012652482336368161,0.001245249719993069],[-0.0013135432980126555,0.0015891107679379957],[-0.0013207863679942414,0.001790110310196269],[-0.0013639844590402576,0.0019723065864241107],[-0.0013704825853070779,0.002121775240148338],[-0.001440652424486667,0.0021730791925094195],[-0.0014828400452233158,0.0021889097172689276],[-0.0015534526325188826,0.0021721987411851273],[-0.00179725635301186,0.002223006853839138],[-0.001814560290738408,0.0020903117481125832],[-0.0018888428670472762,0.002093708334534483],[-0.001896946730109386,0.0021312416163397074],[-0.0019104576711944541,0.0021158893627628572],[-0.0019186849240714955,0.0020905203323664523],[-0.0019185034164505052,0.0020754539203764466],[-0.001917991205638353,0.002072564138074995],[-0.0019162142255593473,0.0020689897505334898],[-0.0018927619888320665,0.0020834762465327117],[-0.0018525972607548442,0.002082950753887758],[-0.0018491486554224577,0.002064960931889459],[-0.001843817984800942,0.002047046000726027],[-0.0018382521606148576,0.0020322878536518374],[-0.0018322159451528027,0.002019423826780553],[-0.0018205355032508061,0.002002455893268973],[-0.0018186978511335673,0.001997779095731289],[-0.001810623312149382,0.001969683400488975],[-0.001806233552842995,0.001943245024186524],[-0.001807429056867347,0.0018798995196718238],[-0.0018780328412367543,0.0018036243717673983],[-0.0018299173902970782,0.0016588293278303468],[-0.0018391862343120524,0.0015926625405953132],[-0.0018389492066093473,0.0015779512826696873],[-0.001837530965189335,0.001571366103682692],[-0.0018334594839185495,0.0015588865648510364],[-0.0018084975885505606,0.0015284512380517867],[-0.0017613346743171137,0.001510530886029926],[-0.0016484016667315236,0.0014815897794164812],[-0.0016339186534780961,0.0012227465085530298],[-0.0016023611430428467,0.001220415113273532],[-0.001430900967515867,0.001253577013265783],[-0.0012652482336368161,0.001245249719993069]]]]}},{"type":"Feature","properties":{"Level":"ADM2","shapeGroup":"SGP","shapeID":"SGP-ADM2-91842731B36527330","shapeName":"Tampines","shapeType":"ADM2"},"geometry":{"type":"MultiPolygon","coordinates":[[[[0.002035720842935987,-7.890130008547658e-05],[0.0023879310916621044,-3.942492275399445e-05],[0.0024053480762667935,1.055777929082069e-06],[0.002314082219375927,5.70195304732124e-05],[0.0024040810305378042,0.00027144119255950727],[0.002162844963568519,0.00038852303650571685],[0.0020470835375643393,0.0005891973001013184],[0.0020072795992030117,0.00069714681262667],[0.0019373560467856185,0.0007759461861667205],[0.0017212941074306362,0.0008473776553543644],[0.0014817520859090319,0.00099205488387355],[0.0014558350263989986,0.0009235873149080476],[0.0014632343489215337,0.0007064933184608435],[0.0013610746193876324,0.0005173733957164472],[0.001599758654466213,0.00030630212152260583],[0.0017799313166821254,0.0002686662814355145],[0.0018706089123976832,0.0001337437609336689],[0.0019792044659737267,4.235333980773248e-05],[0.002035720842935987,-7.890130008547658e-05]]]]}},{"type":"Feature","properties":{"Level":"ADM2","shapeGroup":"SGP","shapeID":"SGP-ADM2-91842731B68539058","shapeName":"Tanglin","shapeType":"ADM2"},"geometry":{"type":"MultiPolygon","coordinates":[[[[-0.00026451505715579274,-0.0004675424957625296],[-0.000266247921299607,-0.00046532280767763723],[-0.00026749563977000854,-0.00046358266070711807],[-0.00027005691804365153,-0.00045856573141378476],[-0.0002901189016973981,-0.0004072382591076007],[-0.0002968966791034809,-0.0003446452812383427],[-0.00040172670265939116,-0.0003235976532494078],[-0.00041095467030557927,-0.0002838814456254113],[-0.0004240229558091065,-0.00024240048553281213],[-0.0003351497002989225,-0.0002005842139141123],[-0.0003530480313920024,-0.0001723076528890033],[-0.0003323807348008143,-0.00012121518006580345],[-0.00020284377131146727,-2.747090196209001e-05],[-0.0004399632006388266,5.1785601165477146e-05],[-0.0004684449088380741,5.965464597323944e-05],[-0.000586422916311696,7.595750560795977e-05],[-0.000617322832605779,2.0911526377176415e-05],[-0.0007332902866738474,-7.049766644939837e-05],[-0.0007796272476136262,-0.00020421043961249552],[-0.0007356620965998169,-0.00032219242069686516],[-0.0006729234587920047,-0.00032518790732183334],[-0.0006364560565207133,-0.00038590653482373227],[-0.0005298650085991331,-0.00038703476301549244],[-0.0005407102437501283,-0.00043348340111748485],[-0.0003939287944119385,-0.00047145915837631946],[-0.0002676349208580575,-0.000468035638839126],[-0.00026451505715579274,-0.0004675424957625296]]]]}},{"type":"Feature","properties":{"Level":"ADM2","shapeGroup":"SGP","shapeID":"SGP-ADM2-91842731B47131171","shapeName":"Tengah","shapeType":"ADM2"},"geometry":{"type":"MultiPolygon","coordinates":[[[[-0.0017182892233305017,0.0008746089326976403],[-0.0017715511218113838,0.0009218446293246529],[-0.0019005098189666502,0.00096139515816418],[-0.0019943037804557085,0.0010470914767353179],[-0.0021629785741232054,0.0009058385350613207],[-0.0023848457728117495,0.0008376342685707527],[-0.0024553168502259573,0.0007925453437920282],[-0.002311714040089774,0.0006674148580358974],[-0.002303925095512693,0.000663470473682537],[-0.0022596432813691996,0.0006454945040701432],[-0.0022422273676872624,0.0006417557009683605],[-0.0021574059017097427,0.0006368012087634156],[-0.002144803825749598,0.000634049766183864],[-0.002127035820825406,0.0006293974213491538],[-0.0021187862666519224,0.0006264983035038085],[-0.0020978268621299817,0.0006173292401427943],[-0.002073261480814473,0.0006050894707527732],[-0.0020688143815270872,0.000602706602812475],[-0.0020177422867520165,0.0005723256822847134],[-0.0019360859681786364,0.0004888589919289643],[-0.001914112182818222,0.00047232931562035674],[-0.0019025032875397286,0.0004920881665455568],[-0.0018995139120307914,0.0004991959511642108],[-0.0018969486691129305,0.0005067451881188845],[-0.001895528358081725,0.0005187571552625059],[-0.0019124853466284323,0.0005796352462752452],[-0.001922257128065069,0.0006492506809721021],[-0.0018725318145933166,0.0007105366655437706],[-0.0017182892233305017,0.0008746089326976403]]]]}},{"type":"Feature","properties":{"Level":"ADM2","shapeGroup":"SGP","shapeID":"SGP-ADM2-91842731B95029368","shapeName":"Toa Payoh","shapeType":"ADM2"},"geometry":{"type":"MultiPolygon","coordinates":[[[[-0.00018224824783507446,0.0004023503679491114],[-0.0001915285650851815,0.00039690084629029343],[-0.00016985018240011504,0.0002757579797219023],[-0.00011144993034175024,0.00017284286654728476],[0.00016765291063580647,0.00017760498653274226],[0.0002678116629338968,0.00020078108121879268],[0.00026848649685883133,0.00020064521795148949],[0.0002757328738902206,0.00019820888271482318],[0.00037999880710267835,0.00015492030586017336],[0.0007312163873254605,0.00025512413355954777],[0.000664734730363886,0.00038253883186456505],[0.000524075703665322,0.00044274292338997157],[0.0003969239687162699,0.00041467147273976934],[0.00031701777494856767,0.0004430312528711511],[0.00023506524927343025,0.00042691606407885274],[-9.755635902829486e-05,0.00045621432202125334],[-0.00018224824783507446,0.0004023503679491114]]]]}},{"type":"Feature","properties":{"Level":"ADM2","shapeGroup":"SGP","shapeID":"SGP-ADM2-91842731B80812605","shapeName":"Tuas","shapeType":"ADM2"},"geometry":{"type":"MultiPolygon","coordinates":[[[[-0.0031275468192583852,0.00015797529110983533],[-0.003321988157420021,0.00027454613069721745],[-0.0033397003483817546,0.0002892014027295886],[-0.0034119361968055874,0.0003640335387444793],[-0.003406889020574698,0.00042815397169704283],[-0.0034898179331789418,0.00046271996963298534],[-0.003632262847645422,0.000596375811710459],[-0.003642408670927326,0.0005503149668797391],[-0.003662570210023172,0.0005715314818104389],[-0.0037057780985869323,0.0005412566599360957],[-0.0037281740851674568,0.0005560940838833517],[-0.003704786958206553,0.0004780271903186417],[-0.0036721097249137595,0.00046250164888306244],[-0.003998354248585517,-0.0003875560810655543],[-0.0039609920730490815,-0.0006051903329904462],[-0.0040012933902427135,-0.0006673853950758257],[-0.004110233007034677,-0.0007320696345587407],[-0.004208456056100396,-0.0009967958753591688],[-0.004209694427782977,-0.001024536610550797],[-0.004139226216202413,-0.0010245372395729646],[-0.004139227029509234,-0.0011042542437422753],[-0.0041000353603373564,-0.0011042546039021772],[-0.004100035852774348,-0.0011516103531405975],[-0.004154945804876595,-0.0011516098379331652],[-0.0041549470388743,-0.0012660447818007015],[-0.004092336091621655,-0.0012660828052091233],[-0.004092364472441847,-0.0013133449661495433],[-0.004209849709802407,-0.0013134671856747104],[-0.004209690372438002,-0.0016735393305395974],[-0.004172418097090692,-0.0017339979900654612],[-0.00356815155126261,-0.0018896700626527263],[-0.0032872804773545474,-0.0017762144333559604],[-0.0033162020907877648,-0.0016987340549690089],[-0.004006700996206624,-0.0016987265972829846],[-0.004006699382874222,-0.0015661407243570125],[-0.0034397030594847606,-0.0015661466388223744],[-0.0034397013871455,-0.001409884380827009],[-0.004006697565924716,-0.0014098787772454102],[-0.0040066962331114665,-0.001289920094400543],[-0.003650011902559637,-0.0012899235122389996],[-0.0035353776483585276,-0.0012386780460147406],[-0.003535376611884927,-0.0011336623312132588],[-0.004006694577733456,-0.00113365810778987],[-0.004006693368956364,-0.0010136993992873045],[-0.003552802844377303,-0.0010137032762926879],[-0.003552801427244413,-0.0008574210425891238],[-0.003615941284850851,-0.0008574145492517005],[-0.0036036737448779717,-0.0006955972723829973],[-0.003477247944980955,-0.0006868528690375797],[-0.0034342535067169964,-0.0006011487920289937],[-0.0034980746087031394,-0.0004739248146776731],[-0.0035234406630280913,-0.00031970049830931657],[-0.0037067501067498533,-0.00012155249891065978],[-0.0036524037221902683,-4.769362021761481e-05],[-0.003549002965206054,-0.00013030480633346997],[-0.00344057856065766,-2.6625807990399153e-05],[-0.0034041622341668644,-7.223234271691581e-05],[-0.0035006777463571846,-0.00017268454082852713],[-0.003440842713213173,-0.0002379566925014842],[-0.0033306444421486257,-0.00012985598130654807],[-0.0033130675052871874,-0.000136216855537441],[-0.0032936409196138937,-0.00011551500149664662],[-0.003334364525591093,-7.68179819630177e-05],[-0.0031275468192583852,0.00015797529110983533]]]]}},{"type":"Feature","properties":{"Level":"ADM2","shapeGroup":"SGP","shapeID":"SGP-ADM2-91842731B84058945","shapeName":"Western Islands","shapeType":"ADM2"},"geometry":{"type":"MultiPolygon","coordinates":[[[[-0.0019862229442704537,-0.002488974649260456],[-0.0020491585373155308,-0.002506566679954858],[-0.0020707218181766907,-0.0025470046736941754],[-0.002021650302538814,-0.002561295776587258],[-0.001971686333563535,-0.0026499327977802523],[-0.001872936331133741,-0.0026474294359957184],[-0.00187018707723619,-0.0025667919937575334],[-0.001891494171625597,-0.0025606986563104783],[-0.0018586153327677672,-0.0025636927370058515],[-0.0018409779730446981,-0.0025230991938585134],[-0.0019074057161395466,-0.002498325583204064],[-0.0019258148425891585,-0.0025298238431901154],[-0.0019233892526389715,-0.002502196498767262],[-0.001955227663653031,-0.002515837903892759],[-0.0019862229442704537,-0.002488974649260456]]],[[[-0.0019221447943247119,-0.002271250589544138],[-0.001903803345364161,-0.0022313177502297776],[-0.0019444078156488221,-0.002267463622089849],[-0.0019221447943247119,-0.002271250589544138]]],[[[-0.0020862210487117457,-0.00221093138380013],[-0.0021497542713937155,-0.002230896099597146],[-0.0021746280920131164,-0.00230674730391911],[-0.0022631893470587477,-0.0023028010459711368],[-0.0022314534965752236,-0.0024235001270227485],[-0.0021393187780976972,-0.002368620681792777],[-0.002069102416001075,-0.002366464461168505],[-0.0020636479900773626,-0.0023176158764002253],[-0.0020991371670197943,-0.002304105138072998],[-0.00207053871408994,-0.002302500007978381],[-0.002060297535989268,-0.002322607630354412],[-0.002070206578907455,-0.0022802892531856855],[-0.002053075353670757,-0.0023206016970220844],[-0.0020140718901993262,-0.002308762880801396],[-0.002035376419245933,-0.002234848878138962],[-0.0020793723558247485,-0.0022432778123757657],[-0.00204838465625717,-0.002225847240445944],[-0.0020862210487117457,-0.00221093138380013]]],[[[-0.001551258208857922,-0.002124008579684755],[-0.0015986701401227673,-0.0021403025193293956],[-0.0015372579858437087,-0.0021402934538059526],[-0.001551258208857922,-0.002124008579684755]]],[[[-0.0009410718061118353,-0.0018917804803564309],[-0.0009620983038613244,-0.0018916848449279655],[-0.0009607703384974694,-0.0019377982048922604],[-0.0009324593692040632,-0.001997106491259615],[-0.0007953526171184612,-0.002064194548488274],[-0.0008786638996349376,-0.0019379418540452775],[-0.0009410718061118353,-0.0018917804803564309]]],[[[-0.0021552012041065956,-0.0018466886277295202],[-0.002322675529970741,-0.0018802556712884666],[-0.002440457582715066,-0.001993505664856343],[-0.002270145191614403,-0.0020314090033366483],[-0.0021598853653029713,-0.002018966002601985],[-0.002099941645576698,-0.0020327094361434206],[-0.002025952345591599,-0.002018991178594831],[-0.00204654563112475,-0.002021525450956574],[-0.0020441913810492827,-0.0019903671627687913],[-0.0019772803426437,-0.0020141157360171746],[-0.0020063962369482476,-0.0019719248635965414],[-0.002086670916631909,-0.001937736104771659],[-0.002054954236007147,-0.0019075733849831522],[-0.0020299784522699797,-0.0019380055460729295],[-0.002050799690848683,-0.0018850618182213452],[-0.002074142351343102,-0.0018718297938917772],[-0.0021227394957075416,-0.0019018016634149149],[-0.002158539797698818,-0.0018645540028714436],[-0.0021296416919854475,-0.001855551629766694],[-0.0021552012041065956,-0.0018466886277295202]]],[[[-0.0015169556423384866,-0.0018491219020120298],[-0.0015366660016706713,-0.0017720473944038417],[-0.001545235271673724,-0.002021822633835768],[-0.0015236640626786584,-0.0020580807664032363],[-0.001501555095685988,-0.0020244076131632482],[-0.0014888910554970319,-0.002042158222693047],[-0.0014712822735687696,-0.0020260040828503634],[-0.0014901041328301463,-0.00200349605832173],[-0.0014600652798661036,-0.0020086445528022523],[-0.0014518602103837399,-0.0020489727555172976],[-0.0015070968742889634,-0.0021632895500687255],[-0.0014039075490428704,-0.0022673969684845474],[-0.0013256155124809748,-0.002272645331522938],[-0.0012501002032266194,-0.0022104507885885027],[-0.0012347418795308782,-0.002137299567550599],[-0.0011448663855656875,-0.0020724838451542382],[-0.0011610907331387511,-0.0018949000222150403],[-0.0012507636694847398,-0.0018964101887277707],[-0.0013426684634424825,-0.0019435996740639894],[-0.0014134849558158104,-0.0019337173297131471],[-0.00146125895961137,-0.001969092176317133],[-0.0014610939706585983,-0.0019374272151395644],[-0.0015067144230536983,-0.0019406135520156909],[-0.0014649301594557107,-0.0019328968097980237],[-0.0014667805958312008,-0.0019025746662961751],[-0.0015028918081610486,-0.0019039127253890342],[-0.0014908768917648702,-0.0018512992691341879],[-0.0015169556423384866,-0.0018491219020120298]]],[[[-0.0016435502759045602,-0.0016248744295381812],[-0.00170531337155598,-0.0015922218064048366],[-0.0016648573426379068,-0.001620482176328153],[-0.0016527947647103642,-0.0016589548201793036],[-0.001669820774594799,-0.0016676291737027782],[-0.0016587158325563256,-0.0016679020083998353],[-0.0016239787086436194,-0.0016565174959879414],[-0.0016410755512012189,-0.001660895725898115],[-0.0016426248047722465,-0.001648579989414145],[-0.0016347735137294413,-0.001634576037638169],[-0.00162292251910521,-0.001645980808163472],[-0.0016435502759045602,-0.0016248744295381812]]],[[[-0.0017338805036502842,-0.001582356666254725],[-0.00174901121419881,-0.0016395927964154566],[-0.0017262015432751418,-0.0016487364018900053],[-0.0017457746450677395,-0.001652502343269191],[-0.0016849870718872182,-0.0016660954714993181],[-0.001703141922744714,-0.0016538743130638522],[-0.0016887343847395316,-0.001625777570069431],[-0.0017395902351440553,-0.0016120710330440602],[-0.0017338805036502842,-0.001582356666254725]]],[[[-0.0016797525126119397,-0.0014525108181615565],[-0.0017567470011667333,-0.0014249686762113356],[-0.001872186807808182,-0.0014806428476603628],[-0.0018198864695734688,-0.0015290899590780782],[-0.0016548845743144384,-0.001554892056311985],[-0.0015104539713113102,-0.0016237228649700342],[-0.0013622589068435834,-0.001639670809083782],[-0.0013293827470538184,-0.0015972129800729817],[-0.0013905214697710467,-0.0015518064797390707],[-0.0015201619246308223,-0.0015313785580772787],[-0.0015628935854349526,-0.0014360917655906746],[-0.001613877983504494,-0.0014775656128236392],[-0.0016797525126119397,-0.0014525108181615565]]],[[[-0.001485984072651341,-0.0013703258139372565],[-0.0015240163022616252,-0.0013983967020436694],[-0.001505017509096494,-0.001509533535937635],[-0.0013293696313751095,-0.0015641065265228349],[-0.001286008816474981,-0.0016411918364056532],[-0.0011861344771956672,-0.0016561794294958077],[-0.001266977519214419,-0.0015197528065726829],[-0.001426947513589803,-0.001385154097533814],[-0.001485984072651341,-0.0013703258139372565]]],[[[-0.0023665660507306355,-0.0003765748903106214],[-0.002357636965408127,-0.0004771131796985628],[-0.0024161367066770417,-0.0004576120289101482],[-0.0024941216004412633,-0.0004894747547794509],[-0.002639039470598724,-0.0006552347729424923],[-0.002623786076552509,-0.0007234846758308322],[-0.0026801076782717553,-0.0007494387935977898],[-0.002702380519731177,-0.0007307340609372659],[-0.0027727436396575767,-0.0008061049621446159],[-0.0028396266383926114,-0.0007401220280982557],[-0.0027211536270269373,-0.0006349452358946905],[-0.0026236312229748703,-0.0004846627574934814],[-0.0028393668177903145,-0.000512533549695604],[-0.0032483326226362065,-0.0007842858523403606],[-0.0032839548785423057,-0.0007345069503443824],[-0.0033718163494610644,-0.0008032845294962954],[-0.00337184452107138,-0.000888741433520579],[-0.0032097366700296758,-0.0012908630844634672],[-0.003108783164014938,-0.0014674442808271237],[-0.0030370855942461234,-0.0014738329354599955],[-0.0029793951576102314,-0.0015748487358848706],[-0.0030502439754632633,-0.0016642923911618368],[-0.003093883657552348,-0.0015805270945890015],[-0.0030483768331179602,-0.0016783888729676733],[-0.0030109362178715815,-0.0016717175904616965],[-0.0027320991066047654,-0.001377268699449985],[-0.00281021140031541,-0.001068226746916423],[-0.0029111466002043652,-0.0009752358203485301],[-0.002826646872535824,-0.0008820572177583585],[-0.0027317355843205653,-0.0009694313502919272],[-0.002666944844083322,-0.0011987134708419944],[-0.0024574520247598068,-0.0011242361970502657],[-0.0023187303538068967,-0.001045857906603942],[-0.0024804714841684403,-0.0009310406130964566],[-0.0024575595067197584,-0.0008828936852864899],[-0.002411908282226816,-0.0009073696505765838],[-0.002386596992344733,-0.0008667813649196887],[-0.002375941228026441,-0.0009110521360184975],[-0.0021718554234284003,-0.0010468128260399112],[-0.0020209992714122385,-0.0009708779757602315],[-0.00198653223830454,-0.0008974418691636288],[-0.002019016796721591,-0.0008550648267657834],[-0.0020940819404536193,-0.0008379430547904576],[-0.0021533397261956095,-0.0008670767723586437],[-0.0021078314030080862,-0.0008250652761390143],[-0.002012761707665447,-0.0008471835211736334],[-0.0019911131388723967,-0.0008676976856136775],[-0.0018651228852355818,-0.0008017371046662447],[-0.0019387093214698987,-0.0007137782947310711],[-0.002006888613493016,-0.0007029964881368755],[-0.0020550497008787177,-0.0006629835652205429],[-0.0021365929897959476,-0.0005121557563256829],[-0.002197934679236848,-0.0004816548902581985],[-0.0022350562041323304,-0.0005053216320973775],[-0.002219015194506674,-0.0004795163435886707],[-0.002247540764185661,-0.00047030136529002675],[-0.0022604906774255,-0.0004933617966003112],[-0.002345666940743179,-0.0004767192818135868],[-0.002357540967282197,-0.00037670255863986313],[-0.0023665660507306355,-0.0003765748903106214]]]]}},{"type":"Feature","properties":{"Level":"ADM2","shapeGroup":"SGP","shapeID":"SGP-ADM2-91842731B8759017","shapeName":"Western Water Catchment","shapeType":"ADM2"},"geometry":{"type":"MultiPolygon","coordinates":[[[[-0.0017613346743171137,0.001510530886029926],[-0.0018084975885505606,0.0015284512380517867],[-0.0018334594839185495,0.0015588865648510364],[-0.001837530965189335,0.001571366103682692],[-0.0018389492066093473,0.0015779512826696873],[-0.0018391862343120524,0.0015926625405953132],[-0.0018299173902970782,0.0016588293278303468],[-0.0018780328412367543,0.0018036243717673983],[-0.0020776439267277368,0.0016097954034322015],[-0.0022403870486533825,0.0016079433817495214],[-0.00229229011305372,0.0016670622909344956],[-0.0023396076136316924,0.001639137102138477],[-0.002466584735887255,0.0016274385499457367],[-0.0025472672964252075,0.0017075233658729871],[-0.00253692689469929,0.0017298899428794812],[-0.0025878508613188865,0.0017400496059778447],[-0.0025622983065447928,0.0018194801044302267],[-0.002616387692490002,0.0018382087200521369],[-0.002650863785610103,0.001965013428204543],[-0.0026861010112436247,0.0020025138896144767],[-0.0028030309358592393,0.0019714781455562047],[-0.0028114384307439976,0.0019379323989525687],[-0.0028554991860041,0.0019588995443697854],[-0.00288879510150264,0.0019234390199756035],[-0.0029470495644946244,0.0019230532186469418],[-0.002967175713322354,0.0018701072819808928],[-0.003012619661082365,0.0018542061692272682],[-0.003026390915574154,0.0017990122067530478],[-0.0030034542612644146,0.0017508444135927448],[-0.003048150618136852,0.0017505921744174202],[-0.0030349018479013746,0.001725046199709368],[-0.0030610716723684997,0.0016928893947678603],[-0.0030404772442448034,0.0016555208066648675],[-0.0030774876691681244,0.0016466560508519024],[-0.0031216749395906913,0.0015674415829920463],[-0.003172487543763623,0.0015704996394916293],[-0.003186926752377434,0.0015249747676264747],[-0.003218764258288132,0.001511409350243298],[-0.003194432512295293,0.001449020201008011],[-0.003226352183952941,0.001392715222884533],[-0.003214399376198813,0.001284237995648141],[-0.0032651206676014254,0.0011877731499225774],[-0.0032581583312705016,0.0011576309310683541],[-0.003306583862313344,0.001139644227414749],[-0.00338933489943963,0.000943829306088162],[-0.0034122138787336903,0.0009735193585242996],[-0.003448111252544812,0.0009372659360522562],[-0.0035455263150776847,0.0007295618142251215],[-0.00360541724107241,0.000680933656511229],[-0.003632262847645422,0.000596375811710459],[-0.0034898179331789418,0.00046271996963298534],[-0.003406889020574698,0.00042815397169704283],[-0.0034119361968055874,0.0003640335387444793],[-0.0033397003483817546,0.0002892014027295886],[-0.003321988157420021,0.00027454613069721745],[-0.0031275468192583852,0.00015797529110983533],[-0.003022719364966552,0.00020014156955738827],[-0.0030017312130226088,0.00021140702406796663],[-0.0029984230865056213,0.00021498467905445295],[-0.00298531616337679,0.0002445117495213367],[-0.002954279082339754,0.00033418395297957204],[-0.0029225871780324385,0.0003557812606800326],[-0.0028658119892026584,0.00036772021234554586],[-0.0027271213369014454,0.0004762007833036819],[-0.0024553168502259573,0.0007925453437920282],[-0.0023848457728117495,0.0008376342685707527],[-0.0021629785741232054,0.0009058385350613207],[-0.0019943037804557085,0.0010470914767353179],[-0.001913535505212724,0.001117122780271984],[-0.0018389581327711508,0.0011810980423447859],[-0.0018621878368955604,0.001262663233468686],[-0.0017695570195756462,0.0015014592628332935],[-0.0017613346743171137,0.001510530886029926]]],[[[-0.0028211989922990767,0.0020000207842798545],[-0.0028189915670844574,0.0020267647816751833],[-0.0028389538560615445,0.002012068055719851],[-0.0028211989922990767,0.0020000207842798545]]]]}},{"type":"Feature","properties":{"Level":"ADM2","shapeGroup":"SGP","shapeID":"SGP-ADM2-91842731B34010756","shapeName":"Woodlands","shapeType":"ADM2"},"geometry":{"type":"MultiPolygon","coordinates":[[[[-0.0006152906837040629,0.002187508770660429],[-0.0007396687355548246,0.002253891300078692],[-0.0008107626717349678,0.002403814597194298],[-0.0008617707193190823,0.0023837375482003154],[-0.000962645291961264,0.002497604315777835],[-0.0012254459996540853,0.002313577031102909],[-0.0013296116458903515,0.0022612376800665857],[-0.001359376046314382,0.0023308285499865633],[-0.0013498634523289642,0.002264508531084175],[-0.0013941155972815355,0.002185891264780082],[-0.001440652424486667,0.0021730791925094195],[-0.0013704825853070779,0.002121775240148338],[-0.0013639844590402576,0.0019723065864241107],[-0.0013207863679942414,0.001790110310196269],[-0.0012343001651403456,0.0018510336036783315],[-0.0011242490160358503,0.001878122715474717],[-0.001019909957831042,0.001864202080355426],[-0.0009072189022174225,0.0018085767971669497],[-0.0006357597670906469,0.0021203339417326106],[-0.0006152906837040629,0.002187508770660429]]]]}},{"type":"Feature","properties":{"Level":"ADM2","shapeGroup":"SGP","shapeID":"SGP-ADM2-91842731B71564682","shapeName":"Yishun","shapeType":"ADM2"},"geometry":{"type":"MultiPolygon","coordinates":[[[[9.46244144150738e-05,0.0013638820216428371],[0.00014419789890877138,0.0014010484994599892],[0.00015127854783729576,0.0014362115298993672],[0.00014118186039053441,0.0014997701775385508],[0.00024288927913495854,0.0015854884458050833],[0.0002633511114653421,0.0017390989472616525],[0.0003538272096531382,0.001852393737891589],[0.0002936317631066834,0.0018305017461983653],[0.00026460922522096087,0.0018445880399795556],[0.00013375088355818538,0.0018997297038936267],[0.00010215222613600445,0.0019201136270083907],[-2.447460906183337e-06,0.002020902474214381],[-4.918795272918475e-05,0.0021083612636445537],[-0.00017920344147759982,0.002210863904757332],[-0.0002905113491591343,0.002141231849144276],[-0.00031257366429189603,0.002077480003634946],[-0.0003678098761748929,0.0020319157627710638],[-0.0003509885492819773,0.001907800789275882],[-0.0004167509480943134,0.0016487806892868662],[-0.000553336713625628,0.0016516934198946842],[-0.0006373192834928324,0.001683799717859813],[-0.0007186548100875953,0.0016652601979814108],[-0.0006667043961886769,0.0015361899467265516],[-0.000565920850919178,0.0013565839977616179],[-0.0004910340293416309,0.0013159444257269115],[-0.0003418590812547934,0.001291629298336261],[-7.474256266786451e-05,0.001352528036484557],[9.46244144150738e-05,0.0013638820216428371]]]]}}]}
