{"type":"FeatureCollection","bbox":[41.81993426627269,62.56315533196151,210.97763484006634,199.3592471542762],"crs":{"type":"name","properties":{"name":"EPSG:cartesian"}},"properties":{"note":"Created using cartogram-cpp / go-cart.io with custom projection, not in EPSG:4326"},"features":[{"type":"Feature","properties":{"Level":"ADM1","shapeGroup":"BEL","shapeID":"BEL-ADM1-95415949B89589665","shapeISO":"BE-BRU","shapeName":"Brussels-Capital","shapeType":"ADM1"},"geometry":{"type":"MultiPolygon","coordinates":[[[[102.72400428938941,131.99372908782783],[132.8672976403406,114.14032105999426],[149.76578416794777,122.25220610562617],[134.58533335988085,167.95106327405148],[102.72400428938941,131.99372908782783]]]]}},{"type":"Feature","properties":{"Level":"ADM1","shapeGroup":"BEL","shapeID":"BEL-ADM1-95415949B16727932","shapeISO":"BE-VLG","shapeName":"Flanders","shapeType":"ADM1"},"geometry":{"type":"MultiPolygon","coordinates":[[[[185.24611396197497,132.97327513743755],[191.30203242893413,131.68059210808357],[191.92229910272238,134.9191086952173],[185.24611396197497,132.97327513743755]]],[[[185.8148399633521,136.80953193519414],[184.73761051784106,140.81225447876122],[191.64127850627008,166.0983228542609],[180.334053478842,173.33823726553317],[178.402516455076,179.53695050358647],[167.72058065186886,178.22070346276587],[157.08085660681263,196.9846111427138],[152.6516178499178,190.9120943300186],[145.20706085899513,193.31320066081332],[148.47053831296674,196.15374413578553],[144.9895401191631,199.3592471542762],[138.55402702841718,194.47892125517876],[133.24396367300128,194.96901258188677],[133.29065619561464,198.78102241056266],[125.59968738141502,196.91379401105723],[128.1204178971555,191.17656522719489],[117.35804391637001,191.70011795100555],[114.12193875228334,186.57294656402178],[99.49989128280737,178.53872199021723],[87.37273908962887,185.0796085270431],[80.00700090632013,179.79703389851963],[78.13081170451618,189.29609256475078],[69.96793304780809,188.4157541453627],[41.81993426627269,167.74559754661422],[44.53866398748809,148.81011522149956],[56.82028487553484,137.47497187795133],[59.808049312236804,143.4600728897713],[63.619982654226995,141.65813289682188],[70.51532465505171,138.74726466689435],[79.05797734728283,132.52553001173024],[81.67382861360795,136.48948841483227],[88.22453459303544,129.49846458656862],[91.16883809164605,133.45462373512166],[98.7093926875252,123.243122871634],[110.31920841956206,116.92043919007764],[121.07516068524716,111.64324772108726],[158.09584866169084,127.21748434128762],[168.515221272818,122.87678270758931],[178.75315349728686,128.18478363299033],[185.8148399633521,136.80953193519414]],[[102.72400428938941,131.99372908782783],[134.58533335988085,167.95106327405148],[149.76578416794777,122.25220610562617],[132.8672976403406,114.14032105999426],[102.72400428938941,131.99372908782783]]]]}},{"type":"Feature","properties":{"Level":"ADM1","shapeGroup":"BEL","shapeID":"BEL-ADM1-95415949B15047719","shapeISO":"BE-WAL","shapeName":"Wallonia","shapeType":"ADM1"},"geometry":{"type":"MultiPolygon","coordinates":[[[[185.24611396197497,132.97327513743755],[185.8148399633521,136.80953193519414],[178.75315349728686,128.18478363299033],[168.515221272818,122.87678270758931],[158.09584866169084,127.21748434128762],[121.07516068524716,111.64324772108726],[110.31920841956206,116.92043919007764],[98.7093926875252,123.243122871634],[91.16883809164605,133.45462373512166],[88.22453459303544,129.49846458656862],[81.67382861360795,136.48948841483227],[79.05797734728283,132.52553001173024],[70.51532465505171,138.74726466689435],[77.02921902951616,123.95872651028091],[91.28894345217401,118.87399929617962],[97.72451430007752,108.54949111961007],[99.1918403907836,110.25793433732531],[114.38208923616921,106.12144852645909],[122.3018177573035,100.99047788174757],[125.70531442117473,101.24495036663247],[122.13477117040439,96.38358909452475],[126.91430469911062,93.93059776956488],[122.19108734424033,91.06581846223926],[124.41111851768537,87.27578403859701],[146.95038528942632,90.47570197294763],[147.92663053588328,95.39779472864429],[155.29027401115775,97.7751300398067],[150.98882239795228,88.88823775390657],[154.78287632551752,86.14423648896843],[152.11974939195883,79.4789551423123],[167.6104730834916,75.2798819062981],[174.58274899974057,62.56315533196151],[187.6741799007455,67.82544100463247],[187.71746702788187,75.99636226479015],[182.76759055260817,82.92678880609365],[183.39457566943918,91.01393539780267],[190.21564523802064,103.28453763690152],[197.75673484241707,101.74583310200154],[200.31902667379356,106.83610278172974],[210.97763484006634,112.18225542458127],[209.2933011875159,120.32079701328358],[202.96854831943722,122.01494407857327],[206.9141890453193,129.64861265501784],[191.92229910272238,134.9191086952173],[191.30203242893413,131.68059210808357],[185.24611396197497,132.97327513743755]]],[[[56.82028487553484,137.47497187795133],[63.619982654226995,141.65813289682188],[59.808049312236804,143.4600728897713],[56.82028487553484,137.47497187795133]]]]}}]}
