{"type":"FeatureCollection","bbox":[485.183134475502,849.0974757109234,1514.2869352114553,1628.5011148245205],"crs":{"type":"name","properties":{"name":"EPSG:cartesian"}},"properties":{"note":"Created using cartogram-cpp / go-cart.io with custom projection, not in EPSG:4326"},"features":[{"type":"Feature","properties":{"Level":"ADM2","shapeGroup":"SGP","shapeID":"SGP-ADM2-91842731B16705465","shapeName":"Ang Mo Kio","shapeType":"ADM2"},"geometry":{"type":"MultiPolygon","coordinates":[[[[1096.1547577411466,1538.5785026578978],[1110.0108530285725,1595.3571285668522],[1108.1386105720237,1593.041928704856],[1091.3659005021827,1559.0617815019623],[1013.7792606505916,1473.744078291354],[901.0099393324892,1374.554408916861],[896.6778232848206,1378.3796191694094],[900.9415629516097,1374.650732102613],[900.9687715949909,1374.6119510033311],[901.1280398486356,1374.3929568767876],[901.1745513415026,1374.3225579159698],[901.405001202474,1373.9788866249942],[902.5831995681417,1371.961627926607],[902.8770621625565,1371.411391900676],[902.9790836774182,1371.2192058822695],[902.9409881976909,1371.2961251088655],[903.0641430053149,1371.0697172405382],[903.5332242945859,1370.1539035004025],[903.8207282289097,1369.5838507766632],[904.9494373554843,1367.187871454171],[905.177242715477,1366.7075651863422],[905.1549073410279,1366.7579124741296],[954.1972101059838,1326.0775416190036],[1025.9333958229377,1305.6824044996317],[1054.3798703405664,1378.8899954058425],[1059.8217204249738,1422.4295136839194],[1096.1547577411466,1538.5785026578978]]]]}},{"type":"Feature","properties":{"Level":"ADM2","shapeGroup":"SGP","shapeID":"SGP-ADM2-91842731B15087516","shapeName":"Bedok","shapeType":"ADM2"},"geometry":{"type":"MultiPolygon","coordinates":[[[[1251.533527929342,1126.239305267246],[1257.181124377623,1124.1502105996988],[1289.5771593878164,1149.3127147617756],[1353.2687001145232,1179.5272315732893],[1386.6528973383013,1214.0112017845472],[1382.8816864855273,1242.5667948126522],[1358.0231058166598,1255.3496318135994],[1329.1720323200243,1300.4815672367433],[1257.6969134537878,1332.1392233103365],[1219.6416157721567,1393.0619709308853],[1215.8335774178088,1374.6432392820725],[1207.8374858842794,1364.652777520441],[1207.749496883054,1364.8230148693426],[1203.4601694054652,1351.1692397079667],[1199.7770766124106,1344.3899713730764],[1195.1488499955974,1335.324578996213],[1171.0831045399386,1281.6357761793274],[1178.3722354111474,1239.660517127805],[1160.2988055053993,1174.4192869460317],[1160.263841335331,1143.5177665639142],[1165.8497104432386,1106.82186722387],[1199.9954691475891,1125.6240785203775],[1200.7804829715803,1097.3184479937634],[1251.533527929342,1126.239305267246]]]]}},{"type":"Feature","properties":{"Level":"ADM2","shapeGroup":"SGP","shapeID":"SGP-ADM2-91842731B69392651","shapeName":"Bishan","shapeType":"ADM2"},"geometry":{"type":"MultiPolygon","coordinates":[[[[905.177242715477,1366.7075651863422],[910.8544773166448,1348.3923787723998],[911.9387889873827,1333.2752692451818],[911.6789221351115,1338.2869958214796],[912.1171026033771,1327.8692469579053],[912.2575620307912,1323.7886219280203],[912.7272668396333,1292.9994822343308],[907.5077879144768,1231.871453924664],[906.7398293669286,1223.1274000539229],[907.4471337869882,1230.8318885070307],[906.889216340616,1224.6486220151203],[906.662211561121,1222.1768394315493],[906.5327746520832,1219.942030555031],[906.3615565031374,1217.4749386207789],[906.069707969533,1214.9647371062993],[906.0490190195616,1214.8149357917287],[906.3896662555361,1217.7768361622968],[1022.6653933047965,1234.2743216711324],[1025.9333958229377,1305.6824044996317],[954.1972101059838,1326.0775416190036],[905.1549073410279,1366.7579124741296],[905.177242715477,1366.7075651863422]]]]}},{"type":"Feature","properties":{"Level":"ADM2","shapeGroup":"SGP","shapeID":"SGP-ADM2-91842731B95017104","shapeName":"Boon Lay","shapeType":"ADM2"},"geometry":{"type":"MultiPolygon","coordinates":[[[[516.1208842106313,993.4426435556632],[516.9709050337234,993.1542757637146],[517.1284515587924,993.0932174649878],[517.7403098529196,992.9299236655017],[517.3070689059133,993.0668186430246],[517.5483674687019,993.0105898120686],[517.5436967458411,993.0117791057232],[516.7772882723082,993.2567573572926],[520.7580808966297,992.1331250470532],[522.9950211024943,992.1072910752969],[557.100624533028,994.899680249008],[515.9302070033845,993.9240206512135],[499.29036298297444,1014.4499448706443],[514.6723753200307,994.0311080545084],[513.6283359893071,994.4090175610777],[513.359061237567,994.5137123757963],[513.7651037002316,994.3046596650818],[515.9166773791779,993.4732071893907],[516.5860855196983,993.2825603393892],[516.0316958845987,993.4601954391311],[515.8156372466044,993.5403159883172],[516.1546736218424,993.4263075928184],[516.7467341464679,993.2164566022093],[517.0751767470165,993.1077268329235],[516.8014944319558,993.2048876477759],[515.8264308797723,993.5370250974424],[516.1208842106313,993.4426435556632]]]]}},{"type":"Feature","properties":{"Level":"ADM2","shapeGroup":"SGP","shapeID":"SGP-ADM2-91842731B11718063","shapeName":"Bukit Batok","shapeType":"ADM2"},"geometry":{"type":"MultiPolygon","coordinates":[[[[797.0934073721285,1172.222631842611],[809.3494631726188,1249.2400651122343],[857.8646029355523,1310.090970524304],[836.7986976998732,1326.3192946433962],[858.1004089394976,1387.6850265264884],[758.5820881404983,1284.8604611775415],[673.7854740766279,1246.086592099341],[637.417415310697,1249.813127226037],[668.991858595558,1247.4854950267434],[693.1635327922363,1229.297985773441],[698.1851600009161,1213.5729483615658],[698.7880060779123,1210.203242643077],[699.2338530242577,1207.7726204210176],[699.9332235202758,1205.4028631101255],[701.7834096155032,1198.0997334360318],[709.6039384907999,1170.9772044970705],[710.9836002582821,1168.3043730468862],[722.8846151953508,1151.1087413650314],[761.1780890229761,1114.588060883948],[765.034456442278,1112.7863222596554],[768.2597050413807,1124.8951069363204],[764.3925833976684,1138.5932623030567],[769.2793968574773,1146.1595730150916],[777.7185495181368,1145.330031911612],[760.3281073196274,1169.1596942425267],[797.0934073721285,1172.222631842611]]]]}},{"type":"Feature","properties":{"Level":"ADM2","shapeGroup":"SGP","shapeID":"SGP-ADM2-91842731B75613840","shapeName":"Bukit Merah","shapeType":"ADM2"},"geometry":{"type":"MultiPolygon","coordinates":[[[[873.998695769086,897.99750575093],[873.7178030087447,897.7969613696434],[874.3076230931038,897.6411281995686],[874.946736437631,896.8976434523515],[875.0696360692209,897.6789056580224],[881.2115322564792,890.6498646815496],[886.744473148285,885.1347328755584],[893.1226587593015,878.4258441042275],[903.9033053401386,875.0813730166406],[898.3602310261917,881.0809829455167],[886.584581715667,889.3349772779551],[875.7040567455394,897.163442371949],[875.4530737279742,899.1950723299326],[893.1124122996182,890.2179128478249],[921.7306014040192,896.9775414630349],[922.6093743505475,881.6961584115136],[929.1645400571103,886.6262021075252],[934.3320656469796,898.458164002539],[948.815398071775,913.174555100562],[934.4624603394449,887.6917509349448],[986.4020971821317,937.3470933480271],[987.2204917490976,939.7105335789568],[966.3941095724681,931.5786033235681],[967.984421005548,934.4103847649253],[970.8484870054808,1000.9243668999288],[943.2553706027134,1018.5036851729991],[934.3005461562296,1023.1681375734095],[900.3583333854675,1044.6049138257788],[897.0157826256709,1050.1553733005878],[896.9950079079337,1050.1763101857396],[896.6885856037924,1050.401223362409],[874.8423058186456,1047.562942078093],[850.4194015028113,1046.4676723278571],[848.9855821635488,1038.811518534661],[832.7691109094769,1029.8087004289935],[812.1717132275489,991.7336808996944],[806.3724886975972,971.3269809464988],[810.7375567539452,954.4323031526817],[806.6457229743648,931.3770462664249],[795.5812174544114,920.9172670989474],[820.355125852346,907.8580449252879],[828.4551468123464,911.6464008972141],[842.1771701360318,911.0391094113855],[846.6748597651941,912.256385633382],[859.4633653413003,910.4463636986629],[853.9061740532777,910.2707907144761],[847.7368077164934,911.0515923332019],[843.3171352083932,910.1224157750535],[848.1108704057414,909.5113112293593],[859.7785946888093,910.2853758027936],[868.1829669132306,905.9390454735762],[865.8021997642053,906.841203557439],[873.824971441316,900.6604274588433],[873.5392921845955,898.5298469283349],[873.998695769086,897.99750575093]]]]}},{"type":"Feature","properties":{"Level":"ADM2","shapeGroup":"SGP","shapeID":"SGP-ADM2-91842731B44469853","shapeName":"Bukit Panjang","shapeType":"ADM2"},"geometry":{"type":"MultiPolygon","coordinates":[[[[797.0934073721285,1172.222631842611],[833.4865527064212,1131.952874961598],[906.2070960568118,1216.061307401242],[906.3272669731525,1217.1285837775658],[906.6240509101511,1221.6200640930529],[906.6234500484485,1221.6111959999353],[906.5196417156875,1219.694916484672],[906.5872181078869,1221.0566284926858],[912.7945975676475,1295.056279034196],[909.9847910687843,1353.1180445249],[899.1951526768502,1376.654032937362],[895.0386579520875,1379.1225146443935],[841.9881077946286,1390.4518881355136],[791.4265224742039,1397.7435819394525],[858.1004089394976,1387.6850265264884],[836.7986976998732,1326.3192946433962],[857.8646029355523,1310.090970524304],[809.3494631726188,1249.2400651122343],[797.0934073721285,1172.222631842611]]]]}},{"type":"Feature","properties":{"Level":"ADM2","shapeGroup":"SGP","shapeID":"SGP-ADM2-91842731B90456756","shapeName":"Bukit Timah","shapeType":"ADM2"},"geometry":{"type":"MultiPolygon","coordinates":[[[[761.1780890229761,1114.588060883948],[799.2375633691995,1088.7637693911727],[771.5200871944801,1070.3125107949932],[765.2129394297867,1057.39747097868],[783.1857667886165,1047.4871875139115],[800.8852756183873,1048.68845307117],[806.6611580075929,1059.4648828700697],[811.8457728832722,1063.306717509572],[813.8460029494449,1053.6337013998698],[821.9108501984241,1064.3538024944692],[820.628411170018,1057.6897044279697],[826.311839814958,1056.8429766784993],[829.3558593044041,1061.989590631801],[830.957289465171,1058.7250004810044],[844.1762402189433,1080.1129859918449],[857.5853362682076,1096.0627672110309],[863.3489259873957,1108.5018765274176],[875.9133594628906,1136.0248937905394],[905.7226837545768,1212.5072630703964],[905.7456465271664,1212.6546792121135],[905.8555824102632,1213.410992743618],[905.8739678110762,1213.5598234828512],[905.9935902514906,1214.398565762825],[905.986874712112,1214.3480057318689],[906.0081049718929,1214.5102653483495],[906.4791697356454,1218.8493745613953],[906.520654929788,1219.7174044552712],[906.5374534735361,1220.0368175138028],[906.5709008410972,1220.8077277987875],[906.5872181078869,1221.0566284926858],[906.5196417156875,1219.694916484672],[906.6234500484485,1221.6111959999353],[906.6240509101511,1221.6200640930529],[906.3272669731525,1217.1285837775658],[906.2070960568118,1216.061307401242],[833.4865527064212,1131.952874961598],[797.0934073721285,1172.222631842611],[760.3281073196274,1169.1596942425267],[777.7185495181368,1145.330031911612],[769.2793968574773,1146.1595730150916],[764.3925833976684,1138.5932623030567],[768.2597050413807,1124.8951069363204],[765.034456442278,1112.7863222596554],[761.1780890229761,1114.588060883948]]]]}},{"type":"Feature","properties":{"Level":"ADM2","shapeGroup":"SGP","shapeID":"SGP-ADM2-91842731B39071774","shapeName":"Central Water Catchment","shapeType":"ADM2"},"geometry":{"type":"MultiPolygon","coordinates":[[[[896.6778232848206,1378.3796191694094],[896.5299105529269,1378.4521433716689],[896.5217476750882,1378.456665912143],[896.5304544936092,1378.4518423194675],[896.5292104724539,1378.4525308417965],[896.4130450243031,1378.5198367886273],[800.2496448072118,1396.584796696465],[788.9149811741725,1398.073250345403],[773.7538604150266,1399.594954141784],[791.4042561655283,1397.7464947719122],[899.1951526768502,1376.654032937362],[909.9847910687843,1353.1180445249],[912.7945975676475,1295.056279034196],[906.5872181078869,1221.0566284926858],[906.5709008410972,1220.8077277987875],[906.5374534735361,1220.0368175138028],[906.520654929788,1219.7174044552712],[906.4791697356454,1218.8493745613953],[906.0081049718929,1214.5102653483495],[905.986874712112,1214.3480057318689],[905.9935902514906,1214.398565762825],[905.8739678110762,1213.5598234828512],[905.8555824102632,1213.410992743618],[905.7456465271664,1212.6546792121135],[905.7226837545768,1212.5072630703964],[905.9303727354841,1213.9301708822388],[905.9722711596853,1214.2341157737098],[905.9702406193111,1214.219472751452],[905.9717080354419,1214.230011204638],[905.9754212817321,1214.258520157849],[905.9819969047039,1214.3110570697013],[906.0238308839764,1214.6333865407055],[906.0490190195616,1214.8149357917287],[906.069707969533,1214.9647371062993],[906.3615565031374,1217.4749386207789],[906.5327746520832,1219.942030555031],[906.662211561121,1222.1768394315493],[906.889216340616,1224.6486220151203],[907.4471337869882,1230.8318885070307],[906.7398293669286,1223.1274000539229],[907.5077879144768,1231.871453924664],[912.7272668396333,1292.9994822343308],[912.2575620307912,1323.7886219280203],[912.1171026033771,1327.8692469579053],[911.6789221351115,1338.2869958214796],[911.9387889873827,1333.2752692451818],[910.8544773166448,1348.3923787723998],[905.177242715477,1366.7075651863422],[904.9494373554843,1367.187871454171],[903.8207282289097,1369.5838507766632],[903.5332242945859,1370.1539035004025],[903.0641430053149,1371.0697172405382],[902.9409881976909,1371.2961251088655],[902.9790836774182,1371.2192058822695],[902.8770621625565,1371.411391900676],[902.5831995681417,1371.961627926607],[901.405001202474,1373.9788866249942],[901.1745513415026,1374.3225579159698],[901.1280398486356,1374.3929568767876],[900.9687715949909,1374.6119510033311],[900.9415629516097,1374.650732102613],[896.6778232848206,1378.3796191694094]]]]}},{"type":"Feature","properties":{"Level":"ADM2","shapeGroup":"SGP","shapeID":"SGP-ADM2-91842731B90623709","shapeName":"Changi","shapeType":"ADM2"},"geometry":{"type":"MultiPolygon","coordinates":[[[[1490.8605662389011,1323.4766670820363],[1480.7880829206933,1292.4635924028335],[1469.83955879677,1277.326704353206],[1494.875749563214,1323.857139956659],[1494.1880612370262,1297.7516782145044],[1499.4631991808178,1305.7115376473462],[1503.5764293827176,1357.2779289988719],[1503.603389878955,1356.255416122673],[1491.5400464443483,1374.9852589455425],[1491.3012053365685,1375.2074688532957],[1490.4372930346713,1375.9868697221652],[1487.9040910415927,1378.431345278985],[1488.0778428057602,1378.2411714193381],[1487.6802245101449,1378.644442407493],[1487.1905658772816,1379.061981903444],[1487.1991384991113,1379.0574814902493],[1486.9051381584263,1379.337824761158],[1483.2163138728,1382.894775527725],[1481.4294369518425,1384.6432727390438],[1471.067356696938,1395.2531689160576],[1459.224589818029,1405.5131298709846],[1458.5653020809598,1406.1408642612635],[1482.0627764792541,1383.9753703536232],[1483.9460247830839,1382.206498621933],[1485.7229751989635,1380.4485545354473],[1486.370018369002,1379.8701935995289],[1487.7050533216332,1378.5853008649558],[1488.6512664983884,1377.6698482749152],[1489.978952755143,1376.4035627867793],[1492.0267396525996,1374.4683804890724],[1492.5899675060407,1373.8959882915237],[1496.1593146069224,1370.7753156307606],[1495.2039196778185,1371.662843819584],[1499.6493073010067,1352.2255998261717],[1502.2771389415013,1355.6167870561655],[1490.8605662389011,1323.4766670820363]]]]}},{"type":"Feature","properties":{"Level":"ADM2","shapeGroup":"SGP","shapeID":"SGP-ADM2-91842731B22047646","shapeName":"Changi Bay","shapeType":"ADM2"},"geometry":{"type":"MultiPolygon","coordinates":[[[[1503.603389878955,1356.255416122673],[1504.1787701084174,1348.5557531011948],[1503.3190673083336,1363.8950124241949],[1504.270558728489,1362.2688430717478],[1505.663750482081,1347.0622492681357],[1507.7712665456368,1342.1649367806922],[1502.8728761051589,1364.683771843651],[1501.217633452242,1366.2894411154994],[1500.5910426310136,1366.8708133829693],[1491.5400464443483,1374.9852589455425],[1503.603389878955,1356.255416122673]]],[[[1490.4372930346713,1375.9868697221652],[1490.9331126004345,1375.512352897883],[1492.664339055505,1373.9806695715615],[1493.4804611289119,1373.2059474860332],[1494.1082379348177,1372.652975131215],[1494.2939712874813,1372.4660298320787],[1492.7901059983146,1373.86111895169],[1490.729765474818,1375.6912201500304],[1490.4372930346713,1375.9868697221652]]]]}},{"type":"Feature","properties":{"Level":"ADM2","shapeGroup":"SGP","shapeID":"SGP-ADM2-91842731B37820439","shapeName":"Choa Chu Kang","shapeType":"ADM2"},"geometry":{"type":"MultiPolygon","coordinates":[[[[858.1004089394976,1387.6850265264884],[791.4265224742039,1397.7435819394525],[782.2330819820444,1398.801500466583],[723.6638034814933,1394.8686984341643],[617.9473538080583,1329.1337004305403],[617.2574341847157,1327.043625924247],[584.926572695518,1268.2009995019187],[586.6051513512855,1271.6146000230992],[576.0075756714334,1255.1512503998515],[575.480678468648,1254.5002010092321],[577.0267420316957,1256.4401050010858],[605.9146584179957,1253.262563906151],[673.7854740766279,1246.086592099341],[758.5820881404983,1284.8604611775415],[858.1004089394976,1387.6850265264884]]]]}},{"type":"Feature","properties":{"Level":"ADM2","shapeGroup":"SGP","shapeID":"SGP-ADM2-91842731B65220759","shapeName":"Clementi","shapeType":"ADM2"},"geometry":{"type":"MultiPolygon","coordinates":[[[[722.8846151953508,1151.1087413650314],[689.095781910177,1060.7878488547585],[684.4995804932116,1040.8085169343342],[682.273328232143,1036.6554492963387],[638.2249139369069,994.377018550741],[634.0340830793496,987.6723771667621],[659.5141479904422,989.3317503154092],[675.3428088872483,973.7367433132315],[682.2034137160565,974.9741939695773],[682.57088070499,974.8216096517629],[697.4520111471492,982.4260241590825],[707.4202557966266,965.7755524535597],[715.291184078008,970.7174606869391],[757.0196325727264,1036.6000826141826],[765.2129394297867,1057.39747097868],[771.5200871944801,1070.3125107949932],[799.2375633691995,1088.7637693911727],[761.1780890229761,1114.588060883948],[722.8846151953508,1151.1087413650314]]]]}},{"type":"Feature","properties":{"Level":"ADM2","shapeGroup":"SGP","shapeID":"SGP-ADM2-91842731B10931458","shapeName":"Downtown Core","shapeType":"ADM2"},"geometry":{"type":"MultiPolygon","coordinates":[[[[986.4020971821317,937.3470933480271],[985.9683000645423,936.8010164457198],[1001.8149064687199,957.1673823121703],[1002.5465104897592,958.5994845721477],[1003.8735540222934,961.1998143243446],[1006.1592866984241,965.8370199163903],[1008.960793253043,971.5028686593364],[1011.1689417128607,976.440125700492],[1012.0239622296563,977.0189916109413],[1012.236291076522,977.3326328090579],[1012.2461289969367,977.3519816520907],[1012.4661740133491,977.7811522090744],[1013.3507434406968,980.5005496801847],[1013.5552095487677,981.3880005368725],[1013.6117749993987,981.6344175748326],[1013.6959951674247,982.0760874330726],[1013.7639356055361,983.0666380237258],[1013.223408689729,986.0473567735396],[1001.3482579403011,1015.2116523687611],[979.4068195024814,1029.0825780233959],[985.5705931873468,1026.3178322814338],[982.9087857259819,1026.8858888287152],[987.8339614114553,1024.2401412592583],[1009.9250744489862,986.5920964587453],[1003.6098431464611,1003.1314561988539],[1009.1468811525475,981.1312119290437],[1007.2689308563808,974.9387518272138],[1004.6148722038538,967.935981802075],[1005.4482049990361,982.3978742483339],[992.8740457919063,946.7515078854339],[967.984421005548,934.4103847649253],[966.3941095724681,931.5786033235681],[987.2204917490976,939.7105335789568],[986.4020971821317,937.3470933480271]]]]}},{"type":"Feature","properties":{"Level":"ADM2","shapeGroup":"SGP","shapeID":"SGP-ADM2-91842731B16549460","shapeName":"Geylang","shapeType":"ADM2"},"geometry":{"type":"MultiPolygon","coordinates":[[[[1171.0831045399386,1281.6357761793274],[1126.6313753950174,1226.3931612707324],[1040.09337701132,1164.1734274225787],[1059.5471579551436,1124.4610000330129],[1050.0852795933004,1101.578548296604],[1043.1490664514924,1055.2242540829718],[1067.4682059227612,1051.7418665160271],[1093.6989926407032,1076.252143104266],[1096.8411217240086,1088.4016289249516],[1138.5311054428455,1116.1617664236603],[1160.263841335331,1143.5177665639142],[1160.2988055053993,1174.4192869460317],[1178.3722354111474,1239.660517127805],[1171.0831045399386,1281.6357761793274]]]]}},{"type":"Feature","properties":{"Level":"ADM2","shapeGroup":"SGP","shapeID":"SGP-ADM2-91842731B68340411","shapeName":"Hougang","shapeType":"ADM2"},"geometry":{"type":"MultiPolygon","coordinates":[[[[1195.1488499955974,1335.324578996213],[1201.198213638631,1348.6216708026914],[1202.5038973363246,1352.2073917093517],[1199.9469855646712,1347.6388482160362],[1197.3907666041111,1344.7162431229813],[1202.484668165689,1354.6868342101095],[1203.2845564858708,1356.3512417785194],[1205.174865927879,1360.1698105948067],[1209.2542388590173,1368.8163275681986],[1231.993038726508,1404.6442874213358],[1226.818896827418,1407.6386844987342],[1193.1701799566783,1423.8059993508252],[1149.6587225625626,1484.9068736112094],[1117.7330442664006,1595.8430813885234],[1112.7462144078054,1572.898725531259],[1111.340144304431,1533.3979805614101],[1098.7292907592343,1414.1366622845385],[1084.5375216014513,1366.7542963566784],[1083.4773317854902,1350.058293378872],[1094.366630043665,1328.0220736748995],[1088.0642116716142,1317.638160423729],[1097.0355259134408,1313.3130410052827],[1118.151225870431,1265.424832285877],[1126.6313753950174,1226.3931612707324],[1171.0831045399386,1281.6357761793274],[1195.1488499955974,1335.324578996213]]]]}},{"type":"Feature","properties":{"Level":"ADM2","shapeGroup":"SGP","shapeID":"SGP-ADM2-91842731B57983807","shapeName":"Jurong East","shapeType":"ADM2"},"geometry":{"type":"MultiPolygon","coordinates":[[[[517.5436967458411,993.0117791057232],[517.6429274962546,992.9935392267816],[517.8991667741307,992.8853092217846],[518.7082502818938,992.5701526715077],[518.8944821729413,992.5355008826928],[518.7466881080444,992.5676311073162],[521.0292336213465,991.9920512229876],[521.7714495650175,991.9488935244783],[521.0369107230354,991.9912461534057],[521.2532468694359,991.9736652731827],[519.4247314178571,992.4458050411563],[518.3617370498484,992.6805978718336],[517.9858767310512,992.8548350782322],[519.4725404480043,992.4457833449724],[523.0281207863319,991.9873063303042],[523.7240815433356,991.9641516010432],[555.7609340623823,979.5516902944535],[588.7540058934682,979.5216542924029],[600.6290783655406,979.2747711235895],[589.6246137003304,978.78218039591],[626.2737202208426,973.1579269851286],[675.3428088872483,973.7367433132315],[659.5141479904422,989.3317503154092],[634.0340830793496,987.6723771667621],[638.2249139369069,994.377018550741],[682.273328232143,1036.6554492963387],[684.4995804932116,1040.8085169343342],[689.095781910177,1060.7878488547585],[722.8846151953508,1151.1087413650314],[710.9836002582821,1168.3043730468862],[709.6039384907999,1170.9772044970705],[701.7834096155032,1198.0997334360318],[698.486335772611,1208.2758045401536],[642.3622880968057,1249.5138885955155],[655.0445826740397,1249.132284322147],[674.6468337871345,1244.1794594224502],[687.7848579076842,1232.6295097153277],[697.4501641956717,1202.3484439683566],[694.8090132539951,1216.8895778972492],[692.8830128534644,1187.4504775178007],[658.9952340243422,1080.495173489331],[542.9183182860689,988.8916195128866],[529.3377732764797,991.1355276294782],[522.9950211024943,992.1072910752969],[520.7580808966297,992.1331250470532],[516.7772882723082,993.2567573572926],[517.5436967458411,993.0117791057232]]]]}},{"type":"Feature","properties":{"Level":"ADM2","shapeGroup":"SGP","shapeID":"SGP-ADM2-91842731B44472798","shapeName":"Jurong West","shapeType":"ADM2"},"geometry":{"type":"MultiPolygon","coordinates":[[[[522.9950211024943,992.1072910752969],[529.3377732764797,991.1355276294782],[542.9183182860689,988.8916195128866],[658.9952340243422,1080.495173489331],[692.8830128534644,1187.4504775178007],[694.8090132539951,1216.8895778972492],[697.4501641956717,1202.3484439683566],[687.7848579076842,1232.6295097153277],[674.6468337871345,1244.1794594224502],[655.0445826740397,1249.132284322147],[642.3622880968057,1249.5138885955155],[605.8626657565387,1252.606648995415],[586.4004121226822,1262.365980606935],[585.2889161452619,1263.6528467739076],[584.4985118674324,1264.6433671435727],[583.452409788915,1263.9598363667683],[579.8328692739474,1260.0623850958782],[578.7916581122279,1258.61326214567],[576.5024198237271,1255.6767087003047],[576.1924824287057,1255.3452762230656],[545.5690152334992,1224.4196115996922],[496.24363539381966,1125.5640649045538],[486.7384986371155,1049.988876212187],[491.61281428201073,1034.2656793119427],[492.2251859882778,1032.6399310292563],[495.23086996735447,1026.3314999543752],[496.37124292378945,1023.1127785236516],[496.47374821016456,1022.7686773785958],[496.204461434175,1023.7037800466934],[498.721271103361,1015.6595943224149],[499.29036298297444,1014.4499448706443],[515.9302070033845,993.9240206512135],[557.100624533028,994.899680249008],[522.9950211024943,992.1072910752969]]]]}},{"type":"Feature","properties":{"Level":"ADM2","shapeGroup":"SGP","shapeID":"SGP-ADM2-91842731B92965426","shapeName":"Kallang","shapeType":"ADM2"},"geometry":{"type":"MultiPolygon","coordinates":[[[[1013.7639356055361,983.0666380237258],[1013.9390717368481,982.8219706620903],[1014.041735791668,982.7931495402988],[1014.2477120826564,982.7310616752474],[1015.1672949688287,984.444658610681],[1016.1851466162915,987.1013058037964],[1023.1547559888978,998.4741566108883],[1060.8247062454752,1020.3648947253612],[1068.896501134875,1039.5960421108075],[1067.4682059227612,1051.7418665160271],[1043.1490664514924,1055.2242540829718],[1050.0852795933004,1101.578548296604],[1059.5471579551436,1124.4610000330129],[1040.09337701132,1164.1734274225787],[1013.5309227749437,1165.8353018808348],[1011.597616989782,1166.0565814486986],[1010.6813939834748,1161.0187386836296],[1009.0142588311305,1155.6019457841678],[1001.5298659030091,1144.0673796184528],[961.8869674117548,1118.725782405228],[908.6435850935443,1089.0084227074105],[906.528769515889,1080.5551103636476],[924.0185359653478,1077.714816227328],[947.4846661684155,1059.0324754570986],[964.1002781975656,1093.019960743466],[966.1824563716532,1090.713688036426],[979.9697545665834,1075.102278360318],[973.8405618362266,1061.1033294503002],[1004.3887064265723,1010.9566411522776],[1001.3482579403011,1015.2116523687611],[1013.223408689729,986.0473567735396],[1013.7639356055361,983.0666380237258]]]]}},{"type":"Feature","properties":{"Level":"ADM2","shapeGroup":"SGP","shapeID":"SGP-ADM2-91842731B84667478","shapeName":"Lim Chu Kang","shapeType":"ADM2"},"geometry":{"type":"MultiPolygon","coordinates":[[[[576.7216788974124,1256.0496610072091],[579.2163802474299,1259.3162170493824],[580.0703122003156,1260.5339572189835],[580.4767600482794,1261.0960596419027],[584.2320336808315,1266.20674850484],[584.6579767280755,1267.1358851863617],[585.6064405743348,1269.1564244107517],[586.5578718978916,1271.5838566671277],[589.4283340357424,1276.7255867081276],[595.5243739230411,1287.985120644597],[605.587607662066,1306.9190496420406],[595.946118394332,1288.6357767247707],[589.0402760169516,1276.317262986551],[588.5383543074497,1274.9376442835787],[588.5441068236415,1274.9492883278435],[588.7303551344551,1275.5794430004644],[589.3630831265205,1276.66748723056],[590.0778234563114,1277.8258867408576],[594.0392016137841,1285.3427367207105],[593.5454922200619,1284.9366556574917],[610.7134928372508,1315.5645449918686],[618.9181730837606,1333.2558726022157],[632.1676911667495,1364.5320586480243],[632.2699320697228,1364.6922971200677],[631.6443337145674,1363.7645170361611],[632.3296402465659,1364.7956217571282],[655.5736581295523,1382.3211602443675],[638.552361811522,1370.7892336720556],[626.2774712163897,1353.649275767296],[618.5977478695931,1332.482590860729],[583.1103703906451,1264.5466870783052],[581.9502767338848,1263.4457277693537],[579.3145975025448,1259.451776794856],[575.4481787053601,1254.4650963032338],[575.3798979581177,1254.3823616330205],[575.1757507896992,1254.1073073927196],[575.1007986742338,1253.9948629543642],[574.866881991472,1253.7125836726027],[570.3976713159844,1249.3267617313832],[572.1680320989026,1251.0472819065265],[574.6646580680135,1253.555244810525],[572.5357836099178,1251.3844282163575],[575.115555810767,1254.017609386434],[576.7216788974124,1256.0496610072091]]]]}},{"type":"Feature","properties":{"Level":"ADM2","shapeGroup":"SGP","shapeID":"SGP-ADM2-91842731B62952515","shapeName":"Mandai","shapeType":"ADM2"},"geometry":{"type":"MultiPolygon","coordinates":[[[[896.5304544936092,1378.4518423194675],[896.5926557035791,1378.419292808184],[897.2815942350708,1378.0389734734867],[923.8234611535253,1411.3881895863296],[1046.1701534430806,1567.7742430973192],[1070.1435282557877,1593.7279007052484],[1055.4928907540143,1579.499258437587],[1058.3952968626347,1583.382102888574],[1053.6910949591243,1578.3303311272546],[1021.5107775076755,1539.2044970666868],[896.5237106705013,1378.4555747903944],[895.7510128138124,1378.8124145481906],[838.9913560148783,1390.9526057464773],[782.509749687126,1398.7722283418123],[763.9802176030133,1400.587970989966],[773.7538604150266,1399.594954141784],[788.9149811741725,1398.073250345403],[800.2496448072118,1396.584796696465],[896.4130450243031,1378.5198367886273],[896.5292104724539,1378.4525308417965],[896.5304544936092,1378.4518423194675]]]]}},{"type":"Feature","properties":{"Level":"ADM2","shapeGroup":"SGP","shapeID":"SGP-ADM2-91842731B18600643","shapeName":"Marina East","shapeType":"ADM2"},"geometry":{"type":"MultiPolygon","coordinates":[[[[1012.2461289969367,977.3519816520907],[1014.3728515815919,976.8609480002103],[1015.4160284527945,978.9890882315398],[1016.570014610853,980.4444366388961],[1017.6120659453313,981.9117197885032],[1016.4804716479308,980.3837333525742],[1023.0903258347726,990.6620375056726],[1018.0736579020269,988.6328636254315],[1023.1547559888978,998.4741566108883],[1016.1851466162915,987.1013058037964],[1015.1672949688287,984.444658610681],[1014.2477120826564,982.7310616752474],[1014.041735791668,982.7931495402988],[1013.9390717368481,982.8219706620903],[1013.7639356055361,983.0666380237258],[1013.6959951674247,982.0760874330726],[1013.6117749993987,981.6344175748326],[1013.5552095487677,981.3880005368725],[1013.3507434406968,980.5005496801847],[1012.4661740133491,977.7811522090744],[1012.2461289969367,977.3519816520907]]]]}},{"type":"Feature","properties":{"Level":"ADM2","shapeGroup":"SGP","shapeID":"SGP-ADM2-91842731B25785375","shapeName":"Marina South","shapeType":"ADM2"},"geometry":{"type":"MultiPolygon","coordinates":[[[[1003.8735540222934,961.1998143243446],[1002.7669194337557,955.9289997085515],[1012.3229119683856,971.3259417734242],[1013.304223943097,974.6802357811962],[1014.3728515815919,976.8609480002103],[1012.2461289969367,977.3519816520907],[1012.236291076522,977.3326328090579],[1012.0239622296563,977.0189916109413],[1011.1689417128607,976.440125700492],[1008.960793253043,971.5028686593364],[1006.1592866984241,965.8370199163903],[1003.8735540222934,961.1998143243446]]]]}},{"type":"Feature","properties":{"Level":"ADM2","shapeGroup":"SGP","shapeID":"SGP-ADM2-91842731B19705608","shapeName":"Marine Parade","shapeType":"ADM2"},"geometry":{"type":"MultiPolygon","coordinates":[[[[1160.263841335331,1143.5177665639142],[1138.5311054428455,1116.1617664236603],[1096.8411217240086,1088.4016289249516],[1093.6989926407032,1076.252143104266],[1067.4682059227612,1051.7418665160271],[1068.896501134875,1039.5960421108075],[1060.8247062454752,1020.3648947253612],[1023.1547559888978,998.4741566108883],[1018.0736579020269,988.6328636254315],[1023.1504190803872,990.7833911723818],[1093.7697966361202,1034.3335538664724],[1200.7804829715803,1097.3184479937634],[1199.9954691475891,1125.6240785203775],[1165.8497104432386,1106.82186722387],[1160.263841335331,1143.5177665639142]]]]}},{"type":"Feature","properties":{"Level":"ADM2","shapeGroup":"SGP","shapeID":"SGP-ADM2-91842731B65785162","shapeName":"Museum","shapeType":"ADM2"},"geometry":{"type":"MultiPolygon","coordinates":[[[[982.9087857259819,1026.8858888287152],[967.1377476227069,1033.22596700615],[947.5298316323936,1037.6794202208496],[947.5752286573247,1036.241313899449],[936.7343712707753,1041.6831367421382],[929.6928994686002,1048.790350111061],[951.8198653914916,1034.7527820868027],[952.9842311891845,1034.109676027878],[987.8339614114553,1024.2401412592583],[982.9087857259819,1026.8858888287152]]]]}},{"type":"Feature","properties":{"Level":"ADM2","shapeGroup":"SGP","shapeID":"SGP-ADM2-91842731B70623819","shapeName":"Newton","shapeType":"ADM2"},"geometry":{"type":"MultiPolygon","coordinates":[[[[906.528769515889,1080.5551103636476],[894.7808840616299,1083.7303619881175],[884.1981503847716,1095.496342146145],[869.7519056276554,1083.34471897205],[868.4217689143534,1080.9937384000232],[871.718672459726,1081.4370671586682],[887.0579463975982,1082.9873783107207],[890.0361962820083,1082.9672192135463],[893.617641130717,1080.6829040221266],[891.7793057439122,1081.312961274011],[893.8107514429987,1079.9488554469992],[896.9859815585132,1078.357986452893],[905.9874651066553,1072.171004558264],[904.1558128593257,1073.8000186759252],[908.6502749919829,1071.0838555302403],[908.702501760979,1071.0533704930895],[936.7343712707753,1041.6831367421382],[947.5752286573247,1036.241313899449],[947.5298316323936,1037.6794202208496],[931.4031133241554,1065.2316032091671],[954.4827987142617,1036.2752340242232],[924.0185359653478,1077.714816227328],[906.528769515889,1080.5551103636476]]]]}},{"type":"Feature","properties":{"Level":"ADM2","shapeGroup":"SGP","shapeID":"SGP-ADM2-91842731B72347899","shapeName":"North-Eastern Islands","shapeType":"ADM2"},"geometry":{"type":"MultiPolygon","coordinates":[[[[1477.1651238953568,1389.0307639428174],[1476.045934608073,1390.1723754961033],[1473.1049398999012,1393.095661945913],[1467.3234187802627,1398.972289825762],[1466.0019102549495,1400.0975063296823],[1465.125929862246,1400.7659567667301],[1466.6344433891782,1399.4830919836431],[1468.9287774453617,1397.3887346684478],[1472.2664860410937,1393.9799482832677],[1479.9005789973405,1386.2153384137698],[1481.3854756503454,1384.6944851302046],[1483.3011606830296,1382.8184494985796],[1483.0911379111342,1383.0414562647184],[1483.530769878608,1382.6017829000525],[1484.3608486262247,1381.8146925756832],[1484.8230664804669,1381.3564453969743],[1484.948328409419,1381.2510010120664],[1483.715664524033,1382.4391006294416],[1485.2614288674997,1380.9691772066146],[1486.1894764107521,1380.0584471612474],[1508.0345630757045,1360.7102851433622],[1514.2869352114553,1355.2641424711599],[1510.9455588346937,1358.3550842404584],[1495.452822245536,1371.5217222703993],[1491.2583055948146,1375.2716690796012],[1488.2124510264373,1378.1686097852285],[1489.1303664069223,1377.3796163354434],[1488.2058005597607,1378.2672978457476],[1487.1362354434195,1379.2451435884154],[1486.5966848468502,1379.7739564864792],[1486.568575976938,1379.8230045271737],[1485.0646825449874,1381.2493734913455],[1481.552371901693,1384.5716632193075],[1477.1651238953568,1389.0307639428174]]],[[[1271.5165463736332,1534.9241096372461],[1282.166989255272,1529.8718877111564],[1292.7263847055922,1524.5032060906701],[1298.839066555077,1521.2735753989894],[1361.1129673253768,1484.7019189020073],[1373.6954526616328,1476.441575579957],[1391.182091896511,1464.4941725961326],[1407.327544243034,1452.0082433346681],[1454.3086457869956,1409.9777911350698],[1467.7049040223947,1398.521895163225],[1469.9334786207646,1396.417891487662],[1469.5239562234296,1396.8123427076712],[1478.4298016072412,1387.7067750352894],[1478.7726304438133,1387.3755171666203],[1468.1183905756998,1398.1544780481634],[1459.0150884537263,1405.766524918786],[1424.0587413921016,1437.4386354416135],[1400.7524981595084,1457.4127772135691],[1363.3309222248176,1483.2763247465123],[1357.090391046482,1487.2473166355346],[1333.2465780121568,1501.6474868074029],[1318.9412060627233,1510.0201555225508],[1277.3142092279381,1532.3647450420845],[1259.0163177689637,1540.5677144601873],[1271.5165463736332,1534.9241096372461]]],[[[1357.8676614272847,1486.7613827986002],[1345.0980990920598,1494.65122341279],[1393.6936272491027,1462.6877913624887],[1388.252591240469,1466.5628013046694],[1371.9570721208722,1477.6049118980145],[1357.8676614272847,1486.7613827986002]]]]}},{"type":"Feature","properties":{"Level":"ADM2","shapeGroup":"SGP","shapeID":"SGP-ADM2-91842731B32481655","shapeName":"Novena","shapeType":"ADM2"},"geometry":{"type":"MultiPolygon","coordinates":[[[[863.3489259873957,1108.5018765274176],[868.4444225545719,1109.6069427428465],[869.130605164095,1108.4932053084024],[884.1981503847716,1095.496342146145],[894.7808840616299,1083.7303619881175],[906.528769515889,1080.5551103636476],[908.6435850935443,1089.0084227074105],[961.8869674117548,1118.725782405228],[1001.5298659030091,1144.0673796184528],[1009.0142588311305,1155.6019457841678],[1010.6813939834748,1161.0187386836296],[1011.597616989782,1166.0565814486986],[1011.4139515032439,1166.0474416069915],[974.881163368231,1152.2249848956674],[901.8303795182516,1143.1805423466876],[903.1413050876959,1194.835160774625],[906.0238308839764,1214.6333865407055],[905.9819969047039,1214.3110570697013],[905.9754212817321,1214.258520157849],[905.9717080354419,1214.230011204638],[905.9702406193111,1214.219472751452],[905.9722711596853,1214.2341157737098],[905.9303727354841,1213.9301708822388],[905.7226837545768,1212.5072630703964],[875.9133594628906,1136.0248937905394],[863.3489259873957,1108.5018765274176]]]]}},{"type":"Feature","properties":{"Level":"ADM2","shapeGroup":"SGP","shapeID":"SGP-ADM2-91842731B65999064","shapeName":"Orchard","shapeType":"ADM2"},"geometry":{"type":"MultiPolygon","coordinates":[[[[936.7343712707753,1041.6831367421382],[908.702501760979,1071.0533704930895],[908.6502749919829,1071.0838555302403],[904.1558128593257,1073.8000186759252],[905.9874651066553,1072.171004558264],[896.9859815585132,1078.357986452893],[893.8107514429987,1079.9488554469992],[891.7793057439122,1081.312961274011],[893.617641130717,1080.6829040221266],[890.0361962820083,1082.9672192135463],[887.0579463975982,1082.9873783107207],[871.718672459726,1081.4370671586682],[863.6466589819754,1077.4394303426811],[865.096162741547,1077.1203617951605],[883.581511354867,1082.5279764608495],[908.0435757074258,1069.4232528307903],[929.6928994686002,1048.790350111061],[936.7343712707753,1041.6831367421382]]]]}},{"type":"Feature","properties":{"Level":"ADM2","shapeGroup":"SGP","shapeID":"SGP-ADM2-91842731B94133817","shapeName":"Outram","shapeType":"ADM2"},"geometry":{"type":"MultiPolygon","coordinates":[[[[967.984421005548,934.4103847649253],[992.8740457919063,946.7515078854339],[1005.4482049990361,982.3978742483339],[1004.6148722038538,967.935981802075],[1007.2689308563808,974.9387518272138],[1009.1468811525475,981.1312119290437],[1003.6098431464611,1003.1314561988539],[957.809103609568,1033.5545802630231],[934.3005461562296,1023.1681375734095],[943.2553706027134,1018.5036851729991],[970.8484870054808,1000.9243668999288],[967.984421005548,934.4103847649253]]]]}},{"type":"Feature","properties":{"Level":"ADM2","shapeGroup":"SGP","shapeID":"SGP-ADM2-91842731B8754104","shapeName":"Pasir Ris","shapeType":"ADM2"},"geometry":{"type":"MultiPolygon","coordinates":[[[[1458.5653020809598,1406.1408642612635],[1452.5005801764005,1411.6240729934025],[1456.1845990220224,1408.2931283246426],[1453.6316837344048,1410.5819253516704],[1442.5120965707113,1420.650518742711],[1387.6640320621955,1466.8847005707044],[1371.5485726070892,1477.8025455587083],[1348.2579424256799,1492.7067661571866],[1345.0620048020967,1494.6305819564598],[1354.1635272085928,1489.124095109316],[1340.9855177165828,1497.0326983273033],[1326.4330221732623,1505.592034119773],[1333.823941221209,1501.2697001051347],[1319.3432708924581,1509.7829251901485],[1297.1387707969338,1522.0836009614625],[1242.5769791073913,1530.753256452198],[1238.7562877496628,1423.3473990488653],[1239.7452478682176,1414.63389988356],[1240.1613729233231,1413.542251772771],[1251.6038090701104,1422.744550905779],[1338.5569933664447,1422.5495453572235],[1448.5024045084629,1402.6070125272406],[1483.8351076142087,1381.1232446821082],[1492.5899675060407,1373.8959882915237],[1492.0267396525996,1374.4683804890724],[1489.978952755143,1376.4035627867793],[1488.6512664983884,1377.6698482749152],[1487.7050533216332,1378.5853008649558],[1486.370018369002,1379.8701935995289],[1485.7229751989635,1380.4485545354473],[1483.9460247830839,1382.206498621933],[1482.0627764792541,1383.9753703536232],[1458.5653020809598,1406.1408642612635]]]]}},{"type":"Feature","properties":{"Level":"ADM2","shapeGroup":"SGP","shapeID":"SGP-ADM2-91842731B26204757","shapeName":"Paya Lebar","shapeType":"ADM2"},"geometry":{"type":"MultiPolygon","coordinates":[[[[1219.6416157721567,1393.0619709308853],[1235.7304829660907,1407.1869893251217],[1242.072173671303,1412.6332440722658],[1251.6038090701104,1422.744550905779],[1240.1613729233231,1413.542251772771],[1239.7452478682176,1414.63389988356],[1231.993038726508,1404.6442874213358],[1209.2542388590173,1368.8163275681986],[1205.174865927879,1360.1698105948067],[1203.2845564858708,1356.3512417785194],[1202.484668165689,1354.6868342101095],[1197.3907666041111,1344.7162431229813],[1199.9469855646712,1347.6388482160362],[1202.5038973363246,1352.2073917093517],[1201.198213638631,1348.6216708026914],[1195.1488499955974,1335.324578996213],[1199.7770766124106,1344.3899713730764],[1203.4601694054652,1351.1692397079667],[1207.749496883054,1364.8230148693426],[1207.8374858842794,1364.652777520441],[1215.8335774178088,1374.6432392820725],[1219.6416157721567,1393.0619709308853]]]]}},{"type":"Feature","properties":{"Level":"ADM2","shapeGroup":"SGP","shapeID":"SGP-ADM2-91842731B43721367","shapeName":"Pioneer","shapeType":"ADM2"},"geometry":{"type":"MultiPolygon","coordinates":[[[[499.29036298297444,1014.4499448706443],[498.721271103361,1015.6595943224149],[496.204461434175,1023.7037800466934],[496.47374821016456,1022.7686773785958],[497.223917761831,1020.6873841822526],[499.5866289743649,1010.4347108863448],[507.76491177866274,998.517191592081],[510.03522107399897,996.5033492890968],[510.3534614126046,996.1584273846137],[510.8004735725876,995.860881533303],[512.6292653844419,994.7320921479675],[513.3367205612286,994.3975612148204],[513.1304446992889,994.5126617290551],[513.9920721675046,994.1834591120748],[514.2355675191573,994.0848172583882],[514.1511018085716,994.1256012834258],[514.4844201973604,994.0000767111261],[515.1557752995411,993.7526019976272],[515.5986881536162,993.555739726133],[515.5547465910347,993.5963139956609],[514.2182053639676,994.1262897908912],[512.913962655378,994.6496772460945],[513.1744429649955,994.5533495339698],[514.1719836794005,994.1592142287952],[515.7662620609437,993.5157195477555],[515.8835299746961,993.4802489597404],[513.7651037002316,994.3046596650818],[513.359061237567,994.5137123757963],[513.6283359893071,994.4090175610777],[514.6723753200307,994.0311080545084],[499.29036298297444,1014.4499448706443]]]]}},{"type":"Feature","properties":{"Level":"ADM2","shapeGroup":"SGP","shapeID":"SGP-ADM2-91842731B10704061","shapeName":"PuunggolL","shapeType":"ADM2"},"geometry":{"type":"MultiPolygon","coordinates":[[[[1297.1387707969338,1522.0836009614625],[1298.8476870387851,1521.2273166538764],[1206.4365874520367,1568.1950249960155],[1191.8626664224366,1577.081804483411],[1169.8190893692322,1593.1506267446666],[1130.8353846262248,1613.6970922347348],[1118.04881386849,1620.8643712764879],[1117.982496043703,1620.9040431671078],[1114.1875680828944,1623.712571277961],[1112.7796562609326,1624.984085527156],[1112.8992819588086,1624.8385888327987],[1147.3755243788103,1586.17901266963],[1191.0761929766095,1539.887123644302],[1238.7562877496628,1423.3473990488653],[1242.5769791073913,1530.753256452198],[1297.1387707969338,1522.0836009614625]]]]}},{"type":"Feature","properties":{"Level":"ADM2","shapeGroup":"SGP","shapeID":"SGP-ADM2-91842731B39998411","shapeName":"Queenstown","shapeType":"ADM2"},"geometry":{"type":"MultiPolygon","coordinates":[[[[850.4194015028113,1046.4676723278571],[852.2673771727455,1053.8305201279036],[838.610099228726,1045.1412466350073],[834.8907101314549,1048.675368535478],[827.3144627882117,1043.3565557741895],[830.957289465171,1058.7250004810044],[829.3558593044041,1061.989590631801],[826.311839814958,1056.8429766784993],[820.628411170018,1057.6897044279697],[821.9108501984241,1064.3538024944692],[813.8460029494449,1053.6337013998698],[811.8457728832722,1063.306717509572],[806.6611580075929,1059.4648828700697],[800.8852756183873,1048.68845307117],[783.1857667886165,1047.4871875139115],[765.2129394297867,1057.39747097868],[757.0196325727264,1036.6000826141826],[715.291184078008,970.7174606869391],[707.4202557966266,965.7755524535597],[697.4520111471492,982.4260241590825],[682.57088070499,974.8216096517629],[695.2822727415713,966.2773781525598],[689.6288271224614,958.7985757283514],[725.9244340244413,954.7288146160498],[717.6007500702549,940.09306176075],[677.2554279801018,953.1062653791221],[659.6491622646762,956.8403783307677],[649.6535809012198,952.933235246052],[723.6363583824148,910.4724596565816],[737.2233467852075,942.9460422323259],[760.3239869203618,927.5479980440032],[739.0881872879538,891.1794715008949],[755.391280004702,889.411600724985],[779.8735689539446,922.2785257094971],[792.3235968579428,918.1816720464683],[795.5812174544114,920.9172670989474],[806.6457229743648,931.3770462664249],[810.7375567539452,954.4323031526817],[806.3724886975972,971.3269809464988],[812.1717132275489,991.7336808996944],[832.7691109094769,1029.8087004289935],[848.9855821635488,1038.811518534661],[850.4194015028113,1046.4676723278571]]]]}},{"type":"Feature","properties":{"Level":"ADM2","shapeGroup":"SGP","shapeID":"SGP-ADM2-91842731B46223595","shapeName":"River Valley","shapeType":"ADM2"},"geometry":{"type":"MultiPolygon","coordinates":[[[[929.6928994686002,1048.790350111061],[908.0435757074258,1069.4232528307903],[883.581511354867,1082.5279764608495],[865.096162741547,1077.1203617951605],[866.7314119904577,1075.6061526537928],[892.9910037910328,1078.7451999594027],[894.1172639436753,1065.1729876485458],[899.7001641800989,1068.666527901566],[903.3155933290315,1041.2804250951315],[921.2529061834391,1028.1946138667747],[946.3943036004756,1032.103356669379],[952.9842311891845,1034.109676027878],[951.8198653914916,1034.7527820868027],[929.6928994686002,1048.790350111061]]]]}},{"type":"Feature","properties":{"Level":"ADM2","shapeGroup":"SGP","shapeID":"SGP-ADM2-91842731B7509188","shapeName":"Rochor","shapeType":"ADM2"},"geometry":{"type":"MultiPolygon","coordinates":[[[[1001.3482579403011,1015.2116523687611],[1004.3887064265723,1010.9566411522776],[973.8405618362266,1061.1033294503002],[979.9697545665834,1075.102278360318],[966.1824563716532,1090.713688036426],[964.1002781975656,1093.019960743466],[947.4846661684155,1059.0324754570986],[924.0185359653478,1077.714816227328],[954.4827987142617,1036.2752340242232],[931.4031133241554,1065.2316032091671],[947.5298316323936,1037.6794202208496],[967.1377476227069,1033.22596700615],[982.9087857259819,1026.8858888287152],[985.5705931873468,1026.3178322814338],[979.4068195024814,1029.0825780233959],[1001.3482579403011,1015.2116523687611]]]]}},{"type":"Feature","properties":{"Level":"ADM2","shapeGroup":"SGP","shapeID":"SGP-ADM2-91842731B82615982","shapeName":"Seletar","shapeType":"ADM2"},"geometry":{"type":"MultiPolygon","coordinates":[[[[1117.982496043703,1620.9040431671078],[1116.6025480633275,1622.1596464576764],[1113.057262861414,1624.7240574104944],[1112.7304275786717,1625.050272275358],[1112.9807594323831,1624.7929133736363],[1112.4856907993906,1625.3032692461243],[1112.4399985659206,1625.3457164800802],[1112.4480908668381,1625.338318206169],[1112.5190074421487,1625.2682965856707],[1112.8066005196702,1624.8871442550874],[1113.3077608927872,1623.38354534366],[1113.3972875380052,1617.5960946522664],[1112.8992819588086,1624.8385888327987],[1112.7796562609326,1624.984085527156],[1114.1875680828944,1623.712571277961],[1117.982496043703,1620.9040431671078]],[[1112.479585029577,1625.308518798362],[1112.45162058269,1625.335065157729],[1112.4554754378585,1625.331576162974],[1112.479585029577,1625.308518798362]]]]}},{"type":"Feature","properties":{"Level":"ADM2","shapeGroup":"SGP","shapeID":"SGP-ADM2-91842731B81849311","shapeName":"Sembawang","shapeType":"ADM2"},"geometry":{"type":"MultiPolygon","coordinates":[[[[1070.1435282557877,1593.7279007052484],[1101.1426446326234,1621.163825719349],[1109.8866453526139,1625.35232843242],[1112.1750516508364,1625.49672000419],[1112.0824582546322,1625.5125055478718],[1112.2268594392804,1625.4827497677802],[1112.1121319676226,1625.5083626196085],[1111.9617663070173,1625.5547962417659],[1111.6206243460222,1625.654519600836],[1111.3093011450146,1625.7510822986414],[1111.7310662355887,1625.6486754848784],[1109.2070851288158,1626.672904038237],[1105.7417965422171,1626.4965953933518],[1107.1210110878358,1626.8452617244993],[1104.8118945741292,1626.7746869550472],[1105.851275810708,1627.241610626851],[1101.5339641456626,1627.152424146406],[1105.1665366341324,1627.5406679455918],[1099.623898774763,1628.5011148245205],[1066.98162417567,1628.25045352579],[1016.2010495126145,1611.049134290713],[1054.9898100303812,1609.6061587161537],[1069.0093728813902,1615.4949946008073],[1052.885306847839,1578.1244410442077],[1053.6910949591243,1578.3303311272546],[1058.3952968626347,1583.382102888574],[1055.4928907540143,1579.499258437587],[1070.1435282557877,1593.7279007052484]]]]}},{"type":"Feature","properties":{"Level":"ADM2","shapeGroup":"SGP","shapeID":"SGP-ADM2-91842731B50862644","shapeName":"Sengkang","shapeType":"ADM2"},"geometry":{"type":"MultiPolygon","coordinates":[[[[1096.1547577411466,1538.5785026578978],[1112.7462144078054,1572.898725531259],[1117.7330442664006,1595.8430813885234],[1149.6587225625626,1484.9068736112094],[1193.1701799566783,1423.8059993508252],[1226.818896827418,1407.6386844987342],[1231.993038726508,1404.6442874213358],[1239.7452478682176,1414.63389988356],[1238.7562877496628,1423.3473990488653],[1191.0761929766095,1539.887123644302],[1147.3755243788103,1586.17901266963],[1112.8992819588086,1624.8385888327987],[1113.3972875380052,1617.5960946522664],[1111.390898079851,1606.2712714972445],[1091.3659005021827,1559.0617815019623],[1108.1386105720237,1593.041928704856],[1110.0108530285725,1595.3571285668522],[1096.1547577411466,1538.5785026578978]]]]}},{"type":"Feature","properties":{"Level":"ADM2","shapeGroup":"SGP","shapeID":"SGP-ADM2-91842731B85682916","shapeName":"Serangoon","shapeType":"ADM2"},"geometry":{"type":"MultiPolygon","coordinates":[[[[1025.9333958229377,1305.6824044996317],[1022.6653933047965,1234.2743216711324],[1042.8128211488777,1253.377256994994],[1056.5061876076745,1252.9325798779055],[1084.3380301855166,1272.002890040062],[1118.151225870431,1265.424832285877],[1097.0355259134408,1313.3130410052827],[1088.0642116716142,1317.638160423729],[1094.366630043665,1328.0220736748995],[1083.4773317854902,1350.058293378872],[1084.5375216014513,1366.7542963566784],[1098.7292907592343,1414.1366622845385],[1111.340144304431,1533.3979805614101],[1112.7462144078054,1572.898725531259],[1096.1547577411466,1538.5785026578978],[1059.8217204249738,1422.4295136839194],[1054.3798703405664,1378.8899954058425],[1025.9333958229377,1305.6824044996317]]]]}},{"type":"Feature","properties":{"Level":"ADM2","shapeGroup":"SGP","shapeID":"SGP-ADM2-91842731B49662430","shapeName":"Simpang","shapeType":"ADM2"},"geometry":{"type":"MultiPolygon","coordinates":[[[[1112.3457446487348,1625.4206375016263],[1112.271084590998,1625.4649457677435],[1112.2645184076673,1625.4680464182736],[1112.281286809384,1625.4598714903336],[1112.3190196818257,1625.4381457301279],[1112.3547960633982,1625.4140917646187],[1112.3712213921895,1625.4021679037469],[1112.3457446487348,1625.4206375016263]]],[[[1112.1750516508364,1625.49672000419],[1112.239810217715,1625.478164139082],[1112.2691362291503,1625.465860903087],[1112.2944689843584,1625.4527526246782],[1112.3046426622113,1625.4469297665387],[1112.4063020346307,1625.3744557839777],[1112.3211180539522,1625.4368081804228],[1112.3299987179569,1625.4311791041407],[1112.3236142933276,1625.4352094710812],[1112.3170167052233,1625.4394018272212],[1112.3076081492861,1625.4451020974952],[1112.2783960672068,1625.4613473104437],[1112.2584639576908,1625.4707284766573],[1112.2622634504971,1625.469084140947],[1112.2268594392804,1625.4827497677802],[1112.0824582546322,1625.5125055478718],[1112.1750516508364,1625.49672000419]]]]}},{"type":"Feature","properties":{"Level":"ADM2","shapeGroup":"SGP","shapeID":"SGP-ADM2-91842731B30699469","shapeName":"Singapore River","shapeType":"ADM2"},"geometry":{"type":"MultiPolygon","coordinates":[[[[934.3005461562296,1023.1681375734095],[957.809103609568,1033.5545802630231],[1003.6098431464611,1003.1314561988539],[1009.9250744489862,986.5920964587453],[987.8339614114553,1024.2401412592583],[952.9842311891845,1034.109676027878],[946.3943036004756,1032.103356669379],[921.2529061834391,1028.1946138667747],[903.3155933290315,1041.2804250951315],[899.7001641800989,1068.666527901566],[894.1172639436753,1065.1729876485458],[896.228816433529,1052.724086849357],[896.6105839795052,1051.5278843515682],[896.811663723724,1051.10242960508],[896.9950079079337,1050.1763101857396],[897.0157826256709,1050.1553733005878],[900.3583333854675,1044.6049138257788],[934.3005461562296,1023.1681375734095]]]]}},{"type":"Feature","properties":{"Level":"ADM2","shapeGroup":"SGP","shapeID":"SGP-ADM2-91842731B37609929","shapeName":"Southern Islands","shapeType":"ADM2"},"geometry":{"type":"MultiPolygon","coordinates":[[[[899.5548917934772,869.6223072335573],[898.2008897744839,869.8084328811268],[899.8589572501072,868.7095182404357],[902.1589729344615,868.5586538892385],[899.5548917934772,869.6223072335573]]],[[[895.4388232169449,871.8696362423293],[896.5306179235449,871.0876255109944],[897.3816984433242,870.986467451206],[895.4388232169449,871.8696362423293]]],[[[937.3867589067866,874.4193844848479],[930.0163857994253,872.3494507575306],[936.5430747083774,874.012218222531],[934.4370665146525,873.363206243567],[935.777293367569,873.6122462718553],[936.0436666514695,873.5451515864406],[937.3973999044993,873.7278881635331],[936.3462200049963,873.5959387779026],[936.8341097287193,873.7476674211808],[936.8825880031222,873.6729913313808],[938.7557945037053,874.1874380285002],[943.6582849699389,875.154459141707],[944.088947480632,875.4248989803945],[942.989802535769,874.7379886131575],[942.2868160479177,874.46351142351],[939.9910331371302,874.0685365428596],[942.4185804729683,874.4748508275383],[943.120138800987,874.7603637631205],[944.6572151590875,875.7558808813429],[944.2579242269258,875.8212573812017],[937.3867589067866,874.4193844848479]]],[[[912.8166231280271,871.0211955975722],[908.4035598419134,870.8219189519824],[914.1052940012706,871.0366496690593],[911.1222557814757,870.3609633101638],[915.0039763599722,871.0932155012729],[915.6551500475164,871.0068984061174],[918.5905731114409,871.1664342754742],[919.1370618925812,871.0010177009815],[916.2023548872105,870.8029194213752],[919.982541911807,870.7961451694227],[918.8732367954992,870.3766890373166],[910.4790205681338,869.9590580447498],[907.9304904733566,869.6951329766234],[922.5551545922317,869.1804821347366],[918.5825150907586,870.1758812446102],[919.9634475515988,870.1908863054229],[920.4930131084512,870.6503389917524],[930.3046467694871,870.9067023665485],[934.5028603091819,872.3346274796431],[925.5361311656446,871.6575989778953],[922.457334823821,871.1347813548376],[920.405763175248,871.204236197465],[921.4870494249816,871.4639569763176],[927.728113376158,872.5770132731836],[929.9116040386772,873.5527457971002],[916.7456629290759,871.4670547352313],[914.2509252250645,871.0696813626384],[912.8166231280271,871.0211955975722]]],[[[901.8928732840201,871.1823188215429],[899.394962097962,872.3424378735123],[894.6203681127581,874.3299345699459],[894.2276447644203,874.2487213088989],[897.2636695914147,872.8997963609006],[901.0596362585918,871.2189262711538],[901.8928732840201,871.1823188215429]]],[[[922.8215472946843,873.0605869753575],[919.9568541289466,872.9485722462391],[915.9647068501941,872.7172250566692],[905.3852125985156,871.5802498784658],[907.7358976010246,871.3505222236879],[913.6413600517594,872.1074948582443],[920.1451025667081,872.3805824813049],[922.8215472946843,873.0605869753575]]],[[[873.5392921845955,898.5298469283349],[870.196330806394,901.5034779415527],[865.6058107988872,906.2919513956289],[859.4281059331053,907.2894156217812],[829.4256573308037,905.3699601208687],[847.0204523898934,905.1894974950749],[846.359967411984,905.7826435676134],[865.5606572534492,902.9643380949433],[869.0197049093687,899.6511845584164],[870.5539504568226,898.4722492864092],[875.2362126306168,893.8747066279836],[875.2746060290754,893.4914658639212],[889.5754527854101,877.1233110481686],[898.0563731739333,873.7020925933177],[908.1238112143346,872.6583082743529],[905.5985163571729,873.0950585240555],[898.6948750044958,874.5824164837388],[898.2865963361135,875.1335503936918],[890.6473017661464,879.3646608232432],[878.8596988757902,892.7123385416119],[874.981226273113,896.1394411883603],[874.946736437631,896.8976434523515],[874.3076230931038,897.6411281995686],[873.7178030087447,897.7969613696434],[873.998695769086,897.99750575093],[873.5392921845955,898.5298469283349]]]]}},{"type":"Feature","properties":{"Level":"ADM2","shapeGroup":"SGP","shapeID":"SGP-ADM2-91842731B80067240","shapeName":"Straits View","shapeType":"ADM2"},"geometry":{"type":"MultiPolygon","coordinates":[[[[986.4020971821317,937.3470933480271],[980.4026792897748,932.9133725527867],[979.3469741990041,930.6792669123081],[990.2141939723275,939.505232002336],[986.1695658321944,935.0784718288811],[989.1628330194847,937.8668992470983],[991.6506745938698,941.0007055543465],[1002.7669194337557,955.9289997085515],[1003.8735540222934,961.1998143243446],[1002.5465104897592,958.5994845721477],[1001.8149064687199,957.1673823121703],[985.9683000645423,936.8010164457198],[986.4020971821317,937.3470933480271]]]]}},{"type":"Feature","properties":{"Level":"ADM2","shapeGroup":"SGP","shapeID":"SGP-ADM2-91842731B83761023","shapeName":"Sungei Kadut","shapeType":"ADM2"},"geometry":{"type":"MultiPolygon","coordinates":[[[[895.0386579520875,1379.1225146443935],[773.7538604150266,1399.594954141784],[763.9802176030133,1400.587970989966],[773.8029212155291,1399.588758506555],[777.5030306571687,1399.2514449205003],[774.7307172766259,1399.535880526816],[774.1037754519962,1399.5717842422528],[757.0652522670289,1400.501669583779],[728.6500012456902,1396.3707309613487],[618.4881327417042,1332.1896540349062],[602.8171424454795,1301.3963943379288],[618.8094013576527,1333.0213275408405],[612.1897992198119,1317.9327506204754],[594.0392016137841,1285.3427367207105],[590.0778234563114,1277.8258867408576],[589.3630831265205,1276.66748723056],[588.7303551344551,1275.5794430004644],[595.946118394332,1288.6357767247707],[605.587607662066,1306.9190496420406],[595.5243739230411,1287.985120644597],[589.4283340357424,1276.7255867081276],[586.5578718978916,1271.5838566671277],[585.6064405743348,1269.1564244107517],[584.6579767280755,1267.1358851863617],[584.2320336808315,1266.20674850484],[580.4767600482794,1261.0960596419027],[580.0703122003156,1260.5339572189835],[579.2163802474299,1259.3162170493824],[576.7216788974124,1256.0496610072091],[577.5763914548411,1257.0580876006666],[577.9030587079428,1257.4155745157263],[578.0264822664491,1257.5756492768253],[578.0699092519483,1257.6334648599454],[578.2655033550411,1257.9615246410456],[584.7527557342689,1267.7349378710367],[617.9473538080583,1329.1337004305403],[723.6638034814933,1394.8686984341643],[782.2330819820444,1398.801500466583],[791.4265224742039,1397.7435819394525],[841.9881077946286,1390.4518881355136],[895.0386579520875,1379.1225146443935]]]]}},{"type":"Feature","properties":{"Level":"ADM2","shapeGroup":"SGP","shapeID":"SGP-ADM2-91842731B36527330","shapeName":"Tampines","shapeType":"ADM2"},"geometry":{"type":"MultiPolygon","coordinates":[[[[1386.6528973383013,1214.0112017845472],[1490.8605662389011,1323.4766670820363],[1502.2771389415013,1355.6167870561655],[1499.6493073010067,1352.2255998261717],[1495.2039196778185,1371.662843819584],[1496.1593146069224,1370.7753156307606],[1492.5899675060407,1373.8959882915237],[1483.8351076142087,1381.1232446821082],[1448.5024045084629,1402.6070125272406],[1338.5569933664447,1422.5495453572235],[1251.6038090701104,1422.744550905779],[1242.072173671303,1412.6332440722658],[1235.7304829660907,1407.1869893251217],[1219.6416157721567,1393.0619709308853],[1257.6969134537878,1332.1392233103365],[1329.1720323200243,1300.4815672367433],[1358.0231058166598,1255.3496318135994],[1382.8816864855273,1242.5667948126522],[1386.6528973383013,1214.0112017845472]]]]}},{"type":"Feature","properties":{"Level":"ADM2","shapeGroup":"SGP","shapeID":"SGP-ADM2-91842731B68539058","shapeName":"Tanglin","shapeType":"ADM2"},"geometry":{"type":"MultiPolygon","coordinates":[[[[896.9950079079337,1050.1763101857396],[896.811663723724,1051.10242960508],[896.6105839795052,1051.5278843515682],[896.228816433529,1052.724086849357],[894.1172639436753,1065.1729876485458],[892.9910037910328,1078.7451999594027],[866.7314119904577,1075.6061526537928],[865.096162741547,1077.1203617951605],[863.6466589819754,1077.4394303426811],[871.718672459726,1081.4370671586682],[868.4217689143534,1080.9937384000232],[869.7519056276554,1083.34471897205],[884.1981503847716,1095.496342146145],[869.130605164095,1108.4932053084024],[868.4444225545719,1109.6069427428465],[863.3489259873957,1108.5018765274176],[857.5853362682076,1096.0627672110309],[844.1762402189433,1080.1129859918449],[830.957289465171,1058.7250004810044],[827.3144627882117,1043.3565557741895],[834.8907101314549,1048.675368535478],[838.610099228726,1045.1412466350073],[852.2673771727455,1053.8305201279036],[850.4194015028113,1046.4676723278571],[874.8423058186456,1047.562942078093],[896.6885856037924,1050.401223362409],[896.9950079079337,1050.1763101857396]]]]}},{"type":"Feature","properties":{"Level":"ADM2","shapeGroup":"SGP","shapeID":"SGP-ADM2-91842731B47131171","shapeName":"Tengah","shapeType":"ADM2"},"geometry":{"type":"MultiPolygon","coordinates":[[[[673.7854740766279,1246.086592099341],[605.9146584179957,1253.262563906151],[577.0267420316957,1256.4401050010858],[575.480678468648,1254.5002010092321],[574.6197595358262,1253.5160119955383],[555.7998224376392,1235.733533270171],[545.5690152334992,1224.4196115996922],[576.1924824287057,1255.3452762230656],[576.5024198237271,1255.6767087003047],[578.7916581122279,1258.61326214567],[579.8328692739474,1260.0623850958782],[583.452409788915,1263.9598363667683],[584.4985118674324,1264.6433671435727],[585.2889161452619,1263.6528467739076],[586.4004121226822,1262.365980606935],[605.8626657565387,1252.606648995415],[642.3622880968057,1249.5138885955155],[648.8271895013316,1249.2027358789487],[682.0230198167197,1239.7820813005542],[698.486335772611,1208.2758045401536],[701.7834096155032,1198.0997334360318],[699.9332235202758,1205.4028631101255],[699.2338530242577,1207.7726204210176],[698.7880060779123,1210.203242643077],[698.1851600009161,1213.5729483615658],[693.1635327922363,1229.297985773441],[668.991858595558,1247.4854950267434],[637.417415310697,1249.813127226037],[673.7854740766279,1246.086592099341]]]]}},{"type":"Feature","properties":{"Level":"ADM2","shapeGroup":"SGP","shapeID":"SGP-ADM2-91842731B95029368","shapeName":"Toa Payoh","shapeType":"ADM2"},"geometry":{"type":"MultiPolygon","coordinates":[[[[906.0490190195616,1214.8149357917287],[906.0238308839764,1214.6333865407055],[903.1413050876959,1194.835160774625],[901.8303795182516,1143.1805423466876],[974.881163368231,1152.2249848956674],[1011.4139515032439,1166.0474416069915],[1011.597616989782,1166.0565814486986],[1013.5309227749437,1165.8353018808348],[1040.09337701132,1164.1734274225787],[1126.6313753950174,1226.3931612707324],[1118.151225870431,1265.424832285877],[1084.3380301855166,1272.002890040062],[1056.5061876076745,1252.9325798779055],[1042.8128211488777,1253.377256994994],[1022.6653933047965,1234.2743216711324],[906.3896662555361,1217.7768361622968],[906.0490190195616,1214.8149357917287]]]]}},{"type":"Feature","properties":{"Level":"ADM2","shapeGroup":"SGP","shapeID":"SGP-ADM2-91842731B80812605","shapeName":"Tuas","shapeType":"ADM2"},"geometry":{"type":"MultiPolygon","coordinates":[[[[499.5866289743649,1010.4347108863448],[495.7588291791878,1024.982608051946],[495.29938112642617,1026.205786278869],[493.0883271213979,1030.8940466142876],[492.5342624556638,1031.936887161348],[491.99453395387195,1033.177480179528],[485.18599843517273,1060.3116327532591],[485.57563274706445,1055.9928612929855],[485.24562088557127,1059.2675301999511],[485.31970099135725,1058.4680424898759],[485.183134475502,1061.5678351863244],[486.0488010487966,1053.1327714104295],[486.5663646580425,1050.7180855696647],[500.20808897007254,1007.4773828711441],[511.6845763907917,994.9937885377151],[511.46147748228793,995.0416479795914],[508.85098805364817,996.9349784493975],[498.9009620510939,1010.4736936515936],[498.8658755572469,1010.6009891615054],[507.9517899619103,997.4594779392824],[508.0162916566949,997.3568861602835],[510.76302804434056,995.3480365380921],[510.7466441312963,995.3305734674468],[506.8319804986964,998.2345004782837],[506.9428311182132,998.0512472933988],[511.3154511073267,994.8645670763794],[511.335130210357,994.8361541730472],[499.85790501011434,1006.9875863638149],[511.7532443098749,993.6672925302612],[514.0625671656699,992.786110433274],[521.2055009393871,991.3933829790531],[521.4449846443529,991.5845389217678],[518.665069883002,992.4198730656809],[514.7587342140765,993.4987244723497],[514.6508730441576,993.6246075711352],[516.1157423317771,993.2691220992937],[516.1244131051086,993.2883758379692],[514.3913866583482,993.728302294108],[514.1420079799855,993.8600080623992],[515.2922561326068,993.4980225480458],[515.7727222470539,993.3818010477178],[515.8079632344122,993.388071247135],[513.7873127234147,994.0078312034987],[513.4387575091469,994.0970910585838],[515.8708755735946,993.3898258538461],[515.870907553905,993.4065517408739],[515.672074414677,993.455495142706],[515.0847635033448,993.7142192456135],[515.4479469221984,993.5679214917188],[515.1151444946037,993.7313285834668],[514.1037692866062,994.1038504717093],[512.4505666878417,994.7969749242936],[500.11954217944077,1007.8829944947852],[499.47795801355164,1010.626420419281],[506.09138251959655,999.8558109096703],[502.4504572178355,1003.991108007355],[505.49670014203423,1000.4722450450363],[509.52399263264465,996.8697385897556],[511.5199358533147,995.2423056970995],[510.1309897967211,996.3718176709605],[510.3534614126046,996.1584273846137],[510.03522107399897,996.5033492890968],[507.76491177866274,998.517191592081],[499.5866289743649,1010.4347108863448]]]]}},{"type":"Feature","properties":{"Level":"ADM2","shapeGroup":"SGP","shapeID":"SGP-ADM2-91842731B84058945","shapeName":"Western Islands","shapeType":"ADM2"},"geometry":{"type":"MultiPolygon","coordinates":[[[[706.3437930234182,852.7458145333279],[705.7893605643764,852.6894465397982],[705.8968109190771,852.1074961173591],[706.440463060203,851.949114624448],[708.0218723000245,849.0974757109234],[709.1780848445949,849.1331797849044],[707.915123891018,851.6261289964901],[707.6680390422428,851.7671206892115],[708.0227038994902,851.6196679097992],[708.0303329552685,851.9652314827157],[707.2273264945306,852.3960293755439],[707.1904897912569,852.1772468530402],[707.0791818868825,852.4153089040956],[706.8131890528911,852.4061931745368],[706.3437930234182,852.7458145333279]]],[[[706.2771939802507,853.0701200658234],[706.3698217502484,853.0843595036655],[706.0641606066993,853.1110355685529],[706.2771939802507,853.0701200658234]]],[[[704.5776647296037,853.4071402478805],[703.8604890858696,853.6688199575884],[703.6456556130744,853.5002750043933],[700.578288006748,853.8024508195828],[703.0097180109254,853.1779740924405],[704.3186184931354,853.2391558925688],[705.114826740022,853.1613961253081],[705.0454251583128,853.2165878415072],[704.6419176997064,853.287963351872],[704.9354522790327,853.2462079075395],[705.0953875416592,853.2055941327906],[704.8836326163893,853.2751954330877],[705.1685622435375,853.1983842787973],[705.510691747204,853.159466962675],[705.1451229179401,853.2765144753168],[704.7115748959221,853.3246702953876],[704.9883962296262,853.3008521982871],[704.5776647296037,853.4071402478805]]],[[[709.3231538629414,852.8111674934971],[708.7724170607421,852.813351981368],[709.7004174072952,852.7834143428038],[709.3231538629414,852.8111674934971]]],[[[789.5779152196536,856.1569450837483],[784.4886318651113,855.8131993814841],[787.4863577508668,855.2546419489088],[795.2512463942278,855.3287131714661],[820.5935834630127,858.7856095091163],[802.5518195680562,856.8918081077456],[789.5779152196536,856.1569450837483]]],[[[696.801481831715,855.1129062442762],[682.5228322398074,857.6863815091037],[674.1956772406891,858.8763022333221],[691.8493710256911,854.8700403304167],[700.6539732590968,854.3890474200393],[703.4558179867392,854.0048531021001],[704.7161729078701,853.7262007842829],[704.500978526763,853.8033711367084],[704.4108153914857,853.8842317092374],[705.1814705633501,853.5559315752771],[704.7794516816506,853.788798623367],[702.771248896428,854.2276252359732],[703.4149892938841,854.1600881338795],[704.2777010983282,853.9664993482241],[703.3046883578731,854.2026574479685],[702.3803594393221,854.3756528499848],[700.5434330801351,854.581384093769],[697.1182007058657,855.0564238734141],[699.144435722244,854.8934728487135],[696.801481831715,855.1129062442762]]],[[[708.6665792076076,852.9724876874457],[708.31277058183,853.0192800549373],[708.7982359773363,852.8857420394207],[709.2403258083945,852.8568688539636],[709.3590625163646,852.8754527463859],[709.6459171160616,852.8538799557117],[709.805875892652,852.8601019176886],[709.4196455773414,852.8871553120329],[709.8658262023035,852.8701782554417],[710.2452806908402,852.8435968521763],[710.4464538053854,852.7547135508538],[716.4167413443297,852.5931642658645],[719.8599332716751,852.3095929424971],[722.1972703061258,852.2485008567203],[721.6111492715684,852.4083385488073],[735.0946820381328,852.2561027248818],[720.772083864784,852.84022837154],[715.3579579512891,853.0894183812195],[711.3548770884665,852.8994752069477],[710.1195059545041,852.9179917044448],[709.6439908612796,852.9005336261359],[709.5226601823242,852.9256001610654],[708.9917716717453,852.9285564588408],[709.4568541243532,852.9305123050074],[709.3142572788627,852.9514036680733],[708.9374957103497,852.9468452703256],[708.9286979704012,852.9738679580503],[708.6665792076076,852.9724876874457]]],[[[707.2242981375805,853.2122901718994],[706.6208993613784,853.485471169144],[707.0062675786144,853.2546445037332],[707.2265807713578,853.1975622404183],[707.0979355457323,853.2169957792489],[707.196520506142,853.1992356948481],[707.4552312262884,853.1629382166778],[707.3352719078263,853.1785431997479],[707.2910829064928,853.1910521536635],[707.3262356404695,853.1912061897385],[707.441419966475,853.1693185325032],[707.2242981375805,853.2122901718994]]],[[[706.3561176878492,853.6391492589972],[706.3410130061053,853.5517153196859],[706.5488085580349,853.4330399991925],[706.3936519302091,853.5056037466005],[706.9446106324488,853.2463875322327],[706.7498788516472,853.3243922317146],[706.8150871977566,853.33325034034],[706.3673097303234,853.5810057920337],[706.3561176878492,853.6391492589972]]],[[[706.4231326158729,853.9825841530005],[704.462443937812,854.901300661282],[702.1686746154871,855.2105963158332],[704.7323383513436,854.301647654409],[706.9678315581666,853.3788668048911],[708.2160416580896,853.1027618540514],[709.4802716326388,853.0698450192807],[709.678961483161,853.0843272446837],[708.9288553340115,853.1104324921056],[707.9141096740015,853.1695374180874],[707.5296909793562,853.4768319674358],[707.1550018514079,853.4761150002571],[706.4231326158729,853.9825841530005]]],[[[708.3976321728294,853.7071734418885],[707.9507338661515,853.5721251669743],[707.9614267699399,853.1860314152607],[709.5856680791853,853.0992430137826],[710.8371122453216,853.0805587896002],[717.7640870938433,853.5704860646231],[710.5582850471238,853.1361414963974],[708.8248481399542,853.5121686479052],[708.3976321728294,853.7071734418885]]],[[[518.7082502818938,992.5701526715077],[518.8098199242049,992.5438796856868],[518.3158444603619,992.6572701854541],[517.6759570360878,992.9292411156134],[517.5231696421754,992.9577020801694],[517.5455347448135,992.9466803272097],[517.4423764085361,992.9691946740044],[517.4258075605285,992.9741986978004],[517.2890427357822,992.9995266526244],[517.1512676441318,993.0452783874349],[517.2299673321702,993.0287064781517],[517.2417466381878,993.0393630677275],[516.7277983761551,993.2026074643757],[516.5088604197106,993.2560429223533],[516.2765915438965,993.333418663485],[516.2813861828752,993.3227455370655],[516.3238333141462,993.3014710629853],[516.84284550033,993.0889519204518],[517.0567858441632,992.9985004185319],[517.2337910178626,992.9377655839187],[519.635408979186,992.2059355729057],[520.0444003291377,991.9755708615614],[518.3520305734729,992.5425101948806],[520.7305370795797,991.7745862083536],[521.7370957497518,991.7105084285259],[519.8527529604436,992.1788464469777],[517.4526980212488,992.9414083497697],[517.2307541476756,992.9993918424364],[517.2744888429806,992.9964219644784],[517.4840116115603,992.9426609132415],[517.9781315986106,992.7131652700872],[520.2049111722691,992.1059067603171],[521.4727936161371,991.909010956267],[517.8632554034119,992.8039966778347],[517.8034919279993,992.8357301386152],[518.027840132193,992.7158652994792],[517.9908536561202,992.7390824261704],[518.4752975764638,992.5854839330598],[525.6672056822188,991.3556105394824],[530.5355123277133,989.6583860239],[528.4183483456131,990.604561027741],[525.3205435779892,991.5097406539053],[522.7584714482424,991.940151527504],[521.8610846586682,991.9191633942771],[522.1340163741564,991.9343490229118],[525.3050947552305,991.5158106806105],[526.722527849715,991.12512836166],[549.7165309008863,979.4261541709519],[526.7330061485376,991.1587172370807],[524.1293878623177,991.811086764184],[522.9813518062161,991.9547507138775],[521.952594286077,991.9419395092915],[520.9258405010132,991.9982733211795],[520.5607925182079,992.0907759702013],[520.7199610491906,992.050805041979],[520.4151026714405,992.1270990931681],[520.2458004980907,992.1558264411103],[519.0324151581094,992.5000904402798],[518.8944821729413,992.5355008826928],[518.7082502818938,992.5701526715077]]]]}},{"type":"Feature","properties":{"Level":"ADM2","shapeGroup":"SGP","shapeID":"SGP-ADM2-91842731B8759017","shapeName":"Western Water Catchment","shapeType":"ADM2"},"geometry":{"type":"MultiPolygon","coordinates":[[[[617.9473538080583,1329.1337004305403],[584.7527557342689,1267.7349378710367],[578.2655033550411,1257.9615246410456],[578.0699092519483,1257.6334648599454],[578.0264822664491,1257.5756492768253],[577.9030587079428,1257.4155745157263],[577.5763914548411,1257.0580876006666],[576.7216788974124,1256.0496610072091],[575.115555810767,1254.017609386434],[572.5357836099178,1251.3844282163575],[574.6646580680135,1253.555244810525],[572.1680320989026,1251.0472819065265],[570.3976713159844,1249.3267617313832],[574.866881991472,1253.7125836726027],[575.1007986742338,1253.9948629543642],[575.1757507896992,1254.1073073927196],[575.3798979581177,1254.3823616330205],[575.4481787053601,1254.4650963032338],[579.3145975025448,1259.451776794856],[581.9502767338848,1263.4457277693537],[582.3512106820092,1263.9576087561582],[579.571391750326,1259.8877965244565],[582.9866262124474,1264.365241085548],[579.6268563981026,1259.9847314386088],[581.868972822495,1263.240913580521],[577.8883667267239,1257.4055302381644],[577.6228994679931,1257.1171097147344],[575.7918401228935,1254.8939531345613],[575.2831337716705,1254.2670811454489],[575.3114031088057,1254.3028360644803],[575.2051297362432,1254.1544060957153],[575.109533399245,1254.0097868179919],[574.9947082079369,1253.8470346691945],[574.92627047459,1253.7659498261871],[571.4753873142931,1250.3617960205963],[571.0828031022622,1249.984954779398],[563.01673766462,1242.4003213164872],[560.0628863798918,1239.778181222228],[557.9611659628708,1237.9592643003093],[550.7780724273147,1230.668366316766],[538.981554665251,1215.1044903154868],[529.1821167688569,1198.247587221986],[527.6918916734585,1195.6208368414445],[527.0091356701129,1194.413282512457],[519.0846292948451,1180.0229415551387],[521.3579000552913,1184.245187293433],[518.8165228044952,1179.5137124409239],[486.08915600432636,1076.8401763283207],[485.83836445088036,1072.59324236125],[485.18599843517273,1060.3116327532591],[491.99453395387195,1033.177480179528],[492.5342624556638,1031.936887161348],[493.0883271213979,1030.8940466142876],[495.29938112642617,1026.205786278869],[495.7588291791878,1024.982608051946],[499.5866289743649,1010.4347108863448],[497.223917761831,1020.6873841822526],[496.47374821016456,1022.7686773785958],[496.37124292378945,1023.1127785236516],[495.23086996735447,1026.3314999543752],[492.2251859882778,1032.6399310292563],[491.61281428201073,1034.2656793119427],[486.7384986371155,1049.988876212187],[496.24363539381966,1125.5640649045538],[545.5690152334992,1224.4196115996922],[555.7998224376392,1235.733533270171],[574.6197595358262,1253.5160119955383],[575.480678468648,1254.5002010092321],[576.0075756714334,1255.1512503998515],[586.6051513512855,1271.6146000230992],[584.926572695518,1268.2009995019187],[617.2574341847157,1327.043625924247],[617.9473538080583,1329.1337004305403]]],[[[586.1795883539164,1271.152126188253],[591.0443230970469,1279.8867442952892],[589.2071152660033,1276.5378363681414],[586.1795883539164,1271.152126188253]]]]}},{"type":"Feature","properties":{"Level":"ADM2","shapeGroup":"SGP","shapeID":"SGP-ADM2-91842731B34010756","shapeName":"Woodlands","shapeType":"ADM2"},"geometry":{"type":"MultiPolygon","coordinates":[[[[1053.6910949591243,1578.3303311272546],[1052.885306847839,1578.1244410442077],[1069.0093728813902,1615.4949946008073],[1054.9898100303812,1609.6061587161537],[1016.2010495126145,1611.049134290713],[879.4867408551122,1514.8236581089957],[797.906577725201,1403.3013741717875],[833.2191258176761,1485.56530485948],[789.4454373797417,1397.9984254526212],[779.7350183140903,1399.0478956126306],[774.7307172766259,1399.535880526816],[777.5030306571687,1399.2514449205003],[773.8029212155291,1399.588758506555],[763.9802176030133,1400.587970989966],[782.509749687126,1398.7722283418123],[838.9913560148783,1390.9526057464773],[895.7510128138124,1378.8124145481906],[896.5237106705013,1378.4555747903944],[1021.5107775076755,1539.2044970666868],[1053.6910949591243,1578.3303311272546]]]]}},{"type":"Feature","properties":{"Level":"ADM2","shapeGroup":"SGP","shapeID":"SGP-ADM2-91842731B71564682","shapeName":"Yishun","shapeType":"ADM2"},"geometry":{"type":"MultiPolygon","coordinates":[[[[1091.3659005021827,1559.0617815019623],[1111.390898079851,1606.2712714972445],[1113.3972875380052,1617.5960946522664],[1113.3077608927872,1623.38354534366],[1112.8066005196702,1624.8871442550874],[1112.5190074421487,1625.2682965856707],[1112.4480908668381,1625.338318206169],[1112.445494921642,1625.3405084760304],[1112.4063020346307,1625.3744557839777],[1112.3046426622113,1625.4469297665387],[1112.2944689843584,1625.4527526246782],[1112.2691362291503,1625.465860903087],[1112.239810217715,1625.478164139082],[1112.1750516508364,1625.49672000419],[1109.8866453526139,1625.35232843242],[1101.1426446326234,1621.163825719349],[1070.1435282557877,1593.7279007052484],[1046.1701534430806,1567.7742430973192],[923.8234611535253,1411.3881895863296],[897.2815942350708,1378.0389734734867],[896.5926557035791,1378.419292808184],[896.5304544936092,1378.4518423194675],[896.5217476750882,1378.456665912143],[896.5299105529269,1378.4521433716689],[896.6778232848206,1378.3796191694094],[901.0099393324892,1374.554408916861],[1013.7792606505916,1473.744078291354],[1091.3659005021827,1559.0617815019623]]]]}}]}
